{"type":"FeatureCollection","features":[{"type":"Feature","geometry":{"type":"Point","coordinates":[9.82642,44.36389]},"properties":{"alt":0,"basin":"Alto Magra","basinArea":40,"basinClass":"Medio","code":"GRDDIG","imgPath":null,"model":"Monitoraggio Dighe","municipality":"MS","name":"Giaredo monte diga","otherHtml":null,"refDate":null,"river":"Gordana","subFolder":"0730","updateDateTime":"06/17/2025 08:07:23 AM","value":0,"warningArea":null}},{"type":"Feature","geometry":{"type":"Point","coordinates":[9.84819,44.32587]},"properties":{"alt":0,"basin":"Alto Magra","basinArea":30,"basinClass":"Medio","code":"ROCDIG","imgPath":null,"model":"Monitoraggio Dighe","municipality":"MS","name":"Rocchetta monte diga","otherHtml":null,"refDate":null,"river":"Teglia","subFolder":"0730","updateDateTime":null,"value":0,"warningArea":null}},{"type":"Feature","geometry":{"type":"Point","coordinates":[7.52732,44.06946]},"properties":{"alt":0,"basin":"Roya","basinArea":73,"basinClass":"Medio","code":"LMEDIG","imgPath":null,"model":"Monitoraggio Dighe","municipality":null,"name":"Les Mesches monte diga","otherHtml":null,"refDate":null,"river":"Bieugne","subFolder":"0730","updateDateTime":null,"value":0,"warningArea":null}},{"type":"Feature","geometry":{"type":"Point","coordinates":[8.92385,44.56841]},"properties":{"alt":0,"basin":"Stura - Scrivia","basinArea":7,"basinClass":"Piccolo","code":"BUSDIG","imgPath":null,"model":"Monitoraggio Dighe","municipality":"GE","name":"Busalletta monte diga","otherHtml":null,"refDate":null,"river":"Busalletta","subFolder":"0730","updateDateTime":null,"value":0,"warningArea":"E"}},{"type":"Feature","geometry":{"type":"Point","coordinates":[9.03527,44.49311]},"properties":{"alt":0,"basin":"Stura - Scrivia","basinArea":7,"basinClass":"Piccolo","code":"NOCDIG","imgPath":null,"model":"Monitoraggio Dighe","municipality":"GE","name":"Val Noci monte diga","otherHtml":null,"refDate":null,"river":"Val Noci","subFolder":"0730","updateDateTime":null,"value":0,"warningArea":"E"}},{"type":"Feature","geometry":{"type":"Point","coordinates":[8.19766,44.31022]},"properties":{"alt":0,"basin":"Bormida di Millesimo","basinArea":21,"basinClass":"Medio","code":"OSIDIG","imgPath":null,"model":"Monitoraggio Dighe","municipality":"SV","name":"Osiglia monte diga","otherHtml":null,"refDate":null,"river":"Osiglietta","subFolder":"0730","updateDateTime":null,"value":0,"warningArea":"D"}},{"type":"Feature","geometry":{"type":"Point","coordinates":[9.20679,44.53713]},"properties":{"alt":0,"basin":"Trebbia - Aveto","basinArea":25,"basinClass":"Medio","code":"BRUDIG","imgPath":null,"model":"Monitoraggio Dighe","municipality":"GE","name":"Brugneto monte diga","otherHtml":null,"refDate":null,"river":"Brugneto","subFolder":"0730","updateDateTime":null,"value":0,"warningArea":"E"}},{"type":"Feature","geometry":{"type":"Point","coordinates":[9.49731,44.46358]},"properties":{"alt":0,"basin":"tra Entella e Vara","basinArea":4,"basinClass":"Piccolo","code":"SMADIG","imgPath":null,"model":"Monitoraggio Dighe","municipality":"SP","name":"Santa Maria del Taro monte diga","otherHtml":null,"refDate":null,"river":"Taro","subFolder":"0730","updateDateTime":null,"value":0,"warningArea":"C"}}]}