{"type":"FeatureCollection","features":[{"type":"Feature","geometry":{"type":"Point","coordinates":[8.68473,44.40608]},"properties":{"alt":0,"basin":"T. Cantarena","basinArea":4.6,"basinClass":"Piccolo","code":"CANT00","imgPath":null,"model":"Piccoli Bacini","municipality":"GE","name":"Arenzano - Via Veneto","otherHtml":null,"refDate":null,"river":"T. Cantarena","subFolder":"0810","updateDateTime":"06/17/2025 08:25:44 AM","value":-1,"warningArea":"B"}},{"type":"Feature","geometry":{"type":"Point","coordinates":[8.50167,44.34357]},"properties":{"alt":0,"basin":"T. Sansobbia s.s.","basinArea":2.7,"basinClass":"Piccolo","code":"BURASA","imgPath":null,"model":"Piccoli Bacini","municipality":"SV","name":"Luceto","otherHtml":null,"refDate":null,"river":"Rio Buraxe","subFolder":"0810","updateDateTime":null,"value":-1,"warningArea":"B"}},{"type":"Feature","geometry":{"type":"Point","coordinates":[8.49618,44.32414]},"properties":{"alt":0,"basin":"Rio Binella","basinArea":0.6,"basinClass":"Piccolo","code":"BINE00","imgPath":null,"model":"Piccoli Bacini","municipality":"SV","name":"Albissola Marina - Via della Quercia","otherHtml":null,"refDate":null,"river":"Rio Binella","subFolder":"0810","updateDateTime":null,"value":-1,"warningArea":"B"}},{"type":"Feature","geometry":{"type":"Point","coordinates":[8.47549,44.31246]},"properties":{"alt":0,"basin":"T. Letimbro s.s.","basinArea":0.8,"basinClass":"Piccolo","code":"BACCLE","imgPath":null,"model":"Piccoli Bacini","municipality":"SV","name":"Via delle Trincee","otherHtml":null,"refDate":null,"river":"Rio Baccetta","subFolder":"0810","updateDateTime":null,"value":-1,"warningArea":"B"}},{"type":"Feature","geometry":{"type":"Point","coordinates":[8.57742,44.36095]},"properties":{"alt":0,"basin":"T. Teiro s.s.","basinArea":1.2,"basinClass":"Piccolo","code":"ARZOTE","imgPath":null,"model":"Piccoli Bacini","municipality":"SV","name":"Via Piave","otherHtml":null,"refDate":null,"river":"Rio Arzocco","subFolder":"0810","updateDateTime":null,"value":-1,"warningArea":"B"}},{"type":"Feature","geometry":{"type":"Point","coordinates":[8.45493,44.29153]},"properties":{"alt":0,"basin":"Rio delle 4 stagioni","basinArea":0.9,"basinClass":"Piccolo","code":"4STA00","imgPath":null,"model":"Piccoli Bacini","municipality":"SV","name":"Zinola - rotonda Via Nizza VVFF","otherHtml":null,"refDate":null,"river":"Rio delle 4 stagioni","subFolder":"0810","updateDateTime":null,"value":-1,"warningArea":"B"}},{"type":"Feature","geometry":{"type":"Point","coordinates":[8.23183,44.09385]},"properties":{"alt":0,"basin":"Rio San Rocco","basinArea":2.1,"basinClass":"Piccolo","code":"SROC00","imgPath":null,"model":"Piccoli Bacini","municipality":"SV","name":"Ceriale","otherHtml":null,"refDate":null,"river":"Rio San Rocco","subFolder":"0810","updateDateTime":null,"value":-1,"warningArea":"A"}},{"type":"Feature","geometry":{"type":"Point","coordinates":[8.22473,44.0622]},"properties":{"alt":0,"basin":"Rio Antognano","basinArea":3.4,"basinClass":"Piccolo","code":"ANTO00","imgPath":null,"model":"Piccoli Bacini","municipality":"SV","name":"Regione Antognano","otherHtml":null,"refDate":null,"river":"Rio Antognano","subFolder":"0810","updateDateTime":null,"value":-1,"warningArea":"A"}},{"type":"Feature","geometry":{"type":"Point","coordinates":[8.39473,44.18167]},"properties":{"alt":0,"basin":"Rio Armareo","basinArea":0.5,"basinClass":"Piccolo","code":"ARMA00","imgPath":null,"model":"Piccoli Bacini","municipality":"SV","name":"Varigotti - Parco degli Ulivi","otherHtml":null,"refDate":null,"river":"Rio Armareo","subFolder":"0810","updateDateTime":null,"value":-1,"warningArea":"A"}},{"type":"Feature","geometry":{"type":"Point","coordinates":[8.23504,44.11579]},"properties":{"alt":0,"basin":"T. Varatella s.d.","basinArea":1,"basinClass":"Piccolo","code":"RARMVA","imgPath":null,"model":"Piccoli Bacini","municipality":"SV","name":"Borghetto S.S. incrocio Vie Po/Juvarra","otherHtml":null,"refDate":null,"river":"Rio Armussi","subFolder":"0810","updateDateTime":null,"value":-1,"warningArea":"A"}},{"type":"Feature","geometry":{"type":"Point","coordinates":[8.22629,44.12014]},"properties":{"alt":0,"basin":"T. Varatella s.s.","basinArea":3.4,"basinClass":"Piccolo","code":"BANCVA","imgPath":null,"model":"Piccoli Bacini","municipality":"SV","name":"Borghetto S.S. - Rotonda uscita autostrada","otherHtml":null,"refDate":null,"river":"Rio delle Banchette","subFolder":"0810","updateDateTime":null,"value":-1,"warningArea":"A"}},{"type":"Feature","geometry":{"type":"Point","coordinates":[8.207,44.12585]},"properties":{"alt":0,"basin":"T. Varatella s.d.","basinArea":9.6,"basinClass":"Piccolo","code":"BAREVA","imgPath":null,"model":"Piccoli Bacini","municipality":"SV","name":"Toirano - incrocio SP1/Via Garibaldi ","otherHtml":null,"refDate":null,"river":"T. Barescione","subFolder":"0810","updateDateTime":null,"value":-1,"warningArea":"A"}},{"type":"Feature","geometry":{"type":"Point","coordinates":[8.26237,44.13246]},"properties":{"alt":0,"basin":"Rio Berbena","basinArea":1.5,"basinClass":"Piccolo","code":"BERB00","imgPath":null,"model":"Piccoli Bacini","municipality":"SV","name":"Loano - porticciolo","otherHtml":null,"refDate":null,"river":"Rio Berbena","subFolder":"0810","updateDateTime":null,"value":-1,"warningArea":"A"}},{"type":"Feature","geometry":{"type":"Point","coordinates":[8.30289,44.15658]},"properties":{"alt":0,"basin":"T. Botassano","basinArea":6.7,"basinClass":"Piccolo","code":"BOTA00","imgPath":null,"model":"Piccoli Bacini","municipality":"SV","name":"Borgio Verezzi","otherHtml":null,"refDate":null,"river":"T. Botassano","subFolder":"0810","updateDateTime":null,"value":-1,"warningArea":"A"}},{"type":"Feature","geometry":{"type":"Point","coordinates":[8.42652,44.2646]},"properties":{"alt":0,"basin":"T. Segno s.d.","basinArea":2.3,"basinClass":"Piccolo","code":"CALCSE","imgPath":null,"model":"Piccoli Bacini","municipality":"SV","name":"Valle di Vado","otherHtml":null,"refDate":null,"river":"Rio Calcinara","subFolder":"0810","updateDateTime":null,"value":-1,"warningArea":"B"}},{"type":"Feature","geometry":{"type":"Point","coordinates":[8.29457,44.20634]},"properties":{"alt":0,"basin":"T. Pora s.s.","basinArea":6.3,"basinClass":"Piccolo","code":"CARBPR","imgPath":null,"model":"Piccoli Bacini","municipality":"SV","name":"Calice Ligure","otherHtml":null,"refDate":null,"river":"T. Carbuta","subFolder":"0810","updateDateTime":null,"value":-1,"warningArea":"A"}},{"type":"Feature","geometry":{"type":"Point","coordinates":[8.1749,44.00799]},"properties":{"alt":0,"basin":"Rio Cardellino","basinArea":0.9,"basinClass":"Piccolo","code":"CARD00","imgPath":null,"model":"Piccoli Bacini","municipality":"SV","name":"Alassio","otherHtml":null,"refDate":null,"river":"Rio Cardellino","subFolder":"0810","updateDateTime":null,"value":-1,"warningArea":"A"}},{"type":"Feature","geometry":{"type":"Point","coordinates":[8.22535,44.07244]},"properties":{"alt":0,"basin":"Rio Carenda","basinArea":11.4,"basinClass":"Piccolo","code":"CARE00","imgPath":null,"model":"Piccoli Bacini","municipality":"SV","name":"Prae","otherHtml":null,"refDate":null,"river":"Rio Carenda","subFolder":"0810","updateDateTime":null,"value":-1,"warningArea":"A"}},{"type":"Feature","geometry":{"type":"Point","coordinates":[8.24823,44.11717]},"properties":{"alt":0,"basin":"Rio Casazza","basinArea":3.1,"basinClass":"Piccolo","code":"CASA00","imgPath":null,"model":"Piccoli Bacini","municipality":"SV","name":"Loano - Ponte Romano","otherHtml":null,"refDate":null,"river":"Rio Casazza","subFolder":"0810","updateDateTime":null,"value":-1,"warningArea":"A"}},{"type":"Feature","geometry":{"type":"Point","coordinates":[8.26866,44.13948]},"properties":{"alt":0,"basin":"Rio Chiappe","basinArea":0.5,"basinClass":"Piccolo","code":"RCHI00","imgPath":null,"model":"Piccoli Bacini","municipality":"SV","name":"Pietra Ligure","otherHtml":null,"refDate":null,"river":"Rio Chiappe","subFolder":"0810","updateDateTime":null,"value":-1,"warningArea":"A"}},{"type":"Feature","geometry":{"type":"Point","coordinates":[8.41327,44.21818]},"properties":{"alt":0,"basin":"Rio Chiariventi","basinArea":0.4,"basinClass":"Piccolo","code":"CHIV00","imgPath":null,"model":"Piccoli Bacini","municipality":"SV","name":"Frazione Torbora","otherHtml":null,"refDate":null,"river":"Rio Chiariventi","subFolder":"0810","updateDateTime":null,"value":-1,"warningArea":"A"}},{"type":"Feature","geometry":{"type":"Point","coordinates":[8.40414,44.29372]},"properties":{"alt":0,"basin":"T. Quiliano s.s.","basinArea":1.4,"basinClass":"Piccolo","code":"CIASQU","imgPath":null,"model":"Piccoli Bacini","municipality":"SV","name":"Quiliano","otherHtml":null,"refDate":null,"river":"Rio Ciaso","subFolder":"0810","updateDateTime":null,"value":-1,"warningArea":"B"}},{"type":"Feature","geometry":{"type":"Point","coordinates":[8.16007,43.95327]},"properties":{"alt":0,"basin":"Rio Croso","basinArea":0.4,"basinClass":"Piccolo","code":"RCRO00","imgPath":null,"model":"Piccoli Bacini","municipality":"SV","name":"Andora","otherHtml":null,"refDate":null,"river":"Rio Croso","subFolder":"0810","updateDateTime":null,"value":-1,"warningArea":"A"}},{"type":"Feature","geometry":{"type":"Point","coordinates":[8.41547,44.22361]},"properties":{"alt":0,"basin":"T. Crovetto","basinArea":11.4,"basinClass":"Piccolo","code":"CROV00","imgPath":null,"model":"Piccoli Bacini","municipality":"SV","name":"Spotorno","otherHtml":null,"refDate":null,"river":"T. Crovetto","subFolder":"0810","updateDateTime":null,"value":-1,"warningArea":"B"}},{"type":"Feature","geometry":{"type":"Point","coordinates":[8.1593,43.9803]},"properties":{"alt":0,"basin":"Fosso Fasce Grasse","basinArea":1,"basinClass":"Piccolo","code":"FAGR00","imgPath":null,"model":"Piccoli Bacini","municipality":"SV","name":"Laigueglia","otherHtml":null,"refDate":null,"river":"Fosso Fasce Grasse","subFolder":"0810","updateDateTime":null,"value":-1,"warningArea":"A"}},{"type":"Feature","geometry":{"type":"Point","coordinates":[8.30508,44.15834]},"properties":{"alt":0,"basin":"Rio Battorezza","basinArea":0.6,"basinClass":"Piccolo","code":"BATTO0","imgPath":null,"model":"Piccoli Bacini","municipality":"SV","name":"Borgio Verezzi","otherHtml":null,"refDate":null,"river":"Rio Battorezza","subFolder":"0810","updateDateTime":null,"value":-1,"warningArea":"A"}},{"type":"Feature","geometry":{"type":"Point","coordinates":[8.4397,44.27232]},"properties":{"alt":0,"basin":"Rio Fontanazza","basinArea":1.7,"basinClass":"Piccolo","code":"FONTA0","imgPath":null,"model":"Piccoli Bacini","municipality":"SV","name":"Vado Ligure - Via G. Ferraris","otherHtml":null,"refDate":null,"river":"Rio Fontanazza","subFolder":"0810","updateDateTime":null,"value":-1,"warningArea":"B"}},{"type":"Feature","geometry":{"type":"Point","coordinates":[8.23178,44.0953]},"properties":{"alt":0,"basin":"Rio Fontane","basinArea":1.9,"basinClass":"Piccolo","code":"FONT00","imgPath":null,"model":"Piccoli Bacini","municipality":"SV","name":"Ceriale","otherHtml":null,"refDate":null,"river":"Rio Fontane","subFolder":"0810","updateDateTime":null,"value":-1,"warningArea":"A"}},{"type":"Feature","geometry":{"type":"Point","coordinates":[8.40259,44.2579]},"properties":{"alt":0,"basin":"T. Segno s.s.","basinArea":2.5,"basinClass":"Piccolo","code":"GUIESE","imgPath":null,"model":"Piccoli Bacini","municipality":"SV","name":"Sant Ermete","otherHtml":null,"refDate":null,"river":"Rio delle Guie","subFolder":"0810","updateDateTime":null,"value":-1,"warningArea":"B"}},{"type":"Feature","geometry":{"type":"Point","coordinates":[8.38878,44.18157]},"properties":{"alt":0,"basin":"Rio Kien","basinArea":1.6,"basinClass":"Piccolo","code":"KIEN00","imgPath":null,"model":"Piccoli Bacini","municipality":"SV","name":"Varigotti","otherHtml":null,"refDate":null,"river":"Rio Kien","subFolder":"0810","updateDateTime":null,"value":-1,"warningArea":"A"}},{"type":"Feature","geometry":{"type":"Point","coordinates":[8.42098,44.22904]},"properties":{"alt":0,"basin":"Rio Laiolo","basinArea":0.4,"basinClass":"Piccolo","code":"LAIO00","imgPath":null,"model":"Piccoli Bacini","municipality":"SV","name":"Spotorno","otherHtml":null,"refDate":null,"river":"Rio Laiolo","subFolder":"0810","updateDateTime":null,"value":-1,"warningArea":"B"}},{"type":"Feature","geometry":{"type":"Point","coordinates":[8.38424,44.18083]},"properties":{"alt":0,"basin":"Rio Lasca","basinArea":1.1,"basinClass":"Piccolo","code":"LASC00","imgPath":null,"model":"Piccoli Bacini","municipality":"SV","name":"Varigotti","otherHtml":null,"refDate":null,"river":"Rio Lasca","subFolder":"0810","updateDateTime":null,"value":-1,"warningArea":"A"}},{"type":"Feature","geometry":{"type":"Point","coordinates":[8.43562,44.28468]},"properties":{"alt":0,"basin":"T. Quiliano s.s.","basinArea":1.6,"basinClass":"Piccolo","code":"MADMQU","imgPath":null,"model":"Piccoli Bacini","municipality":"SV","name":"Quiliano - incrocio Vie Quiliano/Caravaggio","otherHtml":null,"refDate":null,"river":"Rio Valletta del Monte","subFolder":"0810","updateDateTime":null,"value":-1,"warningArea":"B"}},{"type":"Feature","geometry":{"type":"Point","coordinates":[8.42455,44.2876]},"properties":{"alt":0,"basin":"T. Quiliano s.d.","basinArea":0.9,"basinClass":"Piccolo","code":"MEONQU","imgPath":null,"model":"Piccoli Bacini","municipality":"SV","name":"Quiliano - Via XXV Aprile","otherHtml":null,"refDate":null,"river":"Rio Meone","subFolder":"0810","updateDateTime":null,"value":-1,"warningArea":"B"}},{"type":"Feature","geometry":{"type":"Point","coordinates":[8.15086,43.95267]},"properties":{"alt":0,"basin":"Rio Mezzacqua","basinArea":1,"basinClass":"Piccolo","code":"MEZA00","imgPath":null,"model":"Piccoli Bacini","municipality":"SV","name":"Andora","otherHtml":null,"refDate":null,"river":"Rio Mezzacqua","subFolder":"0810","updateDateTime":null,"value":-1,"warningArea":"A"}},{"type":"Feature","geometry":{"type":"Point","coordinates":[8.43578,44.23743]},"properties":{"alt":0,"basin":"Rio della Mianda","basinArea":1,"basinClass":"Piccolo","code":"MIAND0","imgPath":null,"model":"Piccoli Bacini","municipality":"SV","name":"Torre del Mare","otherHtml":null,"refDate":null,"river":"Rio della Mianda","subFolder":"0810","updateDateTime":null,"value":-1,"warningArea":"B"}},{"type":"Feature","geometry":{"type":"Point","coordinates":[8.26284,44.12923]},"properties":{"alt":0,"basin":"T. Nimbalto","basinArea":12.7,"basinClass":"Piccolo","code":"NIMB00","imgPath":null,"model":"Piccoli Bacini","municipality":"SV","name":"Loano","otherHtml":null,"refDate":null,"river":"T. Nimbalto","subFolder":"0810","updateDateTime":null,"value":-1,"warningArea":"A"}},{"type":"Feature","geometry":{"type":"Point","coordinates":[8.41569,44.20377]},"properties":{"alt":0,"basin":"T. Noli","basinArea":3,"basinClass":"Piccolo","code":"NOLI00","imgPath":null,"model":"Piccoli Bacini","municipality":"SV","name":"Noli","otherHtml":null,"refDate":null,"river":"T. Noli","subFolder":"0810","updateDateTime":null,"value":-1,"warningArea":"A"}},{"type":"Feature","geometry":{"type":"Point","coordinates":[8.40864,44.29204]},"properties":{"alt":0,"basin":"T. Quiliano s.d.","basinArea":1.9,"basinClass":"Piccolo","code":"PIATQU","imgPath":null,"model":"Piccoli Bacini","municipality":"SV","name":"Quiliano - Via XXV Aprile","otherHtml":null,"refDate":null,"river":"Rio Piattano","subFolder":"0810","updateDateTime":null,"value":-1,"warningArea":"B"}},{"type":"Feature","geometry":{"type":"Point","coordinates":[8.27461,44.14462]},"properties":{"alt":0,"basin":"Rio Ranzi","basinArea":2.4,"basinClass":"Piccolo","code":"RANZ00","imgPath":null,"model":"Piccoli Bacini","municipality":"SV","name":"Pietra Ligure - ospedale","otherHtml":null,"refDate":null,"river":"Rio Ranzi","subFolder":"0810","updateDateTime":null,"value":-1,"warningArea":"A"}},{"type":"Feature","geometry":{"type":"Point","coordinates":[8.21286,44.12309]},"properties":{"alt":0,"basin":"T. Varatella s.d.","basinArea":1.3,"basinClass":"Piccolo","code":"SGORVA","imgPath":null,"model":"Piccoli Bacini","municipality":"SV","name":"Toirano - incrocio Vie Toirano Mainero","otherHtml":null,"refDate":null,"river":"Rio Sgorini","subFolder":"0810","updateDateTime":null,"value":-1,"warningArea":"A"}},{"type":"Feature","geometry":{"type":"Point","coordinates":[8.41479,44.20305]},"properties":{"alt":0,"basin":"Rio San Michele","basinArea":0.4,"basinClass":"Piccolo","code":"SMIC00","imgPath":null,"model":"Piccoli Bacini","municipality":"SV","name":"Noli","otherHtml":null,"refDate":null,"river":"Rio San Michele","subFolder":"0810","updateDateTime":null,"value":-1,"warningArea":"A"}},{"type":"Feature","geometry":{"type":"Point","coordinates":[8.44558,44.26219]},"properties":{"alt":0,"basin":"Rio San Niccolo","basinArea":0.4,"basinClass":"Piccolo","code":"SNIC00","imgPath":null,"model":"Piccoli Bacini","municipality":"SV","name":"Porto Vado","otherHtml":null,"refDate":null,"river":"Rio San Niccolo","subFolder":"0810","updateDateTime":null,"value":-1,"warningArea":"B"}},{"type":"Feature","geometry":{"type":"Point","coordinates":[8.42162,44.26566]},"properties":{"alt":0,"basin":"T. Segno s.s.","basinArea":1.1,"basinClass":"Piccolo","code":"TERMSE","imgPath":null,"model":"Piccoli Bacini","municipality":"SV","name":"Vado Ligure - Bossarino","otherHtml":null,"refDate":null,"river":"Rio Termini","subFolder":"0810","updateDateTime":null,"value":-1,"warningArea":"B"}},{"type":"Feature","geometry":{"type":"Point","coordinates":[8.41538,44.26197]},"properties":{"alt":0,"basin":"T. Segno s.s.","basinArea":1.1,"basinClass":"Piccolo","code":"TERRSE","imgPath":null,"model":"Piccoli Bacini","municipality":"SV","name":"Vado Ligure - Ferrari","otherHtml":null,"refDate":null,"river":"Rio Terrusso","subFolder":"0810","updateDateTime":null,"value":-1,"warningArea":"B"}},{"type":"Feature","geometry":{"type":"Point","coordinates":[8.22713,44.08412]},"properties":{"alt":0,"basin":"T. Torsero","basinArea":5.8,"basinClass":"Piccolo","code":"TORS00","imgPath":null,"model":"Piccoli Bacini","municipality":"SV","name":"Ceriale","otherHtml":null,"refDate":null,"river":"T. Torsero","subFolder":"0810","updateDateTime":null,"value":-1,"warningArea":"A"}},{"type":"Feature","geometry":{"type":"Point","coordinates":[8.22256,44.12253]},"properties":{"alt":0,"basin":"T. Varatella s.s.","basinArea":0.4,"basinClass":"Piccolo","code":"VCOLVA","imgPath":null,"model":"Piccoli Bacini","municipality":"SV","name":"Toirano - Canapari","otherHtml":null,"refDate":null,"river":"Rio Val di Colle","subFolder":"0810","updateDateTime":null,"value":-1,"warningArea":"A"}},{"type":"Feature","geometry":{"type":"Point","coordinates":[8.44095,44.26633]},"properties":{"alt":0,"basin":"Rio S. Elena","basinArea":1.1,"basinClass":"Piccolo","code":"SELEN0","imgPath":null,"model":"Piccoli Bacini","municipality":"SV","name":"Porto Vado","otherHtml":null,"refDate":null,"river":"Rio S. Elena","subFolder":"0810","updateDateTime":null,"value":-1,"warningArea":"B"}},{"type":"Feature","geometry":{"type":"Point","coordinates":[9.3796,44.28947]},"properties":{"alt":0,"basin":"Rio Barassi","basinArea":5.7,"basinClass":"Piccolo","code":"BARA00","imgPath":null,"model":"Piccoli Bacini","municipality":"GE","name":"Cavi di Lavagna","otherHtml":null,"refDate":null,"river":"Rio Barassi","subFolder":"0810","updateDateTime":null,"value":-1,"warningArea":"C"}},{"type":"Feature","geometry":{"type":"Point","coordinates":[9.47032,44.27525]},"properties":{"alt":0,"basin":"T. Petronio s.d.","basinArea":13.5,"basinClass":"Piccolo","code":"BARGPE","imgPath":null,"model":"Piccoli Bacini","municipality":"GE","name":"Bargonasco","otherHtml":null,"refDate":null,"river":"Rio Bargonasco","subFolder":"0810","updateDateTime":null,"value":-1,"warningArea":"C"}},{"type":"Feature","geometry":{"type":"Point","coordinates":[9.49362,44.237581]},"properties":{"alt":0,"basin":"T. Bisagno","basinArea":6.5,"basinClass":"Piccolo","code":"BISAMO","imgPath":null,"model":"Piccoli Bacini","municipality":"GE","name":"Moneglia","otherHtml":null,"refDate":null,"river":"T. Bisagno","subFolder":"0810","updateDateTime":null,"value":-1,"warningArea":"C"}},{"type":"Feature","geometry":{"type":"Point","coordinates":[9.41706,44.27355]},"properties":{"alt":0,"basin":"T. Gromolo s.s.","basinArea":1,"basinClass":"Piccolo","code":"BATTGR","imgPath":null,"model":"Piccoli Bacini","municipality":"GE","name":"Sestri Levante - Via Primi Stadio Sivori","otherHtml":null,"refDate":null,"river":"Rio Battana","subFolder":"0810","updateDateTime":null,"value":-1,"warningArea":"C"}},{"type":"Feature","geometry":{"type":"Point","coordinates":[9.45318,44.2747]},"properties":{"alt":0,"basin":"T. Petronio s.d.","basinArea":4.9,"basinClass":"Piccolo","code":"CAVAPE","imgPath":null,"model":"Piccoli Bacini","municipality":"GE","name":"Casarza Ligure","otherHtml":null,"refDate":null,"river":"Rio Cavarello","subFolder":"0810","updateDateTime":null,"value":-1,"warningArea":"C"}},{"type":"Feature","geometry":{"type":"Point","coordinates":[9.48906,44.2411]},"properties":{"alt":0,"basin":"Rio Campo","basinArea":4.1,"basinClass":"Piccolo","code":"CAMPO0","imgPath":null,"model":"Piccoli Bacini","municipality":"GE","name":"Moneglia","otherHtml":null,"refDate":null,"river":"Rio Campo","subFolder":"0810","updateDateTime":null,"value":-1,"warningArea":"C"}},{"type":"Feature","geometry":{"type":"Point","coordinates":[9.23979,44.34531]},"properties":{"alt":0,"basin":"Rio Chiarchea","basinArea":1.5,"basinClass":"Piccolo","code":"CHRC00","imgPath":null,"model":"Piccoli Bacini","municipality":"GE","name":"Rapallo - via Avenaggi","otherHtml":null,"refDate":null,"river":"Rio Chiarchea","subFolder":"0810","updateDateTime":null,"value":-1,"warningArea":"C"}},{"type":"Feature","geometry":{"type":"Point","coordinates":[9.3475,44.3081]},"properties":{"alt":0,"basin":"Rio Fravega","basinArea":4.3,"basinClass":"Piccolo","code":"FRAV00","imgPath":null,"model":"Piccoli Bacini","municipality":"GE","name":"Lavagna - Piazza Veneto","otherHtml":null,"refDate":null,"river":"Rio Fravega","subFolder":"0810","updateDateTime":null,"value":-1,"warningArea":"C"}},{"type":"Feature","geometry":{"type":"Point","coordinates":[9.15545,44.34789]},"properties":{"alt":0,"basin":"T. Gentile","basinArea":2.6,"basinClass":"Piccolo","code":"GENT00","imgPath":null,"model":"Piccoli Bacini","municipality":"GE","name":"Camogli","otherHtml":null,"refDate":null,"river":"T. Gentile","subFolder":"0810","updateDateTime":null,"value":-1,"warningArea":"B"}},{"type":"Feature","geometry":{"type":"Point","coordinates":[9.20991,44.33158]},"properties":{"alt":0,"basin":"Fosso Magistrato","basinArea":1,"basinClass":"Piccolo","code":"FMAG00","imgPath":null,"model":"Piccoli Bacini","municipality":"GE","name":"S. Margherita Ligure - porto","otherHtml":null,"refDate":null,"river":"Fosso Magistrato","subFolder":"0810","updateDateTime":null,"value":-1,"warningArea":"C"}},{"type":"Feature","geometry":{"type":"Point","coordinates":[9.20859,44.31106]},"properties":{"alt":0,"basin":"T. Della Acqua Morta","basinArea":1.5,"basinClass":"Piccolo","code":"MORT00","imgPath":null,"model":"Piccoli Bacini","municipality":"GE","name":"Paraggi","otherHtml":null,"refDate":null,"river":"T. della Acqua Morta","subFolder":"0810","updateDateTime":null,"value":-1,"warningArea":"C"}},{"type":"Feature","geometry":{"type":"Point","coordinates":[9.409,44.27457]},"properties":{"alt":0,"basin":"T. Gromolo s.d.","basinArea":0.6,"basinClass":"Piccolo","code":"VRAGGR","imgPath":null,"model":"Piccoli Bacini","municipality":"GE","name":"Sestri Levante - Incrocio Vie Villa Ragone/Terzi","otherHtml":null,"refDate":null,"river":"T. Valle Ragone","subFolder":"0810","updateDateTime":null,"value":-1,"warningArea":"C"}},{"type":"Feature","geometry":{"type":"Point","coordinates":[9.21078,44.32791]},"properties":{"alt":0,"basin":"Fosso Santa Barbara","basinArea":0.7,"basinClass":"Piccolo","code":"SBARB0","imgPath":null,"model":"Piccoli Bacini","municipality":"GE","name":"S. Margherita Ligure - parcheggio presso comune","otherHtml":null,"refDate":null,"river":"Fosso Santa Barbara","subFolder":"0810","updateDateTime":null,"value":-1,"warningArea":"C"}},{"type":"Feature","geometry":{"type":"Point","coordinates":[9.2675,44.33729]},"properties":{"alt":0,"basin":"Fosso di Semorile","basinArea":3.9,"basinClass":"Piccolo","code":"SEMO00","imgPath":null,"model":"Piccoli Bacini","municipality":"GE","name":"Zoagli","otherHtml":null,"refDate":null,"river":"Fosso di Semorile","subFolder":"0810","updateDateTime":null,"value":-1,"warningArea":"C"}},{"type":"Feature","geometry":{"type":"Point","coordinates":[9.23391,44.34985]},"properties":{"alt":0,"basin":"T. San Francesco","basinArea":5.9,"basinClass":"Piccolo","code":"FRGE00","imgPath":null,"model":"Piccoli Bacini","municipality":"GE","name":"Rapallo","otherHtml":null,"refDate":null,"river":"T. San Francesco","subFolder":"0810","updateDateTime":null,"value":-1,"warningArea":"C"}},{"type":"Feature","geometry":{"type":"Point","coordinates":[9.13,44.36295]},"properties":{"alt":0,"basin":"Rio Sonego","basinArea":0.9,"basinClass":"Piccolo","code":"SONE00","imgPath":null,"model":"Piccoli Bacini","municipality":"GE","name":"Mulinetti","otherHtml":null,"refDate":null,"river":"Rio Sonego","subFolder":"0810","updateDateTime":null,"value":-1,"warningArea":"B"}},{"type":"Feature","geometry":{"type":"Point","coordinates":[9.21362,44.334741]},"properties":{"alt":0,"basin":"Fosso San Siro","basinArea":4.7,"basinClass":"Piccolo","code":"SIRO00","imgPath":null,"model":"Piccoli Bacini","municipality":"GE","name":"S. Margherita Ligure","otherHtml":null,"refDate":null,"river":"Fosso San Siro","subFolder":"0810","updateDateTime":null,"value":-1,"warningArea":"B"}},{"type":"Feature","geometry":{"type":"Point","coordinates":[9.40032,44.2767]},"properties":{"alt":0,"basin":"T. Gromolo s.d.","basinArea":1.8,"basinClass":"Piccolo","code":"STAFGR","imgPath":null,"model":"Piccoli Bacini","municipality":"GE","name":"Sestri Levante - Via Antica Romana (Stazione FFSS)","otherHtml":null,"refDate":null,"river":"Rio Staffora","subFolder":"0810","updateDateTime":null,"value":-1,"warningArea":"C"}},{"type":"Feature","geometry":{"type":"Point","coordinates":[9.14676,44.35962]},"properties":{"alt":0,"basin":"Rio Treganega","basinArea":1.4,"basinClass":"Piccolo","code":"TREG00","imgPath":null,"model":"Piccoli Bacini","municipality":"GE","name":"Recco Piazza Ricina","otherHtml":null,"refDate":null,"river":"Rio Treganega","subFolder":"0810","updateDateTime":null,"value":-1,"warningArea":"B"}},{"type":"Feature","geometry":{"type":"Point","coordinates":[9.23891,44.34759]},"properties":{"alt":0,"basin":"T. Di Tuia","basinArea":3.4,"basinClass":"Piccolo","code":"TUIA00","imgPath":null,"model":"Piccoli Bacini","municipality":"GE","name":"Rapallo - Via Tuia","otherHtml":null,"refDate":null,"river":"T. di Tuia","subFolder":"0810","updateDateTime":null,"value":-1,"warningArea":"C"}},{"type":"Feature","geometry":{"type":"Point","coordinates":[9.42633,44.26428]},"properties":{"alt":0,"basin":"T. Petronio s.s.","basinArea":3.1,"basinClass":"Piccolo","code":"VBARPE","imgPath":null,"model":"Piccoli Bacini","municipality":"GE","name":"Riva Trigoso FFSS/Arinox","otherHtml":null,"refDate":null,"river":"Rio Valle Bardi","subFolder":"0810","updateDateTime":null,"value":-1,"warningArea":"C"}},{"type":"Feature","geometry":{"type":"Point","coordinates":[9.45438,44.27255]},"properties":{"alt":0,"basin":"T. Petronio s.s.","basinArea":1.9,"basinClass":"Piccolo","code":"VGRAPE","imgPath":null,"model":"Piccoli Bacini","municipality":"GE","name":"S. Lazzaro","otherHtml":null,"refDate":null,"river":"Rio Vallegrande di S. Lazzaro","subFolder":"0810","updateDateTime":null,"value":-1,"warningArea":"C"}},{"type":"Feature","geometry":{"type":"Point","coordinates":[9.42016,44.2778]},"properties":{"alt":0,"basin":"T. Gromolo s.s.","basinArea":1,"basinClass":"Piccolo","code":"VALLGR","imgPath":null,"model":"Piccoli Bacini","municipality":"GE","name":"Sestri Levante - incrocio Vie S. Vittoria/Zarello","otherHtml":null,"refDate":null,"river":"Rio della Valletta","subFolder":"0810","updateDateTime":null,"value":-1,"warningArea":"C"}},{"type":"Feature","geometry":{"type":"Point","coordinates":[8.16558,44.00391]},"properties":{"alt":0,"basin":"Rio Tienna Liggia","basinArea":3.3,"basinClass":"Piccolo","code":"TLIG00","imgPath":null,"model":"Piccoli Bacini","municipality":"SV","name":"Alassio - Vie Sollai/Gastaldi (tunnel FFSS)","otherHtml":null,"refDate":null,"river":"Rio Tienna Liggia","subFolder":"0810","updateDateTime":null,"value":-1,"warningArea":"A"}},{"type":"Feature","geometry":{"type":"Point","coordinates":[8.22398,44.1193]},"properties":{"alt":0,"basin":"T. Varatella s.d.","basinArea":0.5,"basinClass":"Piccolo","code":"PATTVA","imgPath":null,"model":"Piccoli Bacini","municipality":"SV","name":"Borghetto Santo Spirito - Via Ferrari","otherHtml":null,"refDate":null,"river":"Rio di Pattarello","subFolder":"0810","updateDateTime":null,"value":-1,"warningArea":"A"}},{"type":"Feature","geometry":{"type":"Point","coordinates":[8.00345,43.94171]},"properties":{"alt":0,"basin":"T. Impero s.d.","basinArea":5.4,"basinClass":"Piccolo","code":"AGAZIM","imgPath":null,"model":"Piccoli Bacini","municipality":"IM","name":"Rugge di Pontedassio","otherHtml":null,"refDate":null,"river":"Rio Agazza","subFolder":"0810","updateDateTime":null,"value":-1,"warningArea":"A"}},{"type":"Feature","geometry":{"type":"Point","coordinates":[7.91411,43.84176]},"properties":{"alt":0,"basin":"Rio Aregai","basinArea":1.5,"basinClass":"Piccolo","code":"AREG00","imgPath":null,"model":"Piccoli Bacini","municipality":"IM","name":"Torre Aregai","otherHtml":null,"refDate":null,"river":"Rio Aregai","subFolder":"0810","updateDateTime":null,"value":-1,"warningArea":"A"}},{"type":"Feature","geometry":{"type":"Point","coordinates":[8.01047,43.87669]},"properties":{"alt":0,"basin":"T. Caramagna s.s.","basinArea":2.1,"basinClass":"Piccolo","code":"ARTACA","imgPath":null,"model":"Piccoli Bacini","municipality":"IM","name":"Imperia Porto S. Maurizio","otherHtml":null,"refDate":null,"river":"Rio Artallo","subFolder":"0810","updateDateTime":null,"value":-1,"warningArea":"A"}},{"type":"Feature","geometry":{"type":"Point","coordinates":[8.02964,43.8854]},"properties":{"alt":0,"basin":"Rio Chissore","basinArea":1.2,"basinClass":"Piccolo","code":"CHISS0","imgPath":null,"model":"Piccoli Bacini","municipality":"IM","name":"Lungomare Vespucci","otherHtml":null,"refDate":null,"river":"Rio Chissore","subFolder":"0810","updateDateTime":null,"value":-1,"warningArea":"A"}},{"type":"Feature","geometry":{"type":"Point","coordinates":[8.03279,43.8987]},"properties":{"alt":0,"basin":"T. Impero s.s.","basinArea":3.6,"basinClass":"Piccolo","code":"OLIVIM","imgPath":null,"model":"Piccoli Bacini","municipality":"IM","name":"Imperia - incrocio Vie Arterisio/Andreoli","otherHtml":null,"refDate":null,"river":"Rio Oliveto","subFolder":"0810","updateDateTime":null,"value":-1,"warningArea":"A"}},{"type":"Feature","geometry":{"type":"Point","coordinates":[8.06905,43.93065]},"properties":{"alt":0,"basin":"T. S. Pietro s.s.","basinArea":2.7,"basinClass":"Piccolo","code":"BESTPI","imgPath":null,"model":"Piccoli Bacini","municipality":"IM","name":"Diano S. Pietro","otherHtml":null,"refDate":null,"river":"Rio Beste","subFolder":"0810","updateDateTime":null,"value":-1,"warningArea":"A"}},{"type":"Feature","geometry":{"type":"Point","coordinates":[8.11342,43.92526]},"properties":{"alt":0,"basin":"Rio Bondai","basinArea":0.9,"basinClass":"Piccolo","code":"BOND00","imgPath":null,"model":"Piccoli Bacini","municipality":"IM","name":"Cervo - Via San Carlo","otherHtml":null,"refDate":null,"river":"Rio Bondai","subFolder":"0810","updateDateTime":null,"value":-1,"warningArea":"A"}},{"type":"Feature","geometry":{"type":"Point","coordinates":[7.65433,43.78144]},"properties":{"alt":0,"basin":"T. Borghetto","basinArea":11.7,"basinClass":"Piccolo","code":"BORG00","imgPath":null,"model":"Piccoli Bacini","municipality":"IM","name":"Bordighera","otherHtml":null,"refDate":null,"river":"T. Borghetto","subFolder":"0810","updateDateTime":null,"value":-1,"warningArea":"A"}},{"type":"Feature","geometry":{"type":"Point","coordinates":[7.87884,43.83746]},"properties":{"alt":0,"basin":"T. Caravello","basinArea":6.7,"basinClass":"Piccolo","code":"CARAV0","imgPath":null,"model":"Piccoli Bacini","municipality":"IM","name":"Riva Ligure - Via Caravello","otherHtml":null,"refDate":null,"river":"T. Caravello","subFolder":"0810","updateDateTime":null,"value":-1,"warningArea":"A"}},{"type":"Feature","geometry":{"type":"Point","coordinates":[7.71765,43.80244]},"properties":{"alt":0,"basin":"Rio Crosio","basinArea":3.4,"basinClass":"Piccolo","code":"CROS00","imgPath":null,"model":"Piccoli Bacini","municipality":"IM","name":"Ospedaletti","otherHtml":null,"refDate":null,"river":"Rio Crosio","subFolder":"0810","updateDateTime":null,"value":-1,"warningArea":"A"}},{"type":"Feature","geometry":{"type":"Point","coordinates":[7.84058,43.82516]},"properties":{"alt":0,"basin":"Rio Fonti","basinArea":1.2,"basinClass":"Piccolo","code":"RFON00","imgPath":null,"model":"Piccoli Bacini","municipality":"IM","name":"Bussana","otherHtml":null,"refDate":null,"river":"Rio Fonti","subFolder":"0810","updateDateTime":null,"value":-1,"warningArea":"A"}},{"type":"Feature","geometry":{"type":"Point","coordinates":[8.0128,43.94117]},"properties":{"alt":0,"basin":"T. Impero s.s.","basinArea":1.2,"basinClass":"Piccolo","code":"GIAIIM","imgPath":null,"model":"Piccoli Bacini","municipality":"IM","name":"Pontedassio","otherHtml":null,"refDate":null,"river":"Rio Giaiella","subFolder":"0810","updateDateTime":null,"value":-1,"warningArea":"A"}},{"type":"Feature","geometry":{"type":"Point","coordinates":[8.07749,43.90335]},"properties":{"alt":0,"basin":"Rio Mortole","basinArea":2.9,"basinClass":"Piccolo","code":"MORTO0","imgPath":null,"model":"Piccoli Bacini","municipality":"IM","name":"Diano Marina","otherHtml":null,"refDate":null,"river":"Rio Mortole","subFolder":"0810","updateDateTime":null,"value":-1,"warningArea":"A"}},{"type":"Feature","geometry":{"type":"Point","coordinates":[7.96993,43.86128]},"properties":{"alt":0,"basin":"Rio del Inferno","basinArea":2.8,"basinClass":"Piccolo","code":"RINF00","imgPath":null,"model":"Piccoli Bacini","municipality":"IM","name":"S. Lorenzo al Mare - Ponticelli","otherHtml":null,"refDate":null,"river":"Rio del Inferno","subFolder":"0810","updateDateTime":null,"value":-1,"warningArea":"A"}},{"type":"Feature","geometry":{"type":"Point","coordinates":[8.09096,43.91814]},"properties":{"alt":0,"basin":"Rio Pineta","basinArea":2.1,"basinClass":"Piccolo","code":"RPIN00","imgPath":null,"model":"Piccoli Bacini","municipality":"IM","name":"Diano Marina","otherHtml":null,"refDate":null,"river":"Rio Pineta","subFolder":"0810","updateDateTime":null,"value":-1,"warningArea":"A"}},{"type":"Feature","geometry":{"type":"Point","coordinates":[7.71064,43.8014]},"properties":{"alt":0,"basin":"T. dei Pirri delle Porrine","basinArea":1,"basinClass":"Piccolo","code":"PORR00","imgPath":null,"model":"Piccoli Bacini","municipality":"IM","name":"Ospedaletti","otherHtml":null,"refDate":null,"river":"T. dei Pirri delle Porrine","subFolder":"0810","updateDateTime":null,"value":-1,"warningArea":"A"}},{"type":"Feature","geometry":{"type":"Point","coordinates":[7.76059,43.80946]},"properties":{"alt":0,"basin":"Rio Foce","basinArea":4.7,"basinClass":"Piccolo","code":"RFOC00","imgPath":null,"model":"Piccoli Bacini","municipality":"IM","name":"Sanremo - Centro Giovanile San Rocco Via Barabino","otherHtml":null,"refDate":null,"river":"Rio Foce","subFolder":"0810","updateDateTime":null,"value":-1,"warningArea":"A"}},{"type":"Feature","geometry":{"type":"Point","coordinates":[8.0162,43.93761]},"properties":{"alt":0,"basin":"T. Impero s.s.","basinArea":1.4,"basinClass":"Piccolo","code":"ROCCIM","imgPath":null,"model":"Piccoli Bacini","municipality":"IM","name":"Pontedassio","otherHtml":null,"refDate":null,"river":"Rio Rocca","subFolder":"0810","updateDateTime":null,"value":-1,"warningArea":"A"}},{"type":"Feature","geometry":{"type":"Point","coordinates":[7.77857,43.81759]},"properties":{"alt":0,"basin":"T. San Francesco","basinArea":7.4,"basinClass":"Piccolo","code":"FRIM00","imgPath":null,"model":"Piccoli Bacini","municipality":"IM","name":"Sanremo - incrocio Vie Roma/Asquasciati","otherHtml":null,"refDate":null,"river":"T. San Francesco","subFolder":"0810","updateDateTime":null,"value":-1,"warningArea":"A"}},{"type":"Feature","geometry":{"type":"Point","coordinates":[7.67867,43.7841]},"properties":{"alt":0,"basin":"T. Sasso","basinArea":5.8,"basinClass":"Piccolo","code":"SASS00","imgPath":null,"model":"Piccoli Bacini","municipality":"IM","name":"Bordighera - cimitero","otherHtml":null,"refDate":null,"river":"T. Sasso","subFolder":"0810","updateDateTime":null,"value":-1,"warningArea":"A"}},{"type":"Feature","geometry":{"type":"Point","coordinates":[8.10386,43.92562]},"properties":{"alt":0,"basin":"T. Cervo s.d.","basinArea":1.8,"basinClass":"Piccolo","code":"BARTCE","imgPath":null,"model":"Piccoli Bacini","municipality":"IM","name":"San Bartolomeo al Mare","otherHtml":null,"refDate":null,"river":"Rio San Bartolomeo","subFolder":"0810","updateDateTime":null,"value":-1,"warningArea":"A"}},{"type":"Feature","geometry":{"type":"Point","coordinates":[7.75647,43.80837]},"properties":{"alt":0,"basin":"Rio San Bernardo","basinArea":2.5,"basinClass":"Piccolo","code":"BERN00","imgPath":null,"model":"Piccoli Bacini","municipality":"IM","name":"San Remo - cimitero monumentale","otherHtml":null,"refDate":null,"river":"Rio San Bernardo","subFolder":"0810","updateDateTime":null,"value":-1,"warningArea":"A"}},{"type":"Feature","geometry":{"type":"Point","coordinates":[7.88562,43.83778]},"properties":{"alt":0,"basin":"Rio Santa Caterina","basinArea":4.6,"basinClass":"Piccolo","code":"SCAT00","imgPath":null,"model":"Piccoli Bacini","municipality":"IM","name":"Riva Ligure - campi sportivi","otherHtml":null,"refDate":null,"river":"Rio Santa Caterina","subFolder":"0810","updateDateTime":null,"value":-1,"warningArea":"A"}},{"type":"Feature","geometry":{"type":"Point","coordinates":[8.02065,43.92873]},"properties":{"alt":0,"basin":"T. Impero s.s.","basinArea":1.6,"basinClass":"Piccolo","code":"RSGOIM","imgPath":null,"model":"Piccoli Bacini","municipality":"IM","name":"Pontedassio - Via Nazionale ","otherHtml":null,"refDate":null,"river":"Rio Sgoreto","subFolder":"0810","updateDateTime":null,"value":-1,"warningArea":"A"}},{"type":"Feature","geometry":{"type":"Point","coordinates":[7.78337,43.81971]},"properties":{"alt":0,"basin":"Rio San Lazzaro","basinArea":2,"basinClass":"Piccolo","code":"SLAZ00","imgPath":null,"model":"Piccoli Bacini","municipality":"IM","name":"San Remo - Porto Sole","otherHtml":null,"refDate":null,"river":"Rio San Lazzaro","subFolder":"0810","updateDateTime":null,"value":-1,"warningArea":"A"}},{"type":"Feature","geometry":{"type":"Point","coordinates":[8.26928,44.40458]},"properties":{"alt":0,"basin":"F. Bormida di Spigno s.s.","basinArea":7.5,"basinClass":"Piccolo","code":"FERBOS","imgPath":null,"model":"Piccoli Bacini","municipality":"SV","name":"Cairo Montenotte - Strada Ferrere","otherHtml":null,"refDate":null,"river":"Rio delle Ferrere","subFolder":"0810","updateDateTime":null,"value":-1,"warningArea":"D"}},{"type":"Feature","geometry":{"type":"Point","coordinates":[8.69982,44.53796]},"properties":{"alt":0,"basin":"T. Stura s.d.","basinArea":4,"basinClass":"Piccolo","code":"ANZSTU","imgPath":null,"model":"Piccoli Bacini","municipality":"GE","name":"Via Voltino","otherHtml":null,"refDate":null,"river":"Rio Anzascino","subFolder":"0810","updateDateTime":null,"value":-1,"warningArea":"D"}},{"type":"Feature","geometry":{"type":"Point","coordinates":[8.27927,44.35442]},"properties":{"alt":0,"basin":"F. Bormida di Spigno s.s.","basinArea":6.5,"basinClass":null,"code":"PLOBOS","imgPath":null,"model":"Piccoli Bacini","municipality":"SV","name":"Incrocio Via Nizzareto - Via Pellico","otherHtml":null,"refDate":null,"river":"Rio di Plodio","subFolder":"0810","updateDateTime":null,"value":-1,"warningArea":"D"}},{"type":"Feature","geometry":{"type":"Point","coordinates":[8.29045,44.36281]},"properties":{"alt":0,"basin":"F. Bormida di Spigno s.s.","basinArea":5.3,"basinClass":"Piccolo","code":"NANBOS","imgPath":null,"model":"Piccoli Bacini","municipality":"SV","name":"Carcare - rotonda Via Nazionale","otherHtml":null,"refDate":null,"river":"Rio Nanta","subFolder":"0810","updateDateTime":null,"value":-1,"warningArea":"D"}},{"type":"Feature","geometry":{"type":"Point","coordinates":[8.31382,44.44861]},"properties":{"alt":0,"basin":"F. Bormida di Spigno s.d.","basinArea":6.9,"basinClass":"Piccolo","code":"BRABOS","imgPath":null,"model":"Piccoli Bacini","municipality":"SV","name":"Dego","otherHtml":null,"refDate":null,"river":"Rio Brange","subFolder":"0810","updateDateTime":null,"value":-1,"warningArea":"D"}},{"type":"Feature","geometry":{"type":"Point","coordinates":[9.00127,44.5337]},"properties":{"alt":0,"basin":"F. Scrivia s.d.","basinArea":1.5,"basinClass":"Piccolo","code":"STESCR","imgPath":null,"model":"Piccoli Bacini","municipality":"GE","name":"Casella - Via Aldo Moro","otherHtml":null,"refDate":null,"river":"Rio di Santo Stefano","subFolder":"0810","updateDateTime":null,"value":-1,"warningArea":"E"}},{"type":"Feature","geometry":{"type":"Point","coordinates":[8.9487,44.56998]},"properties":{"alt":0,"basin":"F. Scrivia s.s.","basinArea":3.3,"basinClass":"Piccolo","code":"MIGSCR","imgPath":null,"model":"Piccoli Bacini","municipality":"GE","name":"Busalla","otherHtml":null,"refDate":null,"river":"Rio Migliarese","subFolder":"0810","updateDateTime":null,"value":-1,"warningArea":"E"}},{"type":"Feature","geometry":{"type":"Point","coordinates":[9.28843,44.48346]},"properties":{"alt":0,"basin":"F. Aveto s.s.","basinArea":4.3,"basinClass":"Piccolo","code":"CARAVE","imgPath":null,"model":"Piccoli Bacini","municipality":"GE","name":"Calzagatta","otherHtml":null,"refDate":null,"river":"Fosso della Cardenosa","subFolder":"0810","updateDateTime":null,"value":-1,"warningArea":"E"}},{"type":"Feature","geometry":{"type":"Point","coordinates":[8.94601,44.57608]},"properties":{"alt":0,"basin":"F. Scrivia s.d.","basinArea":1.9,"basinClass":"Piccolo","code":"REVSCR","imgPath":null,"model":"Piccoli Bacini","municipality":"GE","name":"Busalla - raffineria IPLOM","otherHtml":null,"refDate":null,"river":"Rio Revegio","subFolder":"0810","updateDateTime":null,"value":-1,"warningArea":"E"}},{"type":"Feature","geometry":{"type":"Point","coordinates":[8.93836,44.58932]},"properties":{"alt":0,"basin":"F. Scrivia s.s.","basinArea":7.4,"basinClass":"Piccolo","code":"TRASCR","imgPath":null,"model":"Piccoli Bacini","municipality":"GE","name":"Borgo Fornari","otherHtml":null,"refDate":null,"river":"Rio Traversa","subFolder":"0810","updateDateTime":null,"value":-1,"warningArea":"E"}},{"type":"Feature","geometry":{"type":"Point","coordinates":[9.24723,44.52406]},"properties":{"alt":0,"basin":"F. Trebbia s.d.","basinArea":7.9,"basinClass":"Piccolo","code":"SOLTRE","imgPath":null,"model":"Piccoli Bacini","municipality":"GE","name":"Montebruno","otherHtml":null,"refDate":null,"river":"T. Solive","subFolder":"0810","updateDateTime":null,"value":-1,"warningArea":"E"}},{"type":"Feature","geometry":{"type":"Point","coordinates":[9.04975,44.51812]},"properties":{"alt":0,"basin":"F. Scrivia s.d.","basinArea":2.1,"basinClass":"Piccolo","code":"COGSCR","imgPath":null,"model":"Piccoli Bacini","municipality":"GE","name":"Montoggio","otherHtml":null,"refDate":null,"river":"Rio delle Cogne","subFolder":"0810","updateDateTime":null,"value":-1,"warningArea":"E"}},{"type":"Feature","geometry":{"type":"Point","coordinates":[8.85401,44.42689]},"properties":{"alt":0,"basin":"T. Chiaravagna","basinArea":7.7,"basinClass":"Piccolo","code":"CHIABE","imgPath":null,"model":"Piccoli Bacini","municipality":"GE","name":"Sestri Ponente - Passo Graziella Belardi","otherHtml":null,"refDate":null,"river":"T. Chiaravagna","subFolder":"0810","updateDateTime":null,"value":-1,"warningArea":"B"}},{"type":"Feature","geometry":{"type":"Point","coordinates":[8.87477,44.42099]},"properties":{"alt":0,"basin":"Rio Roncallo","basinArea":0.3,"basinClass":"Piccolo","code":"RONCAL","imgPath":null,"model":"Piccoli Bacini","municipality":"GE","name":"Ingresso copertura Via Calasanzio alta","otherHtml":null,"refDate":null,"river":"Rio Roncallo","subFolder":"0810","updateDateTime":null,"value":-1,"warningArea":"B"}},{"type":"Feature","geometry":{"type":"Point","coordinates":[8.98106,44.39812]},"properties":{"alt":0,"basin":"Rio Vernazza","basinArea":1.3,"basinClass":"Piccolo","code":"VERN00","imgPath":null,"model":"Piccoli Bacini","municipality":"GE","name":"Sturla - Via Isonzo altezza tunnel stazione FFSS","otherHtml":null,"refDate":null,"river":"Rio Vernazza","subFolder":"0810","updateDateTime":null,"value":-1,"warningArea":"B"}},{"type":"Feature","geometry":{"type":"Point","coordinates":[8.17576,44.01239]},"properties":{"alt":0,"basin":"Rio Palmero","basinArea":1.7,"basinClass":"Piccolo","code":"PALM00","imgPath":null,"model":"Piccoli Bacini","municipality":"SV","name":"Alassio - Via Mulino del Ponte","otherHtml":null,"refDate":null,"river":"Rio Palmero","subFolder":"0810","updateDateTime":null,"value":-1,"warningArea":"A"}},{"type":"Feature","geometry":{"type":"Point","coordinates":[8.1645,44.00168]},"properties":{"alt":0,"basin":"Rio Caudi Gonghe","basinArea":2,"basinClass":"Piccolo","code":"GONG00","imgPath":null,"model":"Piccoli Bacini","municipality":"SV","name":"Alassio - Vie Romani/S.G. Battista (tunnel FFSS)","otherHtml":null,"refDate":null,"river":"Rio Caudi Gonghe","subFolder":"0810","updateDateTime":null,"value":-1,"warningArea":"A"}},{"type":"Feature","geometry":{"type":"Point","coordinates":[7.79549,43.82146]},"properties":{"alt":0,"basin":"Rio San Martino","basinArea":9.3,"basinClass":"Piccolo","code":"MART00","imgPath":null,"model":"Piccoli Bacini","municipality":"IM","name":"San Remo - Corso Cavallotti","otherHtml":null,"refDate":null,"river":"Rio San Martino","subFolder":"0810","updateDateTime":null,"value":-1,"warningArea":"A"}},{"type":"Feature","geometry":{"type":"Point","coordinates":[7.77499,43.81393]},"properties":{"alt":0,"basin":"T. San Romolo","basinArea":11.5,"basinClass":"Piccolo","code":"SROM00","imgPath":null,"model":"Piccoli Bacini","municipality":"IM","name":"San Remo - Lungomare Italo Calvino","otherHtml":null,"refDate":null,"river":"T. San Romolo","subFolder":"0810","updateDateTime":null,"value":-1,"warningArea":"A"}},{"type":"Feature","geometry":{"type":"Point","coordinates":[7.61376,43.79246]},"properties":{"alt":0,"basin":"Rio San Secondo","basinArea":1.5,"basinClass":"Piccolo","code":"SSEC00","imgPath":null,"model":"Piccoli Bacini","municipality":"IM","name":"Ventimiglia - Stazione FFSS","otherHtml":null,"refDate":null,"river":"Rio San Secondo","subFolder":"0810","updateDateTime":null,"value":-1,"warningArea":"A"}},{"type":"Feature","geometry":{"type":"Point","coordinates":[7.89946,43.83843]},"properties":{"alt":0,"basin":"Rio Della Torre","basinArea":2,"basinClass":"Piccolo","code":"TORR00","imgPath":null,"model":"Piccoli Bacini","municipality":"IM","name":"S. Stefano al Mare - Via Ponte Romano","otherHtml":null,"refDate":null,"river":"Rio della Torre","subFolder":"0810","updateDateTime":null,"value":-1,"warningArea":"A"}},{"type":"Feature","geometry":{"type":"Point","coordinates":[7.8007,43.82493]},"properties":{"alt":0,"basin":"Rio Val Olivi","basinArea":2.2,"basinClass":"Piccolo","code":"VALD00","imgPath":null,"model":"Piccoli Bacini","municipality":"IM","name":"San Remo - Via delle Ginestre","otherHtml":null,"refDate":null,"river":"Rio Val Olivi","subFolder":"0810","updateDateTime":null,"value":-1,"warningArea":"A"}},{"type":"Feature","geometry":{"type":"Point","coordinates":[7.74537,43.8046]},"properties":{"alt":0,"basin":"Rio dei Due Valloni","basinArea":0.4,"basinClass":"Piccolo","code":"2VAL00","imgPath":null,"model":"Piccoli Bacini","municipality":"IM","name":"San Remo - Pian di Poma","otherHtml":null,"refDate":null,"river":"Rio dei Due Valloni","subFolder":"0810","updateDateTime":null,"value":-1,"warningArea":"A"}},{"type":"Feature","geometry":{"type":"Point","coordinates":[8.0801,43.90691]},"properties":{"alt":0,"basin":"Rio Varcavello","basinArea":6.5,"basinClass":"Piccolo","code":"VARC00","imgPath":null,"model":"Piccoli Bacini","municipality":"IM","name":"Diano Marina","otherHtml":null,"refDate":null,"river":"Rio Varcavello","subFolder":"0810","updateDateTime":null,"value":-1,"warningArea":"A"}},{"type":"Feature","geometry":{"type":"Point","coordinates":[9.55584,44.20353]},"properties":{"alt":0,"basin":"Rio Anzo","basinArea":0.5,"basinClass":"Piccolo","code":"ANZO00","imgPath":null,"model":"Piccoli Bacini","municipality":"SP","name":"Anzo","otherHtml":null,"refDate":null,"river":"Rio Anzo","subFolder":"0810","updateDateTime":null,"value":-1,"warningArea":"C"}},{"type":"Feature","geometry":{"type":"Point","coordinates":[9.61075,44.1678]},"properties":{"alt":0,"basin":"Rio Cantarana","basinArea":1.7,"basinClass":"Piccolo","code":"CRAN00","imgPath":null,"model":"Piccoli Bacini","municipality":"SP","name":"Levanto","otherHtml":null,"refDate":null,"river":"Rio Cantarana","subFolder":"0810","updateDateTime":null,"value":-1,"warningArea":"C"}},{"type":"Feature","geometry":{"type":"Point","coordinates":[9.81874,44.09123]},"properties":{"alt":0,"basin":"T. Caporacca","basinArea":2.8,"basinClass":"Piccolo","code":"CAPO00","imgPath":null,"model":"Piccoli Bacini","municipality":"SP","name":"La Spezia - Marola","otherHtml":null,"refDate":null,"river":"T. Caporacca","subFolder":"0810","updateDateTime":null,"value":-1,"warningArea":"C"}},{"type":"Feature","geometry":{"type":"Point","coordinates":[9.83904,44.11136]},"properties":{"alt":0,"basin":"T. Cappelletto","basinArea":1.8,"basinClass":"Piccolo","code":"CAPP00","imgPath":null,"model":"Piccoli Bacini","municipality":"SP","name":"Molo Garibaldi","otherHtml":null,"refDate":null,"river":"T. Cappelletto","subFolder":"0810","updateDateTime":null,"value":-1,"warningArea":"C"}},{"type":"Feature","geometry":{"type":"Point","coordinates":[9.84506,44.11141]},"properties":{"alt":0,"basin":"T. Dorgia","basinArea":4.9,"basinClass":"Piccolo","code":"DORG00","imgPath":null,"model":"Piccoli Bacini","municipality":"SP","name":"La Spezia - incrocio Vie Palmaria/S. Bartolomeo  ","otherHtml":null,"refDate":null,"river":"T. Dorgia","subFolder":"0810","updateDateTime":null,"value":-1,"warningArea":"C"}},{"type":"Feature","geometry":{"type":"Point","coordinates":[9.84721,44.11168]},"properties":{"alt":0,"basin":"T. Dorgia Vecchia","basinArea":1.3,"basinClass":"Piccolo","code":"DORV00","imgPath":null,"model":"Piccoli Bacini","municipality":"SP","name":"Incrocio Vie del Tino/S. Bartolomeo","otherHtml":null,"refDate":null,"river":"T. Dorgia Vecchia","subFolder":"0810","updateDateTime":null,"value":-1,"warningArea":"C"}},{"type":"Feature","geometry":{"type":"Point","coordinates":[9.81216,44.097]},"properties":{"alt":0,"basin":"Fosso di Fabiano","basinArea":1.6,"basinClass":"Piccolo","code":"FFAB00","imgPath":null,"model":"Piccoli Bacini","municipality":"SP","name":"La Spezia - Via delle Cave","otherHtml":null,"refDate":null,"river":"Fosso di Fabiano","subFolder":"0810","updateDateTime":null,"value":-1,"warningArea":"C"}},{"type":"Feature","geometry":{"type":"Point","coordinates":[9.64488,44.14502]},"properties":{"alt":0,"basin":"Rio Fegina","basinArea":1.7,"basinClass":"Piccolo","code":"RFEG00","imgPath":null,"model":"Piccoli Bacini","municipality":"SP","name":"Fegina","otherHtml":null,"refDate":null,"river":"Rio Fegina","subFolder":"0810","updateDateTime":null,"value":-1,"warningArea":"C"}},{"type":"Feature","geometry":{"type":"Point","coordinates":[9.92377,44.0648]},"properties":{"alt":0,"basin":"Canale di Fiascherino","basinArea":1,"basinClass":"Piccolo","code":"CFIA00","imgPath":null,"model":"Piccoli Bacini","municipality":"SP","name":"Via Fiascherino","otherHtml":null,"refDate":null,"river":"Canale di Fiascherino","subFolder":"0810","updateDateTime":null,"value":-1,"warningArea":"C"}},{"type":"Feature","geometry":{"type":"Point","coordinates":[9.62277,44.17983]},"properties":{"alt":0,"basin":"T. Ghiararo s.d.","basinArea":4.4,"basinClass":"Piccolo","code":"RFOSGH","imgPath":null,"model":"Piccoli Bacini","municipality":"SP","name":"Rotonda SP566","otherHtml":null,"refDate":null,"river":"Rio di Fossato","subFolder":"0810","updateDateTime":null,"value":-1,"warningArea":"C"}},{"type":"Feature","geometry":{"type":"Point","coordinates":[9.70545,44.1202]},"properties":{"alt":0,"basin":"Fosso della Groppa","basinArea":1.5,"basinClass":"Piccolo","code":"FGRO00","imgPath":null,"model":"Piccoli Bacini","municipality":"SP","name":"Corniglia","otherHtml":null,"refDate":null,"river":"Fosso della Groppa","subFolder":"0810","updateDateTime":null,"value":-1,"warningArea":"C"}},{"type":"Feature","geometry":{"type":"Point","coordinates":[9.72741,44.1063]},"properties":{"alt":0,"basin":"Canale Groppo","basinArea":2.5,"basinClass":"Piccolo","code":"CGRO00","imgPath":null,"model":"Piccoli Bacini","municipality":"SP","name":"Manarola","otherHtml":null,"refDate":null,"river":"Canale Groppo","subFolder":"0810","updateDateTime":null,"value":-1,"warningArea":"C"}},{"type":"Feature","geometry":{"type":"Point","coordinates":[9.89684,44.08307]},"properties":{"alt":0,"basin":"Fosso del Lizzo","basinArea":1.1,"basinClass":"Piccolo","code":"FLIZ00","imgPath":null,"model":"Piccoli Bacini","municipality":"SP","name":"S. Terenzo - Via Garibaldi","otherHtml":null,"refDate":null,"river":"Fosso del Lizzo","subFolder":"0810","updateDateTime":null,"value":-1,"warningArea":"C"}},{"type":"Feature","geometry":{"type":"Point","coordinates":[9.86139,44.11048]},"properties":{"alt":0,"basin":"Fossa Mastra","basinArea":7.2,"basinClass":"Piccolo","code":"FMAS00","imgPath":null,"model":"Piccoli Bacini","municipality":"SP","name":"Rotonda Vie Valdilocchi/Casermette","otherHtml":null,"refDate":null,"river":"Fossa Mastra","subFolder":"0810","updateDateTime":null,"value":-1,"warningArea":"C"}},{"type":"Feature","geometry":{"type":"Point","coordinates":[9.71708,44.1185]},"properties":{"alt":0,"basin":"Rio Molinello","basinArea":0.8,"basinClass":"Piccolo","code":"RMOL00","imgPath":null,"model":"Piccoli Bacini","municipality":"SP","name":"Corniglia - stazione FFSS","otherHtml":null,"refDate":null,"river":"Rio Molinello","subFolder":"0810","updateDateTime":null,"value":-1,"warningArea":"C"}},{"type":"Feature","geometry":{"type":"Point","coordinates":[9.6552,44.14601]},"properties":{"alt":0,"basin":"Canale Pastanelli","basinArea":3,"basinClass":"Piccolo","code":"PAST00","imgPath":null,"model":"Piccoli Bacini","municipality":"SP","name":"Monterosso","otherHtml":null,"refDate":null,"river":"Canale Pastanelli","subFolder":"0810","updateDateTime":null,"value":-1,"warningArea":"C"}},{"type":"Feature","geometry":{"type":"Point","coordinates":[9.88062,44.09006]},"properties":{"alt":0,"basin":"Fosso Pezzo Grande","basinArea":0.3,"basinClass":"Piccolo","code":"FPGR00","imgPath":null,"model":"Piccoli Bacini","municipality":"SP","name":"Muggiano - Via Ferro","otherHtml":null,"refDate":null,"river":"Fosso Pezzo Grande","subFolder":"0810","updateDateTime":null,"value":-1,"warningArea":"C"}},{"type":"Feature","geometry":{"type":"Point","coordinates":[9.61891,44.1759]},"properties":{"alt":0,"basin":"T. Ghiararo s.d.","basinArea":0.7,"basinClass":"Piccolo","code":"REDAGH","imgPath":null,"model":"Piccoli Bacini","municipality":"SP","name":"Levanto - campo sportivo Scaramuccia","otherHtml":null,"refDate":null,"river":"Rio Redacascio","subFolder":"0810","updateDateTime":null,"value":-1,"warningArea":"C"}},{"type":"Feature","geometry":{"type":"Point","coordinates":[9.73822,44.09923]},"properties":{"alt":0,"basin":"Fosso di Riomaggiore","basinArea":2.7,"basinClass":"Piccolo","code":"FRIO00","imgPath":null,"model":"Piccoli Bacini","municipality":"SP","name":"Riomaggiore","otherHtml":null,"refDate":null,"river":"Fosso di Riomaggiore","subFolder":"0810","updateDateTime":null,"value":-1,"warningArea":"C"}},{"type":"Feature","geometry":{"type":"Point","coordinates":[9.60318,44.1731]},"properties":{"alt":0,"basin":"Rio Rossola","basinArea":1,"basinClass":"Piccolo","code":"RROS00","imgPath":null,"model":"Piccoli Bacini","municipality":"SP","name":"Levanto - Via Vallesanta","otherHtml":null,"refDate":null,"river":"Rio Rossola","subFolder":"0810","updateDateTime":null,"value":-1,"warningArea":"C"}},{"type":"Feature","geometry":{"type":"Point","coordinates":[9.64596,44.14831]},"properties":{"alt":0,"basin":"Rio delle Rocche","basinArea":0.9,"basinClass":"Piccolo","code":"RROC00","imgPath":null,"model":"Piccoli Bacini","municipality":"SP","name":"Fegina - Via Molinelli","otherHtml":null,"refDate":null,"river":"Rio delle Rocche","subFolder":"0810","updateDateTime":null,"value":-1,"warningArea":"C"}},{"type":"Feature","geometry":{"type":"Point","coordinates":[9.83997,44.1127]},"properties":{"alt":0,"basin":"Fosso Rossano","basinArea":1.2,"basinClass":"Piccolo","code":"FROS00","imgPath":null,"model":"Piccoli Bacini","municipality":"SP","name":"Via Tazzoli","otherHtml":null,"refDate":null,"river":"Fosso Rossano","subFolder":"0810","updateDateTime":null,"value":-1,"warningArea":"C"}},{"type":"Feature","geometry":{"type":"Point","coordinates":[9.5835,44.1828]},"properties":{"alt":0,"basin":"T. Rossola","basinArea":1.7,"basinClass":"Piccolo","code":"ROSS00","imgPath":null,"model":"Piccoli Bacini","municipality":"SP","name":"Bonassola","otherHtml":null,"refDate":null,"river":"T. Rossola","subFolder":"0810","updateDateTime":null,"value":-1,"warningArea":"C"}},{"type":"Feature","geometry":{"type":"Point","coordinates":[9.73631,44.10212]},"properties":{"alt":0,"basin":"Canale Ruffinale","basinArea":1.3,"basinClass":"Piccolo","code":"RUFF00","imgPath":null,"model":"Piccoli Bacini","municipality":"SP","name":"Riomaggiore - stazione FFSS","otherHtml":null,"refDate":null,"river":"Canale Ruffinale","subFolder":"0810","updateDateTime":null,"value":-1,"warningArea":"C"}},{"type":"Feature","geometry":{"type":"Point","coordinates":[9.58288,44.18533]},"properties":{"alt":0,"basin":"T. San Giorgio","basinArea":3.3,"basinClass":"Piccolo","code":"SGIO00","imgPath":null,"model":"Piccoli Bacini","municipality":"SP","name":"Incrocio Via Sivori - Via Piedimare","otherHtml":null,"refDate":null,"river":"T. San Giorgio","subFolder":"0810","updateDateTime":null,"value":-1,"warningArea":"C"}},{"type":"Feature","geometry":{"type":"Point","coordinates":[9.68483,44.13527]},"properties":{"alt":0,"basin":"Canale di Vernazza","basinArea":5.6,"basinClass":"Piccolo","code":"CVER00","imgPath":null,"model":"Piccoli Bacini","municipality":"SP","name":"Vernazza","otherHtml":null,"refDate":null,"river":"Canale di Vernazza","subFolder":"0810","updateDateTime":null,"value":-1,"warningArea":"C"}},{"type":"Feature","geometry":{"type":"Point","coordinates":[9.5325,44.22525]},"properties":{"alt":0,"basin":"T. Castagnola s.d.","basinArea":6.1,"basinClass":"Piccolo","code":"MEZZCA","imgPath":null,"model":"Piccoli Bacini","municipality":"SP","name":"Mulino","otherHtml":null,"refDate":null,"river":"T. Mezzema","subFolder":"0810","updateDateTime":null,"value":-1,"warningArea":"C"}},{"type":"Feature","geometry":{"type":"Point","coordinates":[9.03394,44.45148]},"properties":{"alt":0,"basin":"T. Bisagno s.d.","basinArea":8.9,"basinClass":"Piccolo","code":"CANABI","imgPath":null,"model":"Piccoli Bacini","municipality":"GE","name":"Ponte di Cavassolo","otherHtml":null,"refDate":null,"river":"T. Canate","subFolder":"0810","updateDateTime":null,"value":-1,"warningArea":"B"}},{"type":"Feature","geometry":{"type":"Point","coordinates":[8.81915,44.43901]},"properties":{"alt":0,"basin":"T. Varenna s.d.","basinArea":4.8,"basinClass":"Piccolo","code":"CANTVA","imgPath":null,"model":"Piccoli Bacini","municipality":"GE","name":"Incrocio Via Varenna - Via Assarino","otherHtml":null,"refDate":null,"river":"Rio Cantalupo","subFolder":"0810","updateDateTime":null,"value":-1,"warningArea":"B"}},{"type":"Feature","geometry":{"type":"Point","coordinates":[8.74636,44.44354]},"properties":{"alt":0,"basin":"T. Leira s.d.","basinArea":8.6,"basinClass":"Piccolo","code":"GORSLE","imgPath":null,"model":"Piccoli Bacini","municipality":"GE","name":"Mele - confluenza con T. Acquasanta","otherHtml":null,"refDate":null,"river":"T. Gorsexio","subFolder":"0810","updateDateTime":null,"value":-1,"warningArea":"B"}},{"type":"Feature","geometry":{"type":"Point","coordinates":[9.04838,44.44026]},"properties":{"alt":0,"basin":"T. Bisagno s.s.","basinArea":11.4,"basinClass":"Piccolo","code":"LENTBI","imgPath":null,"model":"Piccoli Bacini","municipality":"GE","name":"La Presa","otherHtml":null,"refDate":null,"river":"T. Lentro","subFolder":"0810","updateDateTime":null,"value":-1,"warningArea":"B"}},{"type":"Feature","geometry":{"type":"Point","coordinates":[8.8548,44.42413]},"properties":{"alt":0,"basin":"T. Chiaravagna s.s.","basinArea":2.7,"basinClass":"Piccolo","code":"RUSCCH","imgPath":null,"model":"Piccoli Bacini","municipality":"GE","name":"Incrocio Vie Borzoli/Sparta","otherHtml":null,"refDate":null,"river":"Rio Ruscarolo","subFolder":"0810","updateDateTime":null,"value":-1,"warningArea":"B"}},{"type":"Feature","geometry":{"type":"Point","coordinates":[8.51002,44.33999]},"properties":{"alt":0,"basin":"T. Sansobbia s.s.","basinArea":12.4,"basinClass":"Piccolo","code":"BASSAN","imgPath":null,"model":"Piccoli Bacini","municipality":"SV","name":"Albisola Superiore","otherHtml":null,"refDate":null,"river":"Rio Basco","subFolder":"0810","updateDateTime":null,"value":-1,"warningArea":"B"}},{"type":"Feature","geometry":{"type":"Point","coordinates":[9.04483,44.51365]},"properties":{"alt":0,"basin":"F. Scrivia s.s.","basinArea":1.4,"basinClass":"Piccolo","code":"CARSCR","imgPath":null,"model":"Piccoli Bacini","municipality":"GE","name":"Montoggio - ingresso copertura","otherHtml":null,"refDate":null,"river":"Rio Carpi","subFolder":"0810","updateDateTime":null,"value":-1,"warningArea":"E"}},{"type":"Feature","geometry":{"type":"Point","coordinates":[8.91835,44.47631]},"properties":{"alt":0,"basin":"T. Polcevera s.s.","basinArea":14,"basinClass":"Piccolo","code":"SARDSE","imgPath":null,"model":"Piccoli Bacini","municipality":"GE","name":"Manesseno","otherHtml":null,"refDate":null,"river":"T. Sardorella","subFolder":"0810","updateDateTime":null,"value":-1,"warningArea":"B"}},{"type":"Feature","geometry":{"type":"Point","coordinates":[8.32398,44.32437]},"properties":{"alt":0,"basin":"F. Bormida di Spigno s.d.","basinArea":7.4,"basinClass":"Piccolo","code":"CONBOS","imgPath":null,"model":"Piccoli Bacini","municipality":"SV","name":"Altare - SP5","otherHtml":null,"refDate":null,"river":"T. Consevola","subFolder":"0810","updateDateTime":null,"value":-1,"warningArea":"D"}},{"type":"Feature","geometry":{"type":"Point","coordinates":[8.12687,44.1954]},"properties":{"alt":0,"basin":"F. Bormida di Millesimo s.d.","basinArea":1.1,"basinClass":"Piccolo","code":"AVOBOM","imgPath":null,"model":"Piccoli Bacini","municipality":"SV","name":"Bardineto - località Cascinasso","otherHtml":null,"refDate":null,"river":"Rio Avoial","subFolder":"0810","updateDateTime":null,"value":-1,"warningArea":"D"}},{"type":"Feature","geometry":{"type":"Point","coordinates":[8.29827,44.29346]},"properties":{"alt":0,"basin":"F. Bormida di Spigno s.d.","basinArea":8.9,"basinClass":"Piccolo","code":"BITBOS","imgPath":null,"model":"Piccoli Bacini","municipality":"SV","name":"Mallare - Via al Ponte","otherHtml":null,"refDate":null,"river":"Rio Biterno","subFolder":"0810","updateDateTime":null,"value":-1,"warningArea":"D"}},{"type":"Feature","geometry":{"type":"Point","coordinates":[9.01101,44.3862]},"properties":{"alt":0,"basin":"Rio Bagnara","basinArea":1.6,"basinClass":"Piccolo","code":"BAGN00","imgPath":null,"model":"Piccoli Bacini","municipality":"GE","name":"Quinto","otherHtml":null,"refDate":null,"river":"Rio Bagnara","subFolder":"0810","updateDateTime":null,"value":-1,"warningArea":"B"}},{"type":"Feature","geometry":{"type":"Point","coordinates":[8.776629,44.42756]},"properties":{"alt":0,"basin":"T. Branega","basinArea":4.7,"basinClass":"Piccolo","code":"BRAN00","imgPath":null,"model":"Piccoli Bacini","municipality":"GE","name":"Pra","otherHtml":null,"refDate":null,"river":"T. Branega","subFolder":"0810","updateDateTime":null,"value":-1,"warningArea":"B"}},{"type":"Feature","geometry":{"type":"Point","coordinates":[8.89902,44.46624]},"properties":{"alt":0,"basin":"T. Polcevera s.d.","basinArea":11,"basinClass":"Piccolo","code":"BURBPO","imgPath":null,"model":"Piccoli Bacini","municipality":"GE","name":"Bolzaneto","otherHtml":null,"refDate":null,"river":"T. Burba","subFolder":"0810","updateDateTime":null,"value":-1,"warningArea":"B"}},{"type":"Feature","geometry":{"type":"Point","coordinates":[8.84588,44.42657]},"properties":{"alt":0,"basin":"Rio Cantarena","basinArea":1.5,"basinClass":"Piccolo","code":"RCAN00","imgPath":null,"model":"Piccoli Bacini","municipality":"GE","name":"Sestri Ponente","otherHtml":null,"refDate":null,"river":"Rio Cantarena","subFolder":"0810","updateDateTime":null,"value":-1,"warningArea":"B"}},{"type":"Feature","geometry":{"type":"Point","coordinates":[9.00259,44.38777]},"properties":{"alt":0,"basin":"Rio Castagna","basinArea":1,"basinClass":"Piccolo","code":"CASTA0","imgPath":null,"model":"Piccoli Bacini","municipality":"GE","name":"Quarto","otherHtml":null,"refDate":null,"river":"Rio Castagna","subFolder":"0810","updateDateTime":null,"value":-1,"warningArea":"B"}},{"type":"Feature","geometry":{"type":"Point","coordinates":[8.99753,44.38984]},"properties":{"alt":0,"basin":"Rio Priaruggia","basinArea":1.2,"basinClass":"Piccolo","code":"PRIA00","imgPath":null,"model":"Piccoli Bacini","municipality":"GE","name":"Quarto","otherHtml":null,"refDate":null,"river":"Rio Priaruggia","subFolder":"0810","updateDateTime":null,"value":-1,"warningArea":"B"}},{"type":"Feature","geometry":{"type":"Point","coordinates":[9.01448,44.44783]},"properties":{"alt":0,"basin":"T. Bisagno s.s.","basinArea":1.9,"basinClass":"Piccolo","code":"RRAGBI","imgPath":null,"model":"Piccoli Bacini","municipality":"GE","name":"Prato - Giardini Sandro Pertini","otherHtml":null,"refDate":null,"river":"Rio Raggio","subFolder":"0810","updateDateTime":null,"value":-1,"warningArea":"B"}},{"type":"Feature","geometry":{"type":"Point","coordinates":[8.81207,44.42452]},"properties":{"alt":0,"basin":"Rio Rexello","basinArea":1.2,"basinClass":"Piccolo","code":"REXE00","imgPath":null,"model":"Piccoli Bacini","municipality":"GE","name":"Pegli","otherHtml":null,"refDate":null,"river":"Rio Rexello","subFolder":"0810","updateDateTime":null,"value":-1,"warningArea":"B"}},{"type":"Feature","geometry":{"type":"Point","coordinates":[9.00931,44.44729]},"properties":{"alt":0,"basin":"T. Bisagno s.s.","basinArea":0.7,"basinClass":"Piccolo","code":"ROSABI","imgPath":null,"model":"Piccoli Bacini","municipality":"GE","name":"Prato - Passo della Rosata","otherHtml":null,"refDate":null,"river":"Rio Rosata","subFolder":"0810","updateDateTime":null,"value":-1,"warningArea":"B"}},{"type":"Feature","geometry":{"type":"Point","coordinates":[9.01372,44.38681]},"properties":{"alt":0,"basin":"Rio San Pietro","basinArea":1.3,"basinClass":"Piccolo","code":"SPIE00","imgPath":null,"model":"Piccoli Bacini","municipality":"GE","name":"Quinto","otherHtml":null,"refDate":null,"river":"Rio San Pietro","subFolder":"0810","updateDateTime":null,"value":-1,"warningArea":"B"}},{"type":"Feature","geometry":{"type":"Point","coordinates":[8.89085,44.43451]},"properties":{"alt":0,"basin":"T. Polcevera s.s.","basinArea":5.1,"basinClass":"Piccolo","code":"TORBPO","imgPath":null,"model":"Piccoli Bacini","municipality":"GE","name":"Rivarolo","otherHtml":null,"refDate":null,"river":"T. Torbella","subFolder":"0810","updateDateTime":null,"value":-1,"warningArea":"B"}},{"type":"Feature","geometry":{"type":"Point","coordinates":[9.00665,44.44821]},"properties":{"alt":0,"basin":"T. Bisagno s.d.","basinArea":5.4,"basinClass":"Piccolo","code":"RTORBI","imgPath":null,"model":"Piccoli Bacini","municipality":"GE","name":"Struppa - frazione Doria","otherHtml":null,"refDate":null,"river":"Rio Torbido","subFolder":"0810","updateDateTime":null,"value":-1,"warningArea":"B"}},{"type":"Feature","geometry":{"type":"Point","coordinates":[8.9667,44.44903]},"properties":{"alt":0,"basin":"T. Bisagno s.d.","basinArea":2.5,"basinClass":"Piccolo","code":"TRENBI","imgPath":null,"model":"Piccoli Bacini","municipality":"GE","name":"San Gottardo","otherHtml":null,"refDate":null,"river":"Rio Trensasco","subFolder":"0810","updateDateTime":null,"value":-1,"warningArea":"B"}},{"type":"Feature","geometry":{"type":"Point","coordinates":[8.94739,44.43095]},"properties":{"alt":0,"basin":"T. Bisagno s.d.","basinArea":2.2,"basinClass":"Piccolo","code":"VEILBI","imgPath":null,"model":"Piccoli Bacini","municipality":"GE","name":"Cimitero Staglieno","otherHtml":null,"refDate":null,"river":"Rio Veilino","subFolder":"0810","updateDateTime":null,"value":-1,"warningArea":"B"}},{"type":"Feature","geometry":{"type":"Point","coordinates":[8.71512,44.41658]},"properties":{"alt":0,"basin":"Rio Vesima","basinArea":1.7,"basinClass":"Piccolo","code":"RVES00","imgPath":null,"model":"Piccoli Bacini","municipality":"GE","name":"Vesima","otherHtml":null,"refDate":null,"river":"Rio Vesima","subFolder":"0810","updateDateTime":null,"value":-1,"warningArea":"B"}},{"type":"Feature","geometry":{"type":"Point","coordinates":[8.4952,44.32165]},"properties":{"alt":0,"basin":"Rio Podesta","basinArea":0.8,"basinClass":"Piccolo","code":"PODE00","imgPath":null,"model":"Piccoli Bacini","municipality":"SV","name":"Valloria","otherHtml":null,"refDate":null,"river":"Rio Podesta","subFolder":"0810","updateDateTime":null,"value":-1,"warningArea":"B"}},{"type":"Feature","geometry":{"type":"Point","coordinates":[8.54228,44.34274]},"properties":{"alt":0,"basin":"Rio Santa Brigida","basinArea":0.8,"basinClass":"Piccolo","code":"SBRI00","imgPath":null,"model":"Piccoli Bacini","municipality":"SV","name":"Celle Ligure","otherHtml":null,"refDate":null,"river":"Rio Santa Brigida","subFolder":"0810","updateDateTime":null,"value":-1,"warningArea":"B"}},{"type":"Feature","geometry":{"type":"Point","coordinates":[8.54395,44.34516]},"properties":{"alt":0,"basin":"Rio Sanda","basinArea":1.5,"basinClass":"Piccolo","code":"SAND00","imgPath":null,"model":"Piccoli Bacini","municipality":"SV","name":"Celle Ligure - Via Delfino (scuola elementare) ","otherHtml":null,"refDate":null,"river":"Rio Sanda","subFolder":"0810","updateDateTime":null,"value":-1,"warningArea":"B"}},{"type":"Feature","geometry":{"type":"Point","coordinates":[8.63851,44.38687]},"properties":{"alt":0,"basin":"T. Rumaro","basinArea":4.7,"basinClass":"Piccolo","code":"RUMA00","imgPath":null,"model":"Piccoli Bacini","municipality":"GE","name":"Cogoleto","otherHtml":null,"refDate":null,"river":"T. Rumaro","subFolder":"0810","updateDateTime":null,"value":-1,"warningArea":"B"}},{"type":"Feature","geometry":{"type":"Point","coordinates":[8.47504,44.30564]},"properties":{"alt":0,"basin":"T. Letimbro s.d.","basinArea":0.5,"basinClass":"Piccolo","code":"RITOLE","imgPath":null,"model":"Piccoli Bacini","municipality":"SV","name":"Savona - Ponte Via Corsi","otherHtml":null,"refDate":null,"river":"Rio Ritorto","subFolder":"0810","updateDateTime":null,"value":-1,"warningArea":"B"}},{"type":"Feature","geometry":{"type":"Point","coordinates":[8.56933,44.35639]},"properties":{"alt":0,"basin":"T. Rianello","basinArea":1.7,"basinClass":"Piccolo","code":"RIAN00","imgPath":null,"model":"Piccoli Bacini","municipality":"SV","name":"Varazze - Via San Rocco","otherHtml":null,"refDate":null,"river":"T. Rianello","subFolder":"0810","updateDateTime":null,"value":-1,"warningArea":"B"}},{"type":"Feature","geometry":{"type":"Point","coordinates":[8.46784,44.32199]},"properties":{"alt":0,"basin":"T. Letimbro s.s.","basinArea":1.2,"basinClass":"Piccolo","code":"REPULE","imgPath":null,"model":"Piccoli Bacini","municipality":"SV","name":"Lavagnola","otherHtml":null,"refDate":null,"river":"Rio Reposseno","subFolder":"0810","updateDateTime":null,"value":-1,"warningArea":"B"}},{"type":"Feature","geometry":{"type":"Point","coordinates":[8.62587,44.37424]},"properties":{"alt":0,"basin":"Rio Portigliolo","basinArea":4.9,"basinClass":"Piccolo","code":"PORT00","imgPath":null,"model":"Piccoli Bacini","municipality":"SV","name":"Lungomare Europa","otherHtml":null,"refDate":null,"river":"Rio Portigliolo","subFolder":"0810","updateDateTime":null,"value":-1,"warningArea":"B"}},{"type":"Feature","geometry":{"type":"Point","coordinates":[8.5521,44.34505]},"properties":{"alt":0,"basin":"Rio Liggie","basinArea":0.5,"basinClass":"Piccolo","code":"PILI00","imgPath":null,"model":"Piccoli Bacini","municipality":"SV","name":"Celle Ligure","otherHtml":null,"refDate":null,"river":"Rio Liggie","subFolder":"0810","updateDateTime":null,"value":-1,"warningArea":"B"}},{"type":"Feature","geometry":{"type":"Point","coordinates":[8.68488,44.40078]},"properties":{"alt":0,"basin":"Rio San Martino","basinArea":2.6,"basinClass":"Piccolo","code":"SMAR00","imgPath":null,"model":"Piccoli Bacini","municipality":"GE","name":"Arenzano","otherHtml":null,"refDate":null,"river":"Rio San Martino","subFolder":"0810","updateDateTime":null,"value":-1,"warningArea":"B"}},{"type":"Feature","geometry":{"type":"Point","coordinates":[8.58967,44.36135]},"properties":{"alt":0,"basin":"Rio Molo","basinArea":0.8,"basinClass":"Piccolo","code":"MOLO00","imgPath":null,"model":"Piccoli Bacini","municipality":"SV","name":"Varazze","otherHtml":null,"refDate":null,"river":"Rio Molo","subFolder":"0810","updateDateTime":null,"value":-1,"warningArea":"B"}},{"type":"Feature","geometry":{"type":"Point","coordinates":[8.45443,44.29581]},"properties":{"alt":0,"basin":"Rio Molinero","basinArea":5.4,"basinClass":"Piccolo","code":"MOLI00","imgPath":null,"model":"Piccoli Bacini","municipality":"SV","name":"Legino - Via Buonarroti","otherHtml":null,"refDate":null,"river":"Rio Molinero","subFolder":"0810","updateDateTime":null,"value":-1,"warningArea":"B"}},{"type":"Feature","geometry":{"type":"Point","coordinates":[8.46489,44.33035]},"properties":{"alt":0,"basin":"T. Letimbro s.s.","basinArea":1.2,"basinClass":"Piccolo","code":"MARMLE","imgPath":null,"model":"Piccoli Bacini","municipality":"SV","name":"Marmorassi","otherHtml":null,"refDate":null,"river":"Rio di Marmorassi","subFolder":"0810","updateDateTime":null,"value":-1,"warningArea":"B"}},{"type":"Feature","geometry":{"type":"Point","coordinates":[8.70444,44.4141]},"properties":{"alt":0,"basin":"Rio Lupara","basinArea":1.2,"basinClass":"Piccolo","code":"LUPA00","imgPath":null,"model":"Piccoli Bacini","municipality":"GE","name":"Via Aurelia - Campeggio Vesima","otherHtml":null,"refDate":null,"river":"Rio Lupara","subFolder":"0810","updateDateTime":null,"value":-1,"warningArea":"B"}},{"type":"Feature","geometry":{"type":"Point","coordinates":[8.53881,44.33544]},"properties":{"alt":0,"basin":"Rio Lorio","basinArea":1.2,"basinClass":"Piccolo","code":"LORI00","imgPath":null,"model":"Piccoli Bacini","municipality":"SV","name":"Via Aurelia","otherHtml":null,"refDate":null,"river":"Rio Lorio","subFolder":"0810","updateDateTime":null,"value":-1,"warningArea":"B"}},{"type":"Feature","geometry":{"type":"Point","coordinates":[8.43356,44.34552]},"properties":{"alt":0,"basin":"T. Letimbro s.s.","basinArea":1.5,"basinClass":"Piccolo","code":"LORILE","imgPath":null,"model":"Piccoli Bacini","municipality":"SV","name":"Santuario","otherHtml":null,"refDate":null,"river":"T. Loriano","subFolder":"0810","updateDateTime":null,"value":-1,"warningArea":"B"}},{"type":"Feature","geometry":{"type":"Point","coordinates":[8.46742,44.3201]},"properties":{"alt":0,"basin":"T. Letimbro s.d.","basinArea":9.4,"basinClass":"Piccolo","code":"LAVALE","imgPath":null,"model":"Piccoli Bacini","municipality":"SV","name":"Lavagnola","otherHtml":null,"refDate":null,"river":"T. Lavanestro","subFolder":"0810","updateDateTime":null,"value":-1,"warningArea":"B"}},{"type":"Feature","geometry":{"type":"Point","coordinates":[8.50064,44.33821]},"properties":{"alt":0,"basin":"T. Sansobbia s.d.","basinArea":1.4,"basinClass":"Piccolo","code":"GRANSA","imgPath":null,"model":"Piccoli Bacini","municipality":"SV","name":"Ponte Via Grana","otherHtml":null,"refDate":null,"river":"Rio di Grana","subFolder":"0810","updateDateTime":null,"value":-1,"warningArea":"B"}},{"type":"Feature","geometry":{"type":"Point","coordinates":[8.457,44.29683]},"properties":{"alt":0,"basin":"Rio Galletto","basinArea":1,"basinClass":"Piccolo","code":"GALL00","imgPath":null,"model":"Piccoli Bacini","municipality":"SV","name":"Legino - Via Valletta S. Cristoforo","otherHtml":null,"refDate":null,"river":"Rio Galletto","subFolder":"0810","updateDateTime":null,"value":-1,"warningArea":"B"}},{"type":"Feature","geometry":{"type":"Point","coordinates":[8.6033,44.36859]},"properties":{"alt":0,"basin":"Rio Forca","basinArea":0.2,"basinClass":"Piccolo","code":"FORC00","imgPath":null,"model":"Piccoli Bacini","municipality":"SV","name":"Varazze - Via del Salice","otherHtml":null,"refDate":null,"river":"Rio Forca","subFolder":"0810","updateDateTime":null,"value":-1,"warningArea":"B"}},{"type":"Feature","geometry":{"type":"Point","coordinates":[8.56458,44.348281]},"properties":{"alt":0,"basin":"Rio Finale","basinArea":1.4,"basinClass":"Piccolo","code":"RFIN00","imgPath":null,"model":"Piccoli Bacini","municipality":"SV","name":"Aurelia","otherHtml":null,"refDate":null,"river":"Rio Finale","subFolder":"0810","updateDateTime":null,"value":-1,"warningArea":"B"}},{"type":"Feature","geometry":{"type":"Point","coordinates":[8.56455,44.35566]},"properties":{"alt":0,"basin":"Rio Cucco","basinArea":0.8,"basinClass":"Piccolo","code":"RCUC00","imgPath":null,"model":"Piccoli Bacini","municipality":"SV","name":"Varazze - Via Vallino (tunnel FFSS)","otherHtml":null,"refDate":null,"river":"Rio Cucco","subFolder":"0810","updateDateTime":null,"value":-1,"warningArea":"B"}},{"type":"Feature","geometry":{"type":"Point","coordinates":[8.60714,44.366761]},"properties":{"alt":0,"basin":"Rio Coro","basinArea":0.2,"basinClass":"Piccolo","code":"CORV00","imgPath":null,"model":"Piccoli Bacini","municipality":"SV","name":"Lungomare Europa","otherHtml":null,"refDate":null,"river":"Rio Coro","subFolder":"0810","updateDateTime":null,"value":-1,"warningArea":"B"}},{"type":"Feature","geometry":{"type":"Point","coordinates":[8.5009,44.32776]},"properties":{"alt":0,"basin":"Rio Cimitero","basinArea":1,"basinClass":"Piccolo","code":"RCIM00","imgPath":null,"model":"Piccoli Bacini","municipality":"SV","name":"Albissola Marina","otherHtml":null,"refDate":null,"river":"Rio Cimitero","subFolder":"0810","updateDateTime":null,"value":-1,"warningArea":"B"}},{"type":"Feature","geometry":{"type":"Point","coordinates":[8.52532,44.33262]},"properties":{"alt":0,"basin":"Rio Carrea","basinArea":0.8,"basinClass":"Piccolo","code":"CARR00","imgPath":null,"model":"Piccoli Bacini","municipality":"SV","name":"Capo Torre","otherHtml":null,"refDate":null,"river":"Rio Carrea","subFolder":"0810","updateDateTime":null,"value":-1,"warningArea":"B"}},{"type":"Feature","geometry":{"type":"Point","coordinates":[8.49692,44.34629]},"properties":{"alt":0,"basin":"T. Sansobbia s.s.","basinArea":0.7,"basinClass":"Piccolo","code":"CARPSA","imgPath":null,"model":"Piccoli Bacini","municipality":"SV","name":"Carpineto","otherHtml":null,"refDate":null,"river":"Rio Carpineto","subFolder":"0810","updateDateTime":null,"value":-1,"warningArea":"B"}},{"type":"Feature","geometry":{"type":"Point","coordinates":[8.96388,44.4439]},"properties":{"alt":0,"basin":"T. Bisagno s.d.","basinArea":1.2,"basinClass":"Piccolo","code":"FCICBI","imgPath":null,"model":"Piccoli Bacini","municipality":"GE","name":"San Gottardo","otherHtml":null,"refDate":null,"river":"Fossato Cicala","subFolder":"0810","updateDateTime":null,"value":-1,"warningArea":"B"}},{"type":"Feature","geometry":{"type":"Point","coordinates":[8.89178,44.45204]},"properties":{"alt":0,"basin":"T. Polcevera s.d.","basinArea":2.9,"basinClass":"Piccolo","code":"CIGLPO","imgPath":null,"model":"Piccoli Bacini","municipality":"GE","name":"Trasta","otherHtml":null,"refDate":null,"river":"Rio Ciliegia","subFolder":"0810","updateDateTime":null,"value":-1,"warningArea":"B"}},{"type":"Feature","geometry":{"type":"Point","coordinates":[8.88882,44.43512]},"properties":{"alt":0,"basin":"T. Polcevera s.d.","basinArea":3.3,"basinClass":"Piccolo","code":"FEGIPO","imgPath":null,"model":"Piccoli Bacini","municipality":"GE","name":"Fegino","otherHtml":null,"refDate":null,"river":"Rio Fegino","subFolder":"0810","updateDateTime":null,"value":-1,"warningArea":"B"}},{"type":"Feature","geometry":{"type":"Point","coordinates":[8.96368,44.41729]},"properties":{"alt":0,"basin":"T. Bisagno s.s.","basinArea":1.1,"basinClass":"Piccolo","code":"FEREBI","imgPath":null,"model":"Piccoli Bacini","municipality":"GE","name":"Incrocio Vie Fereggiano - Pastonchi","otherHtml":null,"refDate":null,"river":"Rio Fereggiano","subFolder":"0810","updateDateTime":null,"value":-1,"warningArea":"B"}},{"type":"Feature","geometry":{"type":"Point","coordinates":[8.78831,44.42868]},"properties":{"alt":0,"basin":"T. San Pietro","basinArea":3.5,"basinClass":"Piccolo","code":"FOCE00","imgPath":null,"model":"Piccoli Bacini","municipality":"GE","name":"Pra","otherHtml":null,"refDate":null,"river":"T. San Pietro","subFolder":"0810","updateDateTime":null,"value":-1,"warningArea":"B"}},{"type":"Feature","geometry":{"type":"Point","coordinates":[8.73763,44.42457]},"properties":{"alt":0,"basin":"Rio Fontanelle","basinArea":1.4,"basinClass":"Piccolo","code":"FONL00","imgPath":null,"model":"Piccoli Bacini","municipality":"GE","name":"Via Aurelia","otherHtml":null,"refDate":null,"river":"Rio Fontanelle","subFolder":"0810","updateDateTime":null,"value":-1,"warningArea":"B"}},{"type":"Feature","geometry":{"type":"Point","coordinates":[8.89949,44.45514]},"properties":{"alt":0,"basin":"T. Polcevera s.s.","basinArea":2.9,"basinClass":"Piccolo","code":"GOREPO","imgPath":null,"model":"Piccoli Bacini","municipality":"GE","name":"Bolzaneto","otherHtml":null,"refDate":null,"river":"Rio Goresina","subFolder":"0810","updateDateTime":null,"value":-1,"warningArea":"B"}},{"type":"Feature","geometry":{"type":"Point","coordinates":[8.97959,44.45966]},"properties":{"alt":0,"basin":"T. Bisagno s.d.","basinArea":7.4,"basinClass":"Piccolo","code":"GEIRBI","imgPath":null,"model":"Piccoli Bacini","municipality":"GE","name":"Molassana","otherHtml":null,"refDate":null,"river":"T. Geirato","subFolder":"0810","updateDateTime":null,"value":-1,"warningArea":"B"}},{"type":"Feature","geometry":{"type":"Point","coordinates":[8.9631,44.43549]},"properties":{"alt":0,"basin":"T. Bisagno s.s.","basinArea":2,"basinClass":"Piccolo","code":"MERMBI","imgPath":null,"model":"Piccoli Bacini","municipality":"GE","name":"Sant Eusebio","otherHtml":null,"refDate":null,"river":"Rio Mermi","subFolder":"0810","updateDateTime":null,"value":-1,"warningArea":"B"}},{"type":"Feature","geometry":{"type":"Point","coordinates":[8.918082,44.41808]},"properties":{"alt":0,"basin":"Rio Lagaccio","basinArea":2.4,"basinClass":"Piccolo","code":"LAGA00","imgPath":null,"model":"Piccoli Bacini","municipality":"GE","name":"Principe","otherHtml":null,"refDate":null,"river":"Rio Lagaccio","subFolder":"0810","updateDateTime":null,"value":-1,"warningArea":"B"}},{"type":"Feature","geometry":{"type":"Point","coordinates":[8.77006,44.42754]},"properties":{"alt":0,"basin":"Rio Madonnette","basinArea":0.5,"basinClass":"Piccolo","code":"RMAD00","imgPath":null,"model":"Piccoli Bacini","municipality":"GE","name":"Voltri","otherHtml":null,"refDate":null,"river":"Rio Madonnette","subFolder":"0810","updateDateTime":null,"value":-1,"warningArea":"B"}},{"type":"Feature","geometry":{"type":"Point","coordinates":[8.83473,44.42654]},"properties":{"alt":0,"basin":"Rio Marotta","basinArea":0.5,"basinClass":"Piccolo","code":"MARO00","imgPath":null,"model":"Piccoli Bacini","municipality":"GE","name":"Sestri Ponente","otherHtml":null,"refDate":null,"river":"Rio Marotta","subFolder":"0810","updateDateTime":null,"value":-1,"warningArea":"B"}},{"type":"Feature","geometry":{"type":"Point","coordinates":[8.83913,44.42782]},"properties":{"alt":0,"basin":"Rio Molinassi","basinArea":1.7,"basinClass":"Piccolo","code":"MOLN00","imgPath":null,"model":"Piccoli Bacini","municipality":"GE","name":"Sestri Ponente - Via Merano","otherHtml":null,"refDate":null,"river":"Rio Molinassi","subFolder":"0810","updateDateTime":null,"value":-1,"warningArea":"B"}},{"type":"Feature","geometry":{"type":"Point","coordinates":[9.06874,44.38132]},"properties":{"alt":0,"basin":"T. Poggio","basinArea":4.9,"basinClass":"Piccolo","code":"POGG00","imgPath":null,"model":"Piccoli Bacini","municipality":"GE","name":"Bogliasco","otherHtml":null,"refDate":null,"river":"T. Poggio","subFolder":"0810","updateDateTime":null,"value":-1,"warningArea":"B"}},{"type":"Feature","geometry":{"type":"Point","coordinates":[8.47337,44.31191]},"properties":{"alt":0,"basin":"T. Letimbro s.d.","basinArea":0.5,"basinClass":"Piccolo","code":"CAPELE","imgPath":null,"model":"Piccoli Bacini","municipality":"SV","name":"Incrocio Via Vittime di Brescia - Corso Ricci","otherHtml":null,"refDate":null,"river":"Rio Capeina","subFolder":"0810","updateDateTime":null,"value":-1,"warningArea":"B"}},{"type":"Feature","geometry":{"type":"Point","coordinates":[9.31866,44.31648]},"properties":{"alt":0,"basin":"T. Rupinaro","basinArea":10.5,"basinClass":"Piccolo","code":"RUPI00","imgPath":null,"model":"Piccoli Bacini","municipality":"GE","name":"Rupinaro foce","otherHtml":null,"refDate":null,"river":"T. Rupinaro","subFolder":"0810","updateDateTime":null,"value":-1,"warningArea":"C"}},{"type":"Feature","geometry":{"type":"Point","coordinates":[9.0333,44.38351]},"properties":{"alt":0,"basin":"T. Nervi","basinArea":9.1,"basinClass":"Piccolo","code":"NRVI00","imgPath":null,"model":"Piccoli Bacini","municipality":"GE","name":"Nervi foce","otherHtml":null,"refDate":null,"river":"T. Nervi","subFolder":"0810","updateDateTime":null,"value":-1,"warningArea":"B"}},{"type":"Feature","geometry":{"type":"Point","coordinates":[9.10341,44.37178]},"properties":{"alt":0,"basin":"T. Sori","basinArea":12.5,"basinClass":"Piccolo","code":"SORI00","imgPath":null,"model":"Piccoli Bacini","municipality":"GE","name":"Sori foce","otherHtml":null,"refDate":null,"river":"T. Sori","subFolder":"0810","updateDateTime":null,"value":-1,"warningArea":"B"}}]}