{"type":"FeatureCollection","features":[{"type":"Feature","geometry":{"type":"Point","coordinates":[8.41726,44.29141]},"properties":{"alt":0,"basin":"tra Quiliano e Sansobbia","basinArea":17,"basinClass":"Medio","code":"QUAZQU","imgPath":null,"model":"Monitoraggio Nowcasting","municipality":"SV","name":"Quazzola a Quiliano","otherHtml":null,"refDate":null,"river":"Quazzola","subFolder":"0800","updateDateTime":"06/17/2025 08:23:48 AM","value":0,"warningArea":"B"}},{"type":"Feature","geometry":{"type":"Point","coordinates":[7.59046,43.81253]},"properties":{"alt":0,"basin":"Roya","basinArea":583,"basinClass":"Grande","code":"ROVENT","imgPath":null,"model":"Monitoraggio Nowcasting","municipality":"IM","name":"Roya a Parco Roya","otherHtml":null,"refDate":null,"river":"Roya","subFolder":"0800","updateDateTime":null,"value":0,"warningArea":"A"}},{"type":"Feature","geometry":{"type":"Point","coordinates":[9.94238,44.29327]},"properties":{"alt":0,"basin":"Alto Magra","basinArea":289,"basinClass":"Grande","code":"PMAGRA","imgPath":null,"model":"Monitoraggio Nowcasting","municipality":"MS","name":"Magra a Ponte Magra","otherHtml":null,"refDate":null,"river":"Magra","subFolder":"0800","updateDateTime":null,"value":0,"warningArea":null}},{"type":"Feature","geometry":{"type":"Point","coordinates":[10.0203,44.04709]},"properties":{"alt":0,"basin":"Parmignola","basinArea":19,"basinClass":"Medio","code":"PARM00","imgPath":null,"model":"Monitoraggio Nowcasting","municipality":"MS","name":"Parmignola foce","otherHtml":null,"refDate":null,"river":"Parmignola","subFolder":"0800","updateDateTime":null,"value":0,"warningArea":"C"}},{"type":"Feature","geometry":{"type":"Point","coordinates":[7.54053,43.97531]},"properties":{"alt":0,"basin":"Roya","basinArea":317,"basinClass":"Grande","code":"SAORGE","imgPath":null,"model":"Monitoraggio Nowcasting","municipality":null,"name":"Roya a Saorge","otherHtml":null,"refDate":null,"river":"Roya","subFolder":"0800","updateDateTime":null,"value":0,"warningArea":null}},{"type":"Feature","geometry":{"type":"Point","coordinates":[7.45119,43.8777]},"properties":{"alt":0,"basin":"Roya","basinArea":78,"basinClass":"Medio","code":"SOSPEL","imgPath":null,"model":"Monitoraggio Nowcasting","municipality":null,"name":"Bevera a Sospel","otherHtml":null,"refDate":null,"river":"Bevera","subFolder":"0800","updateDateTime":null,"value":0,"warningArea":null}},{"type":"Feature","geometry":{"type":"Point","coordinates":[7.55434,44.00264]},"properties":{"alt":0,"basin":"Roya","basinArea":231,"basinClass":"Grande","code":"FONTAN","imgPath":null,"model":"Monitoraggio Nowcasting","municipality":null,"name":"Roya a Fontan","otherHtml":null,"refDate":null,"river":"Roya","subFolder":"0800","updateDateTime":null,"value":0,"warningArea":null}},{"type":"Feature","geometry":{"type":"Point","coordinates":[7.58949,44.05178]},"properties":{"alt":0,"basin":"Roya","basinArea":165,"basinClass":"Grande","code":"ROSDLM","imgPath":null,"model":"Monitoraggio Nowcasting","municipality":null,"name":"Roya a Saint Dalmas De Tende","otherHtml":null,"refDate":null,"river":"Roya","subFolder":"0800","updateDateTime":null,"value":0,"warningArea":null}},{"type":"Feature","geometry":{"type":"Point","coordinates":[7.58771,44.05011]},"properties":{"alt":0,"basin":"Roya","basinArea":9,"basinClass":"Piccolo","code":"BISDLM","imgPath":null,"model":"Monitoraggio Nowcasting","municipality":null,"name":"Bieugne a Saint Dalmas De Tende","otherHtml":null,"refDate":null,"river":"Bieugne","subFolder":"0800","updateDateTime":null,"value":0,"warningArea":null}},{"type":"Feature","geometry":{"type":"Point","coordinates":[7.58864,44.09887]},"properties":{"alt":0,"basin":"Roya","basinArea":39,"basinClass":"Medio","code":"TENDES","imgPath":null,"model":"Monitoraggio Nowcasting","municipality":null,"name":"Roya a Tende","otherHtml":null,"refDate":null,"river":"Roya","subFolder":"0800","updateDateTime":null,"value":0,"warningArea":null}},{"type":"Feature","geometry":{"type":"Point","coordinates":[8.74752,44.44251]},"properties":{"alt":0,"basin":"tra Teiro e Varenna","basinArea":18,"basinClass":"Medio","code":"ACQULE","imgPath":null,"model":"Monitoraggio Nowcasting","municipality":"GE","name":"Acquasanta foce","otherHtml":null,"refDate":null,"river":"Acquasanta","subFolder":"0800","updateDateTime":null,"value":0,"warningArea":"B"}},{"type":"Feature","geometry":{"type":"Point","coordinates":[9.98416,44.30966]},"properties":{"alt":0,"basin":"Alto Magra","basinArea":53,"basinClass":"Medio","code":"BAGNON","imgPath":null,"model":"Monitoraggio Nowcasting","municipality":"MS","name":"Bagnone a Bagnone","otherHtml":null,"refDate":null,"river":"Bagnone","subFolder":"0800","updateDateTime":null,"value":0,"warningArea":null}},{"type":"Feature","geometry":{"type":"Point","coordinates":[8.9452,44.57308]},"properties":{"alt":0,"basin":"Stura - Scrivia","basinArea":2,"basinClass":"Piccolo","code":"BUSALT","imgPath":null,"model":"Monitoraggio Nowcasting","municipality":"GE","name":"Busalletta a Busalla","otherHtml":null,"refDate":null,"river":"Busalletta","subFolder":"0800","updateDateTime":null,"value":0,"warningArea":"E"}},{"type":"Feature","geometry":{"type":"Point","coordinates":[7.62411,43.86053]},"properties":{"alt":0,"basin":"Nervia","basinArea":163,"basinClass":"Grande","code":"DOLCEA","imgPath":null,"model":"Monitoraggio Nowcasting","municipality":"IM","name":"Nervia a Dolceacqua","otherHtml":null,"refDate":null,"river":"Nervia","subFolder":"0800","updateDateTime":null,"value":0,"warningArea":"A"}},{"type":"Feature","geometry":{"type":"Point","coordinates":[7.68039,43.93579]},"properties":{"alt":0,"basin":"Nervia","basinArea":20,"basinClass":"Medio","code":"NERVMA","imgPath":null,"model":"Monitoraggio Nowcasting","municipality":"IM","name":"Nervia a Madonna del Ponte","otherHtml":null,"refDate":null,"river":"Nervia","subFolder":"0800","updateDateTime":null,"value":0,"warningArea":"A"}},{"type":"Feature","geometry":{"type":"Point","coordinates":[8.20649,44.32452]},"properties":{"alt":0,"basin":"Bormida di Millesimo","basinArea":7,"basinClass":"Piccolo","code":"OSIGLT","imgPath":null,"model":"Monitoraggio Nowcasting","municipality":"SV","name":"Osiglietta a Cascina Piana","otherHtml":null,"refDate":null,"river":"Osiglietta","subFolder":"0800","updateDateTime":null,"value":0,"warningArea":"D"}},{"type":"Feature","geometry":{"type":"Point","coordinates":[9.3893,44.4202]},"properties":{"alt":0,"basin":"Entella","basinArea":35,"basinClass":"Medio","code":"PENBOR","imgPath":null,"model":"Monitoraggio Nowcasting","municipality":"GE","name":"Penna a Borzonasca","otherHtml":null,"refDate":null,"river":"Penna","subFolder":"0800","updateDateTime":null,"value":0,"warningArea":"C"}},{"type":"Feature","geometry":{"type":"Point","coordinates":[8.4667,44.36638]},"properties":{"alt":0,"basin":"Sansobbia - Teiro","basinArea":35,"basinClass":"Medio","code":"PPOGGI","imgPath":null,"model":"Monitoraggio Nowcasting","municipality":"SV","name":"Sansobbia a Ponte Poggi","otherHtml":null,"refDate":null,"river":"Sansobbia","subFolder":"0800","updateDateTime":null,"value":0,"warningArea":"B"}},{"type":"Feature","geometry":{"type":"Point","coordinates":[9.03114,44.50278]},"properties":{"alt":0,"basin":"Stura - Scrivia","basinArea":7,"basinClass":"Piccolo","code":"TREFON","imgPath":null,"model":"Monitoraggio Nowcasting","municipality":"GE","name":"Lationa a Trefontane","otherHtml":null,"refDate":null,"river":"Lationa","subFolder":"0800","updateDateTime":null,"value":0,"warningArea":"E"}},{"type":"Feature","geometry":{"type":"Point","coordinates":[7.78481,43.98446]},"properties":{"alt":0,"basin":"Argentina","basinArea":84,"basinClass":"Medio","code":"ARGCAP","imgPath":null,"model":"Monitoraggio Nowcasting","municipality":"IM","name":"Argentina a Molini di Triora","otherHtml":null,"refDate":null,"river":"Argentina","subFolder":"0800","updateDateTime":null,"value":0,"warningArea":"A"}},{"type":"Feature","geometry":{"type":"Point","coordinates":[7.9689,43.97589]},"properties":{"alt":0,"basin":"Impero","basinArea":34,"basinClass":"Medio","code":"IMPTRE","imgPath":null,"model":"Monitoraggio Nowcasting","municipality":"IM","name":"Impero a San Lazzaro","otherHtml":null,"refDate":null,"river":"Impero","subFolder":"0800","updateDateTime":null,"value":0,"warningArea":"A"}},{"type":"Feature","geometry":{"type":"Point","coordinates":[8.12891,44.09046]},"properties":{"alt":0,"basin":"Centa","basinArea":70,"basinClass":"Medio","code":"PENNEV","imgPath":null,"model":"Monitoraggio Nowcasting","municipality":"SV","name":"Pennavaira a Martinetto","otherHtml":null,"refDate":null,"river":"Pennavaira","subFolder":"0800","updateDateTime":null,"value":0,"warningArea":"A"}},{"type":"Feature","geometry":{"type":"Point","coordinates":[8.28944,44.35662]},"properties":{"alt":0,"basin":"Bormida di Spigno","basinArea":58,"basinClass":"Medio","code":"CARCAR","imgPath":null,"model":"Monitoraggio Nowcasting","municipality":"SV","name":"Bormida di Spigno a Carcare","otherHtml":null,"refDate":null,"river":"Bormida di Spigno","subFolder":"0800","updateDateTime":null,"value":0,"warningArea":"D"}},{"type":"Feature","geometry":{"type":"Point","coordinates":[8.6939,44.54256]},"properties":{"alt":0,"basin":"Stura - Scrivia","basinArea":70,"basinClass":"Medio","code":"CAMPST","imgPath":null,"model":"Monitoraggio Nowcasting","municipality":"GE","name":"Stura a Campo Ligure","otherHtml":null,"refDate":null,"river":"Stura","subFolder":"0800","updateDateTime":null,"value":0,"warningArea":"D"}},{"type":"Feature","geometry":{"type":"Point","coordinates":[9.04769,44.51561]},"properties":{"alt":0,"basin":"Stura - Scrivia","basinArea":59,"basinClass":"Medio","code":"SCRMON","imgPath":null,"model":"Monitoraggio Nowcasting","municipality":"GE","name":"Scrivia a Montoggio","otherHtml":null,"refDate":null,"river":"Scrivia","subFolder":"0800","updateDateTime":null,"value":0,"warningArea":"E"}},{"type":"Feature","geometry":{"type":"Point","coordinates":[8.94062,44.58154]},"properties":{"alt":0,"basin":"Stura - Scrivia","basinArea":162,"basinClass":"Grande","code":"SCRBUS","imgPath":null,"model":"Monitoraggio Nowcasting","municipality":"GE","name":"Scrivia a Busalla","otherHtml":null,"refDate":null,"river":"Scrivia","subFolder":"0800","updateDateTime":null,"value":0,"warningArea":"E"}},{"type":"Feature","geometry":{"type":"Point","coordinates":[8.95731,44.64476]},"properties":{"alt":0,"basin":"Stura - Scrivia","basinArea":202,"basinClass":"Grande","code":"SCRISO","imgPath":null,"model":"Monitoraggio Nowcasting","municipality":"GE","name":"Scrivia a Isola del Cantone","otherHtml":null,"refDate":null,"river":"Scrivia","subFolder":"0800","updateDateTime":null,"value":0,"warningArea":"E"}},{"type":"Feature","geometry":{"type":"Point","coordinates":[8.98468,44.39625]},"properties":{"alt":0,"basin":"tra Bisagno ed Entella","basinArea":15,"basinClass":"Piccolo","code":"STRL00","imgPath":null,"model":"Monitoraggio Nowcasting","municipality":"GE","name":"Sturla foce","otherHtml":null,"refDate":null,"river":"Sturla","subFolder":"0800","updateDateTime":null,"value":0,"warningArea":"B"}},{"type":"Feature","geometry":{"type":"Point","coordinates":[9.34391,44.35945]},"properties":{"alt":0,"basin":"Entella","basinArea":161,"basinClass":"Grande","code":"LAVA01","imgPath":null,"model":"Monitoraggio Nowcasting","municipality":"GE","name":"Lavagna a S. Martino","otherHtml":null,"refDate":null,"river":"Lavagna","subFolder":"0800","updateDateTime":null,"value":0,"warningArea":"C"}},{"type":"Feature","geometry":{"type":"Point","coordinates":[9.60839,44.17123]},"properties":{"alt":0,"basin":"tra Entella e Magra","basinArea":15,"basinClass":"Medio","code":"GHIA00","imgPath":null,"model":"Monitoraggio Nowcasting","municipality":"SP","name":"Ghiararo foce","otherHtml":null,"refDate":null,"river":"Ghiararo","subFolder":"0800","updateDateTime":null,"value":0,"warningArea":"C"}},{"type":"Feature","geometry":{"type":"Point","coordinates":[10.00343,44.24267]},"properties":{"alt":0,"basin":"Alto Magra","basinArea":84,"basinClass":"Medio","code":"LICTAV","imgPath":null,"model":"Monitoraggio Nowcasting","municipality":"MS","name":"Taverone a Licciana Nardi","otherHtml":null,"refDate":null,"river":"Taverone","subFolder":"0800","updateDateTime":null,"value":0,"warningArea":null}},{"type":"Feature","geometry":{"type":"Point","coordinates":[9.89905,44.33678]},"properties":{"alt":0,"basin":"Alto Magra","basinArea":9,"basinClass":"Piccolo","code":"PTEGLI","imgPath":null,"model":"Monitoraggio Nowcasting","municipality":"MS","name":"Teglia a Ponte Teglia","otherHtml":null,"refDate":null,"river":"Teglia","subFolder":"0800","updateDateTime":null,"value":0,"warningArea":null}},{"type":"Feature","geometry":{"type":"Point","coordinates":[9.25026,44.52555]},"properties":{"alt":0,"basin":"Trebbia - Aveto","basinArea":41,"basinClass":"Medio","code":"TREB01","imgPath":null,"model":"Monitoraggio Nowcasting","municipality":"GE","name":"Trebbia a Montebruno","otherHtml":null,"refDate":null,"river":"Trebbia","subFolder":"0800","updateDateTime":null,"value":0,"warningArea":"E"}},{"type":"Feature","geometry":{"type":"Point","coordinates":[7.55404,43.83782]},"properties":{"alt":0,"basin":"Roya","basinArea":148,"basinClass":"Medio","code":"TORRIB","imgPath":null,"model":"Monitoraggio Nowcasting","municipality":"IM","name":"Bevera a Torri","otherHtml":null,"refDate":null,"river":"Bevera","subFolder":"0800","updateDateTime":null,"value":0,"warningArea":"A"}},{"type":"Feature","geometry":{"type":"Point","coordinates":[9.28156,44.56529]},"properties":{"alt":0,"basin":"Trebbia - Aveto","basinArea":104,"basinClass":"Medio","code":"ROVEGN","imgPath":null,"model":"Monitoraggio Nowcasting","municipality":"GE","name":"Trebbia a Rovegno","otherHtml":null,"refDate":null,"river":"Trebbia","subFolder":"0800","updateDateTime":null,"value":0,"warningArea":"E"}},{"type":"Feature","geometry":{"type":"Point","coordinates":[7.54484,43.87296]},"properties":{"alt":0,"basin":"Roya","basinArea":403,"basinClass":"Grande","code":"AIROLE","imgPath":null,"model":"Monitoraggio Nowcasting","municipality":"IM","name":"Roya ad Airole","otherHtml":null,"refDate":null,"river":"Roya","subFolder":"0800","updateDateTime":null,"value":0,"warningArea":"A"}},{"type":"Feature","geometry":{"type":"Point","coordinates":[7.57089,43.82055]},"properties":{"alt":0,"basin":"Roya","basinArea":156,"basinClass":"Grande","code":"RODISC","imgPath":null,"model":"Monitoraggio Nowcasting","municipality":"IM","name":"Bevera a Ventimiglia","otherHtml":null,"refDate":null,"river":"Bevera","subFolder":"0800","updateDateTime":null,"value":0,"warningArea":"A"}},{"type":"Feature","geometry":{"type":"Point","coordinates":[8.32248,44.36694]},"properties":{"alt":394,"basin":"Bormida di Spigno","basinArea":55,"basinClass":"Medio","code":"FERRAN","imgPath":null,"model":"Monitoraggio Nowcasting","municipality":"SV","name":"Bormida di Spigno a Ferrania","otherHtml":null,"refDate":null,"river":"Bormida di Spigno","subFolder":"0800","updateDateTime":null,"value":0,"warningArea":"D"}},{"type":"Feature","geometry":{"type":"Point","coordinates":[7.8601,43.8311]},"properties":{"alt":0,"basin":"Argentina","basinArea":210,"basinClass":"Grande","code":"ARGE00","imgPath":null,"model":"Monitoraggio Nowcasting","municipality":"IM","name":"Argentina foce","otherHtml":null,"refDate":null,"river":"Argentina","subFolder":"0800","updateDateTime":null,"value":0,"warningArea":"A"}},{"type":"Feature","geometry":{"type":"Point","coordinates":[7.84202,43.93074]},"properties":{"alt":-10,"basin":"Argentina","basinArea":130,"basinClass":"Medio","code":"ARGE01","imgPath":null,"model":"Monitoraggio Nowcasting","municipality":"IM","name":"Argentina a Montalto Ligure","otherHtml":null,"refDate":null,"river":"Argentina","subFolder":"0800","updateDateTime":null,"value":0,"warningArea":"A"}},{"type":"Feature","geometry":{"type":"Point","coordinates":[7.84759,43.88137]},"properties":{"alt":80,"basin":"Argentina","basinArea":192,"basinClass":"Grande","code":"ARGEME","imgPath":null,"model":"Monitoraggio Nowcasting","municipality":"IM","name":"Argentina a Merelli","otherHtml":null,"refDate":null,"river":"Argentina","subFolder":"0800","updateDateTime":null,"value":0,"warningArea":"A"}},{"type":"Feature","geometry":{"type":"Point","coordinates":[7.83775,43.81983]},"properties":{"alt":0,"basin":"tra Nervia e Argentina","basinArea":38,"basinClass":"Medio","code":"ARME00","imgPath":null,"model":"Monitoraggio Nowcasting","municipality":"IM","name":"Armea foce","otherHtml":null,"refDate":null,"river":"Armea","subFolder":"0800","updateDateTime":null,"value":0,"warningArea":"A"}},{"type":"Feature","geometry":{"type":"Point","coordinates":[7.81883,43.83551]},"properties":{"alt":41,"basin":"tra Nervia e Argentina","basinArea":35,"basinClass":"Medio","code":"ARMVAL","imgPath":null,"model":"Monitoraggio Nowcasting","municipality":"IM","name":"Armea a Valle Armea","otherHtml":null,"refDate":null,"river":"Armea","subFolder":"0800","updateDateTime":null,"value":0,"warningArea":"A"}},{"type":"Feature","geometry":{"type":"Point","coordinates":[8.6333,44.37998]},"properties":{"alt":0,"basin":"tra Teiro e Varenna","basinArea":25,"basinClass":"Medio","code":"ARRE00","imgPath":null,"model":"Monitoraggio Nowcasting","municipality":"SV","name":"Arrestra foce","otherHtml":null,"refDate":null,"river":"Arrestra","subFolder":"0800","updateDateTime":null,"value":0,"warningArea":"B"}},{"type":"Feature","geometry":{"type":"Point","coordinates":[9.9693,44.2061]},"properties":{"alt":-10,"basin":"Alto Magra","basinArea":316,"basinClass":"Grande","code":"AULE00","imgPath":null,"model":"Monitoraggio Nowcasting","municipality":"MS","name":"Aulella ad Aulla","otherHtml":null,"refDate":null,"river":"Aulella","subFolder":"0800","updateDateTime":null,"value":0,"warningArea":null}},{"type":"Feature","geometry":{"type":"Point","coordinates":[10.06207,44.20233]},"properties":{"alt":107,"basin":"Alto Magra","basinArea":203,"basinClass":"Grande","code":"AULSOL","imgPath":null,"model":"Monitoraggio Nowcasting","municipality":"MS","name":"Aulella a Soliera","otherHtml":null,"refDate":null,"river":"Aulella","subFolder":"0800","updateDateTime":null,"value":0,"warningArea":null}},{"type":"Feature","geometry":{"type":"Point","coordinates":[9.34647,44.4952]},"properties":{"alt":809,"basin":"Trebbia - Aveto","basinArea":42,"basinClass":"Medio","code":"AVECAB","imgPath":null,"model":"Monitoraggio Nowcasting","municipality":"GE","name":"Aveto a Cabanne","otherHtml":null,"refDate":null,"river":"Aveto","subFolder":"0800","updateDateTime":null,"value":0,"warningArea":"E"}},{"type":"Feature","geometry":{"type":"Point","coordinates":[9.40587,44.60064]},"properties":{"alt":-10,"basin":"Trebbia - Aveto","basinArea":183,"basinClass":"Grande","code":"AVET00","imgPath":null,"model":"Monitoraggio Nowcasting","municipality":"GE","name":"Aveto confine","otherHtml":null,"refDate":null,"river":"Aveto","subFolder":"0800","updateDateTime":null,"value":0,"warningArea":"E"}},{"type":"Feature","geometry":{"type":"Point","coordinates":[8.95395,44.41094]},"properties":{"alt":0,"basin":"Bisagno","basinArea":93,"basinClass":"Medio","code":"BISA00","imgPath":null,"model":"Monitoraggio Nowcasting","municipality":"GE","name":"Bisagno Firpo","otherHtml":null,"refDate":null,"river":"Bisagno","subFolder":"0800","updateDateTime":null,"value":0,"warningArea":"B"}},{"type":"Feature","geometry":{"type":"Point","coordinates":[8.98654,44.45433]},"properties":{"alt":87,"basin":"Bisagno","basinArea":61,"basinClass":"Medio","code":"BISMOL","imgPath":null,"model":"Monitoraggio Nowcasting","municipality":"GE","name":"Bisagno a Molassana","otherHtml":null,"refDate":null,"river":"Bisagno","subFolder":"0800","updateDateTime":null,"value":0,"warningArea":"B"}},{"type":"Feature","geometry":{"type":"Point","coordinates":[9.22879,44.3466]},"properties":{"alt":0,"basin":"tra Bisagno ed Entella","basinArea":26,"basinClass":"Medio","code":"BOAT00","imgPath":null,"model":"Monitoraggio Nowcasting","municipality":"GE","name":"Boate foce","otherHtml":null,"refDate":null,"river":"Boate","subFolder":"0800","updateDateTime":null,"value":0,"warningArea":"C"}},{"type":"Feature","geometry":{"type":"Point","coordinates":[8.90415,44.46827]},"properties":{"alt":-10,"basin":"Varenna - Polcevera","basinArea":46,"basinClass":"Medio","code":"SECCPO","imgPath":null,"model":"Monitoraggio Nowcasting","municipality":"GE","name":"Secca a Bolzaneto","otherHtml":null,"refDate":null,"river":"Secca","subFolder":"0800","updateDateTime":null,"value":0,"warningArea":"B"}},{"type":"Feature","geometry":{"type":"Point","coordinates":[9.71552,44.23132]},"properties":{"alt":-10,"basin":"Vara","basinArea":344,"basinClass":"Grande","code":"BOVARA","imgPath":null,"model":"Monitoraggio Nowcasting","municipality":"SP","name":"Vara a Borghetto Vara","otherHtml":null,"refDate":null,"river":"Vara","subFolder":"0800","updateDateTime":null,"value":0,"warningArea":"C"}},{"type":"Feature","geometry":{"type":"Point","coordinates":[8.2708,44.4039]},"properties":{"alt":-10,"basin":"Bormida di Spigno","basinArea":165,"basinClass":"Grande","code":"CAIROM","imgPath":null,"model":"Monitoraggio Nowcasting","municipality":"SV","name":"Bormida di Spigno a Cairo Montenotte","otherHtml":null,"refDate":null,"river":"Bormida di Spigno","subFolder":"0800","updateDateTime":null,"value":0,"warningArea":"D"}},{"type":"Feature","geometry":{"type":"Point","coordinates":[9.95015,44.19802]},"properties":{"alt":-10,"basin":"Alto Magra","basinArea":868,"basinClass":"Grande","code":"CALAMA","imgPath":null,"model":"Monitoraggio Nowcasting","municipality":"MS","name":"Magra a Calamazza","otherHtml":null,"refDate":null,"river":"Magra","subFolder":"0800","updateDateTime":null,"value":0,"warningArea":null}},{"type":"Feature","geometry":{"type":"Point","coordinates":[9.41004,44.34004]},"properties":{"alt":-10,"basin":"Entella","basinArea":40,"basinClass":"Medio","code":"CAMINA","imgPath":null,"model":"Monitoraggio Nowcasting","municipality":"GE","name":"Graveglia a Caminata","otherHtml":null,"refDate":null,"river":"Graveglia","subFolder":"0800","updateDateTime":null,"value":0,"warningArea":"C"}},{"type":"Feature","geometry":{"type":"Point","coordinates":[8.01116,43.8723]},"properties":{"alt":0,"basin":"tra Argentina e Impero","basinArea":17,"basinClass":"Medio","code":"CARA00","imgPath":null,"model":"Monitoraggio Nowcasting","municipality":"IM","name":"Caramagna foce","otherHtml":null,"refDate":null,"river":"Caramagna","subFolder":"0800","updateDateTime":null,"value":0,"warningArea":"A"}},{"type":"Feature","geometry":{"type":"Point","coordinates":[9.34825,44.34615]},"properties":{"alt":18,"basin":"Entella","basinArea":290,"basinClass":"Grande","code":"CARASC","imgPath":null,"model":"Monitoraggio Nowcasting","municipality":"GE","name":"Lavagna a Carasco","otherHtml":null,"refDate":null,"river":"Lavagna","subFolder":"0800","updateDateTime":null,"value":0,"warningArea":"C"}},{"type":"Feature","geometry":{"type":"Point","coordinates":[9.51876,44.21562]},"properties":{"alt":0,"basin":"tra Entella e Magra","basinArea":23,"basinClass":"Medio","code":"CAST00","imgPath":null,"model":"Monitoraggio Nowcasting","municipality":"SP","name":"Castagnola foce","otherHtml":null,"refDate":null,"river":"Castagnola","subFolder":"0800","updateDateTime":null,"value":0,"warningArea":"C"}},{"type":"Feature","geometry":{"type":"Point","coordinates":[8.74244,44.42785]},"properties":{"alt":0,"basin":"tra Teiro e Varenna","basinArea":25,"basinClass":"Medio","code":"CERU00","imgPath":null,"model":"Monitoraggio Nowcasting","municipality":"GE","name":"Cerusa foce","otherHtml":null,"refDate":null,"river":"Cerusa","subFolder":"0800","updateDateTime":null,"value":0,"warningArea":"B"}},{"type":"Feature","geometry":{"type":"Point","coordinates":[8.10668,43.92185]},"properties":{"alt":0,"basin":"tra Impero e Centa","basinArea":23,"basinClass":"Medio","code":"CERV00","imgPath":null,"model":"Monitoraggio Nowcasting","municipality":"IM","name":"Cervo foce","otherHtml":null,"refDate":null,"river":"Cervo","subFolder":"0800","updateDateTime":null,"value":0,"warningArea":"A"}},{"type":"Feature","geometry":{"type":"Point","coordinates":[8.30735,44.48618]},"properties":{"alt":267,"basin":"Bormida di Spigno","basinArea":250,"basinClass":"Grande","code":"CRIXIA","imgPath":null,"model":"Monitoraggio Nowcasting","municipality":"SV","name":"Bormida di Spigno a Piana Crixia","otherHtml":null,"refDate":null,"river":"Bormida di Spigno","subFolder":"0800","updateDateTime":null,"value":0,"warningArea":"D"}},{"type":"Feature","geometry":{"type":"Point","coordinates":[8.46982,44.52262]},"properties":{"alt":-10,"basin":"Erro - Orba","basinArea":130,"basinClass":"Medio","code":"ERRO00","imgPath":null,"model":"Monitoraggio Nowcasting","municipality":"SV","name":"Erro confine","otherHtml":null,"refDate":null,"river":"Erro","subFolder":"0800","updateDateTime":null,"value":0,"warningArea":"D"}},{"type":"Feature","geometry":{"type":"Point","coordinates":[9.90619,44.13805]},"properties":{"alt":-10,"basin":"Basso Magra","basinArea":1507,"basinClass":"Grande","code":"FORNOL","imgPath":null,"model":"Monitoraggio Nowcasting","municipality":"SP","name":"Magra a Fornola","otherHtml":null,"refDate":null,"river":"Magra","subFolder":"0800","updateDateTime":null,"value":0,"warningArea":"C"}},{"type":"Feature","geometry":{"type":"Point","coordinates":[9.18495,44.42817]},"properties":{"alt":-10,"basin":"Entella","basinArea":62,"basinClass":"Medio","code":"GATTOR","imgPath":null,"model":"Monitoraggio Nowcasting","municipality":"GE","name":"Lavagna a Gattorna","otherHtml":null,"refDate":null,"river":"Lavagna","subFolder":"0800","updateDateTime":null,"value":0,"warningArea":"C"}},{"type":"Feature","geometry":{"type":"Point","coordinates":[8.57322,44.37234]},"properties":{"alt":-10,"basin":"Sansobbia - Teiro","basinArea":25,"basinClass":"Medio","code":"BOLSTE","imgPath":null,"model":"Monitoraggio Nowcasting","municipality":"SV","name":"Teiro a Bolsine","otherHtml":null,"refDate":null,"river":"Teiro","subFolder":"0800","updateDateTime":null,"value":0,"warningArea":"B"}},{"type":"Feature","geometry":{"type":"Point","coordinates":[8.0371,43.8868]},"properties":{"alt":0,"basin":"Impero","basinArea":94,"basinClass":"Medio","code":"IMPE00","imgPath":null,"model":"Monitoraggio Nowcasting","municipality":"IM","name":"Impero foce","otherHtml":null,"refDate":null,"river":"Impero","subFolder":"0800","updateDateTime":null,"value":0,"warningArea":"A"}},{"type":"Feature","geometry":{"type":"Point","coordinates":[8.00619,43.94153]},"properties":{"alt":65,"basin":"Impero","basinArea":74,"basinClass":"Medio","code":"IMPERU","imgPath":null,"model":"Monitoraggio Nowcasting","municipality":"IM","name":"Impero a Rugge di Pontedassio","otherHtml":null,"refDate":null,"river":"Impero","subFolder":"0800","updateDateTime":null,"value":0,"warningArea":"A"}},{"type":"Feature","geometry":{"type":"Point","coordinates":[9.61484,44.32323]},"properties":{"alt":-10,"basin":"Vara","basinArea":164,"basinClass":"Grande","code":"LAMACC","imgPath":null,"model":"Monitoraggio Nowcasting","municipality":"SP","name":"Vara a La Macchia","otherHtml":null,"refDate":null,"river":"Vara","subFolder":"0800","updateDateTime":null,"value":0,"warningArea":"C"}},{"type":"Feature","geometry":{"type":"Point","coordinates":[9.04717,44.44076]},"properties":{"alt":-10,"basin":"Bisagno","basinArea":34,"basinClass":"Medio","code":"LAPRES","imgPath":null,"model":"Monitoraggio Nowcasting","municipality":"GE","name":"Bisagno a La Presa","otherHtml":null,"refDate":null,"river":"Bisagno","subFolder":"0800","updateDateTime":null,"value":0,"warningArea":"B"}},{"type":"Feature","geometry":{"type":"Point","coordinates":[8.75216,44.42841]},"properties":{"alt":0,"basin":"tra Teiro e Varenna","basinArea":28,"basinClass":"Medio","code":"LEIR00","imgPath":null,"model":"Monitoraggio Nowcasting","municipality":"GE","name":"Leira foce","otherHtml":null,"refDate":null,"river":"Leira","subFolder":"0800","updateDateTime":null,"value":0,"warningArea":"B"}},{"type":"Feature","geometry":{"type":"Point","coordinates":[8.66473,44.39156]},"properties":{"alt":0,"basin":"tra Teiro e Varenna","basinArea":21,"basinClass":"Medio","code":"LERO00","imgPath":null,"model":"Monitoraggio Nowcasting","municipality":"GE","name":"Lerone foce","otherHtml":null,"refDate":null,"river":"Lerone","subFolder":"0800","updateDateTime":null,"value":0,"warningArea":"B"}},{"type":"Feature","geometry":{"type":"Point","coordinates":[8.47734,44.30082]},"properties":{"alt":0,"basin":"tra Quiliano e Sansobbia","basinArea":53,"basinClass":"Medio","code":"LETI00","imgPath":null,"model":"Monitoraggio Nowcasting","municipality":"SV","name":"Letimbro foce","otherHtml":null,"refDate":null,"river":"Letimbro","subFolder":"0800","updateDateTime":null,"value":0,"warningArea":"B"}},{"type":"Feature","geometry":{"type":"Point","coordinates":[9.89666,44.36184]},"properties":{"alt":-10,"basin":"Alto Magra","basinArea":166,"basinClass":"Grande","code":"MAGR01","imgPath":null,"model":"Monitoraggio Nowcasting","municipality":"MS","name":"Magra a Pontremoli","otherHtml":null,"refDate":null,"river":"Magra","subFolder":"0800","updateDateTime":null,"value":0,"warningArea":null}},{"type":"Feature","geometry":{"type":"Point","coordinates":[8.28671,44.15067]},"properties":{"alt":0,"basin":"tra Centa e Quiliano","basinArea":45,"basinClass":"Medio","code":"MARE00","imgPath":null,"model":"Monitoraggio Nowcasting","municipality":"SV","name":"Maremola foce","otherHtml":null,"refDate":null,"river":"Maremola","subFolder":"0800","updateDateTime":null,"value":0,"warningArea":"A"}},{"type":"Feature","geometry":{"type":"Point","coordinates":[8.9411,44.6631]},"properties":{"alt":-10,"basin":"Stura - Scrivia","basinArea":268,"basinClass":"Grande","code":"MERETA","imgPath":null,"model":"Monitoraggio Nowcasting","municipality":"GE","name":"Scrivia a Mereta","otherHtml":null,"refDate":null,"river":"Scrivia","subFolder":"0800","updateDateTime":null,"value":0,"warningArea":"E"}},{"type":"Feature","geometry":{"type":"Point","coordinates":[8.14334,43.94868]},"properties":{"alt":0,"basin":"tra Impero e Centa","basinArea":49,"basinClass":"Medio","code":"MERU00","imgPath":null,"model":"Monitoraggio Nowcasting","municipality":"SV","name":"Merula foce","otherHtml":null,"refDate":null,"river":"Merula","subFolder":"0800","updateDateTime":null,"value":0,"warningArea":"A"}},{"type":"Feature","geometry":{"type":"Point","coordinates":[8.21077,44.04882]},"properties":{"alt":-10,"basin":"Centa","basinArea":426,"basinClass":"Grande","code":"MOLIBR","imgPath":null,"model":"Monitoraggio Nowcasting","municipality":"SV","name":"Centa a Molino Branca","otherHtml":null,"refDate":null,"river":"Centa","subFolder":"0800","updateDateTime":null,"value":0,"warningArea":"A"}},{"type":"Feature","geometry":{"type":"Point","coordinates":[8.74603,44.43946]},"properties":{"alt":-10,"basin":"tra Teiro e Varenna","basinArea":27,"basinClass":"Medio","code":"MOLINE","imgPath":null,"model":"Monitoraggio Nowcasting","municipality":"GE","name":"Leira a Molinetto","otherHtml":null,"refDate":null,"river":"Leira","subFolder":"0800","updateDateTime":null,"value":0,"warningArea":"B"}},{"type":"Feature","geometry":{"type":"Point","coordinates":[8.15981,44.31321]},"properties":{"alt":509,"basin":"Bormida di Millesimo","basinArea":134,"basinClass":"Medio","code":"MURIAL","imgPath":null,"model":"Monitoraggio Nowcasting","municipality":"SV","name":"Bormida di Millesimo a Murialdo","otherHtml":null,"refDate":null,"river":"Bormida di Millesimo ","subFolder":"0800","updateDateTime":null,"value":0,"warningArea":"D"}},{"type":"Feature","geometry":{"type":"Point","coordinates":[9.65595,44.27808]},"properties":{"alt":-10,"basin":"Vara","basinArea":202,"basinClass":"Grande","code":"NASCET","imgPath":null,"model":"Monitoraggio Nowcasting","municipality":"SP","name":"Vara a Nasceto","otherHtml":null,"refDate":null,"river":"Vara","subFolder":"0800","updateDateTime":null,"value":0,"warningArea":"C"}},{"type":"Feature","geometry":{"type":"Point","coordinates":[7.63049,43.78604]},"properties":{"alt":0,"basin":"Nervia","basinArea":187,"basinClass":"Grande","code":"NERV00","imgPath":null,"model":"Monitoraggio Nowcasting","municipality":"IM","name":"Nervia foce","otherHtml":null,"refDate":null,"river":"Nervia","subFolder":"0800","updateDateTime":null,"value":0,"warningArea":"A"}},{"type":"Feature","geometry":{"type":"Point","coordinates":[7.63767,43.87765]},"properties":{"alt":-10,"basin":"Nervia","basinArea":122,"basinClass":"Medio","code":"NERV01","imgPath":null,"model":"Monitoraggio Nowcasting","municipality":"IM","name":"Nervia a Isolabona","otherHtml":null,"refDate":null,"river":"Nervia","subFolder":"0800","updateDateTime":null,"value":0,"warningArea":"A"}},{"type":"Feature","geometry":{"type":"Point","coordinates":[7.68431,43.95756]},"properties":{"alt":500,"basin":"Nervia","basinArea":13,"basinClass":"Piccolo","code":"NERVBU","imgPath":null,"model":"Monitoraggio Nowcasting","municipality":"IM","name":"Nervia a Buggio","otherHtml":null,"refDate":null,"river":"Nervia","subFolder":"0800","updateDateTime":null,"value":0,"warningArea":"A"}},{"type":"Feature","geometry":{"type":"Point","coordinates":[7.9206,44.04149]},"properties":{"alt":0,"basin":"Centa","basinArea":87,"basinClass":"Medio","code":"ARRO01","imgPath":null,"model":"Monitoraggio Nowcasting","municipality":"SV","name":"Arroscia a Pieve di Teco","otherHtml":null,"refDate":null,"river":"Arroscia","subFolder":"0800","updateDateTime":null,"value":0,"warningArea":"A"}},{"type":"Feature","geometry":{"type":"Point","coordinates":[8.14573,44.08552]},"properties":{"alt":110,"basin":"Centa","basinArea":126,"basinClass":"Medio","code":"NEVCIS","imgPath":null,"model":"Monitoraggio Nowcasting","municipality":"SV","name":"Neva a Cisano","otherHtml":null,"refDate":null,"river":"Neva","subFolder":"0800","updateDateTime":null,"value":0,"warningArea":"A"}},{"type":"Feature","geometry":{"type":"Point","coordinates":[9.35624,44.34209]},"properties":{"alt":-10,"basin":"Entella","basinArea":358,"basinClass":"Grande","code":"PANESI","imgPath":null,"model":"Monitoraggio Nowcasting","municipality":"GE","name":"Entella a Panesi","otherHtml":null,"refDate":null,"river":"Entella","subFolder":"0800","updateDateTime":null,"value":0,"warningArea":"C"}},{"type":"Feature","geometry":{"type":"Point","coordinates":[9.84904,44.19801]},"properties":{"alt":-10,"basin":"Vara","basinArea":555,"basinClass":"Grande","code":"PBATTO","imgPath":null,"model":"Monitoraggio Nowcasting","municipality":"SP","name":"Vara a Piana Battolla","otherHtml":null,"refDate":null,"river":"Vara","subFolder":"0800","updateDateTime":null,"value":0,"warningArea":"C"}},{"type":"Feature","geometry":{"type":"Point","coordinates":[9.9722,44.07884]},"properties":{"alt":-10,"basin":"Basso Magra","basinArea":1581,"basinClass":"Grande","code":"AMEF00","imgPath":null,"model":"Monitoraggio Nowcasting","municipality":"SP","name":"Magra ad Ameglia","otherHtml":null,"refDate":null,"river":"Magra","subFolder":"0800","updateDateTime":null,"value":0,"warningArea":"C"}},{"type":"Feature","geometry":{"type":"Point","coordinates":[9.88566,44.39297]},"properties":{"alt":272,"basin":"Alto Magra","basinArea":79,"basinClass":"Medio","code":"PICCAT","imgPath":null,"model":"Monitoraggio Nowcasting","municipality":"MS","name":"Magra a Piccatello","otherHtml":null,"refDate":null,"river":"Magra","subFolder":"0800","updateDateTime":null,"value":0,"warningArea":null}},{"type":"Feature","geometry":{"type":"Point","coordinates":[8.87713,44.41207]},"properties":{"alt":0,"basin":"Varenna - Polcevera","basinArea":140,"basinClass":"Medio","code":"POLC00","imgPath":null,"model":"Monitoraggio Nowcasting","municipality":"GE","name":"Polcevera foce","otherHtml":null,"refDate":null,"river":"Polcevera","subFolder":"0800","updateDateTime":null,"value":0,"warningArea":"B"}},{"type":"Feature","geometry":{"type":"Point","coordinates":[8.88952,44.43788]},"properties":{"alt":20,"basin":"Varenna - Polcevera","basinArea":131,"basinClass":"Medio","code":"POLCAM","imgPath":null,"model":"Monitoraggio Nowcasting","municipality":"GE","name":"Polcevera a Campi","otherHtml":null,"refDate":null,"river":"Polcevera","subFolder":"0800","updateDateTime":null,"value":0,"warningArea":"B"}},{"type":"Feature","geometry":{"type":"Point","coordinates":[8.9001,44.48852]},"properties":{"alt":71,"basin":"Varenna - Polcevera","basinArea":58,"basinClass":"Medio","code":"PONTEX","imgPath":null,"model":"Monitoraggio Nowcasting","municipality":"GE","name":"Polcevera a Pontedecimo","otherHtml":null,"refDate":null,"river":"Polcevera","subFolder":"0800","updateDateTime":null,"value":0,"warningArea":"B"}},{"type":"Feature","geometry":{"type":"Point","coordinates":[8.34032,44.16801]},"properties":{"alt":0,"basin":"tra Centa e Quiliano","basinArea":61,"basinClass":"Medio","code":"PORA00","imgPath":null,"model":"Monitoraggio Nowcasting","municipality":"SV","name":"Pora foce","otherHtml":null,"refDate":null,"river":"Pora","subFolder":"0800","updateDateTime":null,"value":0,"warningArea":"A"}},{"type":"Feature","geometry":{"type":"Point","coordinates":[8.06393,44.05445]},"properties":{"alt":70,"basin":"Centa","basinArea":199,"basinClass":"Grande","code":"PORTOV","imgPath":null,"model":"Monitoraggio Nowcasting","municipality":"SV","name":"Arroscia a Pogli di Ortovero","otherHtml":null,"refDate":null,"river":"Arroscia","subFolder":"0800","updateDateTime":null,"value":0,"warningArea":"A"}},{"type":"Feature","geometry":{"type":"Point","coordinates":[9.4259,44.26672]},"properties":{"alt":-10,"basin":"tra Entella e Magra","basinArea":56,"basinClass":"Medio","code":"POSARA","imgPath":null,"model":"Monitoraggio Nowcasting","municipality":"GE","name":"Petronio a Pozzo Sara","otherHtml":null,"refDate":null,"river":"Petronio ","subFolder":"0800","updateDateTime":null,"value":0,"warningArea":"C"}},{"type":"Feature","geometry":{"type":"Point","coordinates":[9.40992,44.27377]},"properties":{"alt":-10,"basin":"tra Entella e Magra","basinArea":22,"basinClass":"Medio","code":"POSLEV","imgPath":null,"model":"Monitoraggio Nowcasting","municipality":"GE","name":"Gromolo a Sestri Levante","otherHtml":null,"refDate":null,"river":"Gromolo","subFolder":"0800","updateDateTime":null,"value":0,"warningArea":"C"}},{"type":"Feature","geometry":{"type":"Point","coordinates":[7.99885,43.86859]},"properties":{"alt":0,"basin":"tra Argentina e Impero","basinArea":42,"basinClass":"Medio","code":"PRIN00","imgPath":null,"model":"Monitoraggio Nowcasting","municipality":"IM","name":"Prino foce","otherHtml":null,"refDate":null,"river":"Prino","subFolder":"0800","updateDateTime":null,"value":0,"warningArea":"A"}},{"type":"Feature","geometry":{"type":"Point","coordinates":[8.44392,44.28144]},"properties":{"alt":0,"basin":"tra Quiliano e Sansobbia","basinArea":53,"basinClass":"Medio","code":"QUIL00","imgPath":null,"model":"Monitoraggio Nowcasting","municipality":"SV","name":"Quiliano foce","otherHtml":null,"refDate":null,"river":"Quiliano","subFolder":"0800","updateDateTime":null,"value":0,"warningArea":"B"}},{"type":"Feature","geometry":{"type":"Point","coordinates":[9.141,44.36166]},"properties":{"alt":0,"basin":"tra Bisagno ed Entella","basinArea":22,"basinClass":"Medio","code":"RECC00","imgPath":null,"model":"Monitoraggio Nowcasting","municipality":"GE","name":"Recco foce","otherHtml":null,"refDate":null,"river":"Recco","subFolder":"0800","updateDateTime":null,"value":0,"warningArea":"B"}},{"type":"Feature","geometry":{"type":"Point","coordinates":[8.6672,44.5656]},"properties":{"alt":-10,"basin":"Stura - Scrivia","basinArea":90,"basinClass":"Medio","code":"ROSSIG","imgPath":null,"model":"Monitoraggio Nowcasting","municipality":"GE","name":"Stura a Rossiglione","otherHtml":null,"refDate":null,"river":"Stura","subFolder":"0800","updateDateTime":null,"value":0,"warningArea":"D"}},{"type":"Feature","geometry":{"type":"Point","coordinates":[8.50887,44.32931]},"properties":{"alt":-10,"basin":"Sansobbia - Teiro","basinArea":70,"basinClass":"Medio","code":"SANS00","imgPath":null,"model":"Monitoraggio Nowcasting","municipality":"SV","name":"Sansobbia foce","otherHtml":null,"refDate":null,"river":"Sansobbia","subFolder":"0800","updateDateTime":null,"value":0,"warningArea":"B"}},{"type":"Feature","geometry":{"type":"Point","coordinates":[8.43753,44.34555]},"properties":{"alt":-10,"basin":"tra Quiliano e Sansobbia","basinArea":32,"basinClass":"Medio","code":"SANTUA","imgPath":null,"model":"Monitoraggio Nowcasting","municipality":"SV","name":"Letimbro a Santuario","otherHtml":null,"refDate":null,"river":"Letimbro","subFolder":"0800","updateDateTime":null,"value":0,"warningArea":"B"}},{"type":"Feature","geometry":{"type":"Point","coordinates":[8.35622,44.17178]},"properties":{"alt":0,"basin":"tra Centa e Quiliano","basinArea":24,"basinClass":"Medio","code":"SCIU00","imgPath":null,"model":"Monitoraggio Nowcasting","municipality":"SV","name":"Sciusa foce","otherHtml":null,"refDate":null,"river":"Sciusa","subFolder":"0800","updateDateTime":null,"value":0,"warningArea":"A"}},{"type":"Feature","geometry":{"type":"Point","coordinates":[8.99203,44.53158]},"properties":{"alt":-10,"basin":"Stura - Scrivia","basinArea":122,"basinClass":"Medio","code":"SCRI01","imgPath":null,"model":"Monitoraggio Nowcasting","municipality":"GE","name":"Scrivia a Casella","otherHtml":null,"refDate":null,"river":"Scrivia","subFolder":"0800","updateDateTime":null,"value":0,"warningArea":"E"}},{"type":"Feature","geometry":{"type":"Point","coordinates":[8.43951,44.27019]},"properties":{"alt":0,"basin":"tra Centa e Quiliano","basinArea":20,"basinClass":"Medio","code":"SEGN00","imgPath":null,"model":"Monitoraggio Nowcasting","municipality":"SV","name":"Segno foce","otherHtml":null,"refDate":null,"river":"Segno","subFolder":"0800","updateDateTime":null,"value":0,"warningArea":"B"}},{"type":"Feature","geometry":{"type":"Point","coordinates":[7.96434,43.85273]},"properties":{"alt":0,"basin":"tra Argentina e Impero","basinArea":27,"basinClass":"Medio","code":"SLOR00","imgPath":null,"model":"Monitoraggio Nowcasting","municipality":"IM","name":"San Lorenzo foce","otherHtml":null,"refDate":null,"river":"San Lorenzo","subFolder":"0800","updateDateTime":null,"value":0,"warningArea":"A"}},{"type":"Feature","geometry":{"type":"Point","coordinates":[8.48252,44.41582]},"properties":{"alt":-10,"basin":"Sansobbia - Teiro","basinArea":12,"basinClass":"Piccolo","code":"STSGIU","imgPath":null,"model":"Monitoraggio Nowcasting","municipality":"SV","name":"Sansobbia a Stella S. Giustina","otherHtml":null,"refDate":null,"river":"Sansobbia","subFolder":"0800","updateDateTime":null,"value":0,"warningArea":"B"}},{"type":"Feature","geometry":{"type":"Point","coordinates":[9.34767,44.35401]},"properties":{"alt":-10,"basin":"Entella","basinArea":126,"basinClass":"Medio","code":"STUR00","imgPath":null,"model":"Monitoraggio Nowcasting","municipality":"GE","name":"Sturla a Carasco","otherHtml":null,"refDate":null,"river":"Sturla","subFolder":"0800","updateDateTime":null,"value":0,"warningArea":"C"}},{"type":"Feature","geometry":{"type":"Point","coordinates":[9.3738,44.38149]},"properties":{"alt":100,"basin":"Entella","basinArea":97,"basinClass":"Medio","code":"STUVIG","imgPath":null,"model":"Monitoraggio Nowcasting","municipality":"GE","name":"Sturla a Vignolo","otherHtml":null,"refDate":null,"river":"Sturla","subFolder":"0800","updateDateTime":null,"value":0,"warningArea":"C"}},{"type":"Feature","geometry":{"type":"Point","coordinates":[7.81422,44.12388]},"properties":{"alt":-10,"basin":"tra Argentina e Impero","basinArea":50,"basinClass":"Medio","code":"TANA00","imgPath":null,"model":"Monitoraggio Nowcasting","municipality":"IM","name":"Tanarello confine","otherHtml":null,"refDate":null,"river":"Tanarello","subFolder":"0800","updateDateTime":null,"value":0,"warningArea":"A"}},{"type":"Feature","geometry":{"type":"Point","coordinates":[8.57779,44.35904]},"properties":{"alt":0,"basin":"Sansobbia - Teiro","basinArea":28,"basinClass":"Medio","code":"TEIR00","imgPath":null,"model":"Monitoraggio Nowcasting","municipality":"SV","name":"Teiro foce","otherHtml":null,"refDate":null,"river":"Teiro","subFolder":"0800","updateDateTime":null,"value":0,"warningArea":"B"}},{"type":"Feature","geometry":{"type":"Point","coordinates":[8.60839,44.52561]},"properties":{"alt":379,"basin":"Erro - Orba","basinArea":75,"basinClass":"Medio","code":"TIGLIE","imgPath":null,"model":"Monitoraggio Nowcasting","municipality":"GE","name":"Orba a Tiglieto","otherHtml":null,"refDate":null,"river":"Orba","subFolder":"0800","updateDateTime":null,"value":0,"warningArea":"D"}},{"type":"Feature","geometry":{"type":"Point","coordinates":[9.30419,44.60526]},"properties":{"alt":-10,"basin":"Trebbia - Aveto","basinArea":145,"basinClass":"Grande","code":"TREB00","imgPath":null,"model":"Monitoraggio Nowcasting","municipality":"GE","name":"Trebbia confine","otherHtml":null,"refDate":null,"river":"Trebbia","subFolder":"0800","updateDateTime":null,"value":0,"warningArea":"E"}},{"type":"Feature","geometry":{"type":"Point","coordinates":[8.20417,44.38987]},"properties":{"alt":-10,"basin":"Bormida di Millesimo","basinArea":202,"basinClass":"Grande","code":"CENGIO","imgPath":null,"model":"Monitoraggio Nowcasting","municipality":"SV","name":"Bormida di Millesimo a Cengio","otherHtml":null,"refDate":null,"river":"Bormida di Millesimo","subFolder":"0800","updateDateTime":null,"value":0,"warningArea":"D"}},{"type":"Feature","geometry":{"type":"Point","coordinates":[8.24512,44.11215]},"properties":{"alt":0,"basin":"tra Centa e Quiliano","basinArea":42,"basinClass":"Medio","code":"VARA00","imgPath":null,"model":"Monitoraggio Nowcasting","municipality":"SV","name":"Varatello foce","otherHtml":null,"refDate":null,"river":"Varatello","subFolder":"0800","updateDateTime":null,"value":0,"warningArea":"A"}},{"type":"Feature","geometry":{"type":"Point","coordinates":[8.82023,44.43671]},"properties":{"alt":20,"basin":"Varenna - Polcevera","basinArea":21,"basinClass":"Medio","code":"VARPEG","imgPath":null,"model":"Monitoraggio Nowcasting","municipality":"GE","name":"Varenna a Granara","otherHtml":null,"refDate":null,"river":"Varenna","subFolder":"0800","updateDateTime":null,"value":0,"warningArea":"B"}},{"type":"Feature","geometry":{"type":"Point","coordinates":[7.64041,43.78351]},"properties":{"alt":0,"basin":"tra Nervia e Argentina","basinArea":22,"basinClass":"Medio","code":"VCRO00","imgPath":null,"model":"Monitoraggio Nowcasting","municipality":"IM","name":"Vallecrosia foce","otherHtml":null,"refDate":null,"river":"Vallecrosia","subFolder":"0800","updateDateTime":null,"value":0,"warningArea":"A"}},{"type":"Feature","geometry":{"type":"Point","coordinates":[8.98149,44.63599]},"properties":{"alt":320,"basin":"Stura - Scrivia","basinArea":53,"basinClass":"Medio","code":"VOBBIE","imgPath":null,"model":"Monitoraggio Nowcasting","municipality":"GE","name":"Vobbia a Vobbietta","otherHtml":null,"refDate":null,"river":"Vobbia","subFolder":"0800","updateDateTime":null,"value":0,"warningArea":"E"}},{"type":"Feature","geometry":{"type":"Point","coordinates":[9.55618,44.44063]},"properties":{"alt":0,"basin":"tra Entella e Vara","basinArea":45,"basinClass":"Medio","code":"TARO00","imgPath":null,"model":"Monitoraggio Nowcasting","municipality":"SP","name":"Taro confine","otherHtml":null,"refDate":null,"river":"Taro","subFolder":"0800","updateDateTime":null,"value":0,"warningArea":"C"}},{"type":"Feature","geometry":{"type":"Point","coordinates":[9.41178,44.43794]},"properties":{"alt":0,"basin":"Entella","basinArea":22,"basinClass":"Medio","code":"ZOLDIG","imgPath":null,"model":"Monitoraggio Nowcasting","municipality":"GE","name":"Zolezzi diga","otherHtml":null,"refDate":null,"river":"Penna","subFolder":"0800","updateDateTime":null,"value":0,"warningArea":"C"}}]}