{
    "type": "FeatureCollection",
    "features": [
        {
            "type": "Feature",
            "geometry": {
                "type": "Point",
                "coordinates": [
                    7.62411,
                    43.86053
                ]
            },
            "properties": {
                "alt": 60,
                "imgPath": "",
                "increment": 0,
                "municipality": "Dolceacqua",
                "name": "Dolceacqua - Molinetti",
                "otherHtml": "0",
                "refDate": "2025-06-16T13:00:00",
                "shortCode": "DCQUA",
                "stationId": 1,
                "updateDateTime": "06/16/2025 01:09:45 PM",
                "value": 0.4
            }
        },
        {
            "type": "Feature",
            "geometry": {
                "type": "Point",
                "coordinates": [
                    8.95395,
                    44.41094
                ]
            },
            "properties": {
                "alt": 10,
                "imgPath": "",
                "increment": 0,
                "municipality": "Genova",
                "name": "Genova - Firpo",
                "otherHtml": "0",
                "refDate": "2025-06-16T13:00:00",
                "shortCode": "FIRPO",
                "stationId": 1,
                "updateDateTime": null,
                "value": 0.32999999999999996
            }
        },
        {
            "type": "Feature",
            "geometry": {
                "type": "Point",
                "coordinates": [
                    8.4667,
                    44.36638
                ]
            },
            "properties": {
                "alt": 80,
                "imgPath": "",
                "increment": 0,
                "municipality": "Albisola Superiore",
                "name": "Ellera - Foglietto",
                "otherHtml": "0",
                "refDate": "2025-06-16T13:00:00",
                "shortCode": "ELLRA",
                "stationId": 1,
                "updateDateTime": null,
                "value": 0.38
            }
        },
        {
            "type": "Feature",
            "geometry": {
                "type": "Point",
                "coordinates": [
                    7.84202,
                    43.93074
                ]
            },
            "properties": {
                "alt": 240,
                "imgPath": "",
                "increment": 0,
                "municipality": "Montalto Carpasio",
                "name": "Montalto Ligure",
                "otherHtml": "0",
                "refDate": "2025-06-16T13:00:00",
                "shortCode": "MONTL",
                "stationId": 1,
                "updateDateTime": null,
                "value": 1.45
            }
        },
        {
            "type": "Feature",
            "geometry": {
                "type": "Point",
                "coordinates": [
                    8.9001,
                    44.48852
                ]
            },
            "properties": {
                "alt": 75,
                "imgPath": "",
                "increment": 0,
                "municipality": "Genova",
                "name": "Genova - Pontedecimo",
                "otherHtml": "0",
                "refDate": "2025-06-16T13:00:00",
                "shortCode": "GEPTX",
                "stationId": 1,
                "updateDateTime": null,
                "value": 0.3
            }
        },
        {
            "type": "Feature",
            "geometry": {
                "type": "Point",
                "coordinates": [
                    8.21077,
                    44.04882
                ]
            },
            "properties": {
                "alt": 6,
                "imgPath": "",
                "increment": 0,
                "municipality": "Albenga",
                "name": "Albenga - Molino Branca",
                "otherHtml": "0",
                "refDate": "2025-06-16T13:00:00",
                "shortCode": "MOBRA",
                "stationId": 1,
                "updateDateTime": null,
                "value": 0.71
            }
        },
        {
            "type": "Feature",
            "geometry": {
                "type": "Point",
                "coordinates": [
                    9.84904,
                    44.19801
                ]
            },
            "properties": {
                "alt": 48,
                "imgPath": "",
                "increment": 0,
                "municipality": "Follo",
                "name": "Piana Battolla - Ponte",
                "otherHtml": "0",
                "refDate": "2025-06-16T13:00:00",
                "shortCode": "PBATT",
                "stationId": 1,
                "updateDateTime": null,
                "value": 0.96
            }
        },
        {
            "type": "Feature",
            "geometry": {
                "type": "Point",
                "coordinates": [
                    9.4259,
                    44.26672
                ]
            },
            "properties": {
                "alt": 13,
                "imgPath": "",
                "increment": 1,
                "municipality": "Sestri Levante",
                "name": "Sestri Levante - PonteSS1",
                "otherHtml": "0",
                "refDate": "2025-06-16T13:00:00",
                "shortCode": "SLPSS",
                "stationId": 1,
                "updateDateTime": null,
                "value": 0.35
            }
        },
        {
            "type": "Feature",
            "geometry": {
                "type": "Point",
                "coordinates": [
                    8.15981,
                    44.31321
                ]
            },
            "properties": {
                "alt": 523,
                "imgPath": "",
                "increment": 0,
                "municipality": "Murialdo",
                "name": "Murialdo",
                "otherHtml": "0",
                "refDate": "2025-06-16T12:30:00",
                "shortCode": "MURIA",
                "stationId": 1,
                "updateDateTime": null,
                "value": -0.19
            }
        },
        {
            "type": "Feature",
            "geometry": {
                "type": "Point",
                "coordinates": [
                    9.35624,
                    44.34209
                ]
            },
            "properties": {
                "alt": 25,
                "imgPath": "",
                "increment": 0,
                "municipality": "Cogorno",
                "name": "Panesi",
                "otherHtml": "0",
                "refDate": "2025-06-16T13:00:00",
                "shortCode": "PANES",
                "stationId": 1,
                "updateDateTime": null,
                "value": -1.48
            }
        },
        {
            "type": "Feature",
            "geometry": {
                "type": "Point",
                "coordinates": [
                    8.48252,
                    44.41582
                ]
            },
            "properties": {
                "alt": 349,
                "imgPath": "",
                "increment": 0,
                "municipality": "Stella",
                "name": "Stella S. Giustina",
                "otherHtml": "0",
                "refDate": "2025-06-16T13:00:00",
                "shortCode": "SSGIU",
                "stationId": 1,
                "updateDateTime": null,
                "value": -0.06999999999999999
            }
        },
        {
            "type": "Feature",
            "geometry": {
                "type": "Point",
                "coordinates": [
                    9.98416,
                    44.30966
                ]
            },
            "properties": {
                "alt": 320,
                "imgPath": "",
                "increment": 0,
                "municipality": "Bagnone",
                "name": "Bagnone",
                "otherHtml": "0",
                "refDate": "2025-06-16T13:00:00",
                "shortCode": "BGNNE",
                "stationId": 1,
                "updateDateTime": null,
                "value": 0.82
            }
        },
        {
            "type": "Feature",
            "geometry": {
                "type": "Point",
                "coordinates": [
                    7.59046,
                    43.81253
                ]
            },
            "properties": {
                "alt": 22,
                "imgPath": "",
                "increment": 0,
                "municipality": "Ventimiglia",
                "name": "Ventimiglia - Ponte Aniante",
                "otherHtml": "0",
                "refDate": "2025-06-16T13:00:00",
                "shortCode": "XXMPA",
                "stationId": 1,
                "updateDateTime": null,
                "value": 0.27999999999999997
            }
        },
        {
            "type": "Feature",
            "geometry": {
                "type": "Point",
                "coordinates": [
                    9.89666,
                    44.36184
                ]
            },
            "properties": {
                "alt": 205,
                "imgPath": "",
                "increment": 1,
                "municipality": "Pontremoli",
                "name": "Pontremoli - S.Giustina",
                "otherHtml": "0",
                "refDate": "2025-06-16T13:00:00",
                "shortCode": "MAGSG",
                "stationId": 1,
                "updateDateTime": null,
                "value": -1.22
            }
        },
        {
            "type": "Feature",
            "geometry": {
                "type": "Point",
                "coordinates": [
                    9.61484,
                    44.32323
                ]
            },
            "properties": {
                "alt": 270,
                "imgPath": "",
                "increment": 0,
                "municipality": "Varese Ligure",
                "name": "La Macchia",
                "otherHtml": "0",
                "refDate": "2025-06-16T13:00:00",
                "shortCode": "LAMAC",
                "stationId": 1,
                "updateDateTime": null,
                "value": -1.33
            }
        },
        {
            "type": "Feature",
            "geometry": {
                "type": "Point",
                "coordinates": [
                    10.00343,
                    44.24267
                ]
            },
            "properties": {
                "alt": 121,
                "imgPath": "",
                "increment": 0,
                "municipality": "Licciana Nardi",
                "name": "Licciana Nardi",
                "otherHtml": "0",
                "refDate": "2025-06-16T13:00:00",
                "shortCode": "LICCN",
                "stationId": 1,
                "updateDateTime": null,
                "value": 0.95
            }
        },
        {
            "type": "Feature",
            "geometry": {
                "type": "Point",
                "coordinates": [
                    9.88566,
                    44.39297
                ]
            },
            "properties": {
                "alt": 273,
                "imgPath": "",
                "increment": 0,
                "municipality": "Pontremoli",
                "name": "Piccatello",
                "otherHtml": "0",
                "refDate": "2025-06-16T13:00:00",
                "shortCode": "PICCA",
                "stationId": 1,
                "updateDateTime": null,
                "value": 0.16999999999999998
            }
        },
        {
            "type": "Feature",
            "geometry": {
                "type": "Point",
                "coordinates": [
                    9.94238,
                    44.29327
                ]
            },
            "properties": {
                "alt": 118,
                "imgPath": "",
                "increment": 0,
                "municipality": "Villafranca in Lunigiana",
                "name": "Ponte Magra",
                "otherHtml": "0",
                "refDate": "2025-06-16T13:00:00",
                "shortCode": "PMAGR",
                "stationId": 1,
                "updateDateTime": null,
                "value": 0.26
            }
        },
        {
            "type": "Feature",
            "geometry": {
                "type": "Point",
                "coordinates": [
                    7.54484,
                    43.87296
                ]
            },
            "properties": {
                "alt": 103,
                "imgPath": "",
                "increment": 0,
                "municipality": "Airole",
                "name": "Airole",
                "otherHtml": "0",
                "refDate": "2025-06-16T13:00:00",
                "shortCode": "AIROL",
                "stationId": 1,
                "updateDateTime": null,
                "value": 2.12
            }
        },
        {
            "type": "Feature",
            "geometry": {
                "type": "Point",
                "coordinates": [
                    9.34647,
                    44.4952
                ]
            },
            "properties": {
                "alt": 809,
                "imgPath": "",
                "increment": 0,
                "municipality": "Rezzoaglio",
                "name": "Cabanne",
                "otherHtml": "0",
                "refDate": "2025-06-16T12:15:00",
                "shortCode": "CABAN",
                "stationId": 1,
                "updateDateTime": null,
                "value": -0.37
            }
        },
        {
            "type": "Feature",
            "geometry": {
                "type": "Point",
                "coordinates": [
                    9.04769,
                    44.51561
                ]
            },
            "properties": {
                "alt": 442,
                "imgPath": "",
                "increment": 0,
                "municipality": "Montoggio",
                "name": "Montoggio",
                "otherHtml": "0",
                "refDate": "2025-06-16T13:00:00",
                "shortCode": "MONTG",
                "stationId": 1,
                "updateDateTime": null,
                "value": 0.5900000000000001
            }
        },
        {
            "type": "Feature",
            "geometry": {
                "type": "Point",
                "coordinates": [
                    10.06207,
                    44.20233
                ]
            },
            "properties": {
                "alt": 107,
                "imgPath": "",
                "increment": 0,
                "municipality": "Fivizzano",
                "name": "Soliera",
                "otherHtml": "0",
                "refDate": "2025-06-16T13:00:00",
                "shortCode": "SOLIE",
                "stationId": 1,
                "updateDateTime": null,
                "value": 1.31
            }
        },
        {
            "type": "Feature",
            "geometry": {
                "type": "Point",
                "coordinates": [
                    8.6939,
                    44.54256
                ]
            },
            "properties": {
                "alt": 338,
                "imgPath": "",
                "increment": 0,
                "municipality": "Campo Ligure",
                "name": "Campo Ligure",
                "otherHtml": "0",
                "refDate": "2025-06-16T13:00:00",
                "shortCode": "CAMPL",
                "stationId": 1,
                "updateDateTime": null,
                "value": 0.13999999999999999
            }
        },
        {
            "type": "Feature",
            "geometry": {
                "type": "Point",
                "coordinates": [
                    7.55404,
                    43.83782
                ]
            },
            "properties": {
                "alt": 63,
                "imgPath": "",
                "increment": 1,
                "municipality": "Ventimiglia",
                "name": "Torri",
                "otherHtml": "0",
                "refDate": "2025-06-16T13:00:00",
                "shortCode": "TORRI",
                "stationId": 1,
                "updateDateTime": null,
                "value": 0.04
            }
        },
        {
            "type": "Feature",
            "geometry": {
                "type": "Point",
                "coordinates": [
                    7.63767,
                    43.87765
                ]
            },
            "properties": {
                "alt": 95,
                "imgPath": "",
                "increment": 0,
                "municipality": "Isolabona",
                "name": "Isolabona",
                "otherHtml": "0",
                "refDate": "2025-06-16T13:00:00",
                "shortCode": "ISBON",
                "stationId": 1,
                "updateDateTime": null,
                "value": 0.61
            }
        },
        {
            "type": "Feature",
            "geometry": {
                "type": "Point",
                "coordinates": [
                    9.71552,
                    44.23132
                ]
            },
            "properties": {
                "alt": 112,
                "imgPath": "",
                "increment": 0,
                "municipality": "Brugnato",
                "name": "Brugnato",
                "otherHtml": "0",
                "refDate": "2025-06-16T13:00:00",
                "shortCode": "BVARA",
                "stationId": 1,
                "updateDateTime": null,
                "value": 0.22999999999999998
            }
        },
        {
            "type": "Feature",
            "geometry": {
                "type": "Point",
                "coordinates": [
                    8.97959,
                    44.45966
                ]
            },
            "properties": {
                "alt": 70,
                "imgPath": "",
                "increment": 0,
                "municipality": "Genova",
                "name": "Genova - Geirato",
                "otherHtml": "0",
                "refDate": "2025-06-16T13:00:00",
                "shortCode": "GEGEI",
                "stationId": 1,
                "updateDateTime": null,
                "value": 1.24
            }
        },
        {
            "type": "Feature",
            "geometry": {
                "type": "Point",
                "coordinates": [
                    8.20417,
                    44.38987
                ]
            },
            "properties": {
                "alt": 409,
                "imgPath": "",
                "increment": -1,
                "municipality": "Cengio",
                "name": "Cengio",
                "otherHtml": "0",
                "refDate": "2025-06-16T13:00:00",
                "shortCode": "CENGI",
                "stationId": 1,
                "updateDateTime": null,
                "value": 0.13999999999999999
            }
        },
        {
            "type": "Feature",
            "geometry": {
                "type": "Point",
                "coordinates": [
                    9.89905,
                    44.33678
                ]
            },
            "properties": {
                "alt": 206,
                "imgPath": "",
                "increment": 0,
                "municipality": "Pontremoli",
                "name": "Ponte Teglia",
                "otherHtml": "0",
                "refDate": "2025-06-16T13:00:00",
                "shortCode": "PTEGL",
                "stationId": 1,
                "updateDateTime": null,
                "value": 0.7
            }
        },
        {
            "type": "Feature",
            "geometry": {
                "type": "Point",
                "coordinates": [
                    9.34391,
                    44.35945
                ]
            },
            "properties": {
                "alt": 23,
                "imgPath": "",
                "increment": 0,
                "municipality": "Carasco",
                "name": "S. Martino",
                "otherHtml": "0",
                "refDate": "2025-06-16T13:00:00",
                "shortCode": "SMART",
                "stationId": 1,
                "updateDateTime": null,
                "value": -2.13
            }
        },
        {
            "type": "Feature",
            "geometry": {
                "type": "Point",
                "coordinates": [
                    7.9206,
                    44.04149
                ]
            },
            "properties": {
                "alt": 230,
                "imgPath": "",
                "increment": 0,
                "municipality": "Pieve di Teco",
                "name": "Pieve di Teco (idro)",
                "otherHtml": "0",
                "refDate": "2025-06-16T13:00:00",
                "shortCode": "PTECH",
                "stationId": 1,
                "updateDateTime": null,
                "value": 1.01
            }
        },
        {
            "type": "Feature",
            "geometry": {
                "type": "Point",
                "coordinates": [
                    9.3738,
                    44.38149
                ]
            },
            "properties": {
                "alt": 71,
                "imgPath": "",
                "increment": 0,
                "municipality": "Mezzanego",
                "name": "Vignolo",
                "otherHtml": "0",
                "refDate": "2025-06-16T13:00:00",
                "shortCode": "VIGNO",
                "stationId": 1,
                "updateDateTime": null,
                "value": 0.75
            }
        },
        {
            "type": "Feature",
            "geometry": {
                "type": "Point",
                "coordinates": [
                    8.43753,
                    44.34555
                ]
            },
            "properties": {
                "alt": 90,
                "imgPath": "",
                "increment": 0,
                "municipality": "Savona",
                "name": "Santuario di Savona",
                "otherHtml": "0",
                "refDate": "2025-06-16T13:00:00",
                "shortCode": "SANTU",
                "stationId": 1,
                "updateDateTime": null,
                "value": -0.79
            }
        },
        {
            "type": "Feature",
            "geometry": {
                "type": "Point",
                "coordinates": [
                    9.40992,
                    44.27377
                ]
            },
            "properties": {
                "alt": 10,
                "imgPath": "",
                "increment": 0,
                "municipality": "Sestri Levante",
                "name": "Sestri Levante",
                "otherHtml": "0",
                "refDate": "2025-06-16T13:00:00",
                "shortCode": "SLEVA",
                "stationId": 1,
                "updateDateTime": null,
                "value": -0.06
            }
        },
        {
            "type": "Feature",
            "geometry": {
                "type": "Point",
                "coordinates": [
                    9.28156,
                    44.56529
                ]
            },
            "properties": {
                "alt": 580,
                "imgPath": "",
                "increment": 0,
                "municipality": "Rovegno",
                "name": "Rovegno - Ponte",
                "otherHtml": "0",
                "refDate": "2025-06-16T13:00:00",
                "shortCode": "ROVPT",
                "stationId": 1,
                "updateDateTime": null,
                "value": -0.02
            }
        },
        {
            "type": "Feature",
            "geometry": {
                "type": "Point",
                "coordinates": [
                    8.82023,
                    44.43671
                ]
            },
            "properties": {
                "alt": 20,
                "imgPath": "",
                "increment": -1,
                "municipality": "Genova",
                "name": "Genova - Granara",
                "otherHtml": "0",
                "refDate": "2025-06-16T13:00:00",
                "shortCode": "VAREN",
                "stationId": 1,
                "updateDateTime": null,
                "value": 1.3900000000000001
            }
        },
        {
            "type": "Feature",
            "geometry": {
                "type": "Point",
                "coordinates": [
                    7.81883,
                    43.83551
                ]
            },
            "properties": {
                "alt": 41,
                "imgPath": "",
                "increment": 0,
                "municipality": "Sanremo",
                "name": "Valle Armea - Ponte",
                "otherHtml": "0",
                "refDate": "2025-06-16T13:00:00",
                "shortCode": "ARMEA",
                "stationId": 1,
                "updateDateTime": null,
                "value": 0.06
            }
        },
        {
            "type": "Feature",
            "geometry": {
                "type": "Point",
                "coordinates": [
                    8.00619,
                    43.94153
                ]
            },
            "properties": {
                "alt": 67,
                "imgPath": "",
                "increment": 0,
                "municipality": "Pontedassio",
                "name": "Rugge di Pontedassio",
                "otherHtml": "0",
                "refDate": "2025-06-16T13:00:00",
                "shortCode": "RUGGE",
                "stationId": 1,
                "updateDateTime": null,
                "value": -0.13999999999999999
            }
        },
        {
            "type": "Feature",
            "geometry": {
                "type": "Point",
                "coordinates": [
                    9.65595,
                    44.27808
                ]
            },
            "properties": {
                "alt": 185,
                "imgPath": "",
                "increment": 0,
                "municipality": "Sesta Godano",
                "name": "Nasceto",
                "otherHtml": "0",
                "refDate": "2025-06-16T13:00:00",
                "shortCode": "NASCE",
                "stationId": 1,
                "updateDateTime": null,
                "value": 0.99
            }
        },
        {
            "type": "Feature",
            "geometry": {
                "type": "Point",
                "coordinates": [
                    9.9722,
                    44.07884
                ]
            },
            "properties": {
                "alt": 4,
                "imgPath": "",
                "increment": 0,
                "municipality": "Ameglia",
                "name": "Ameglia Foce Magra",
                "otherHtml": "0",
                "refDate": "2025-06-16T13:00:00",
                "shortCode": "AMEFM",
                "stationId": 1,
                "updateDateTime": null,
                "value": 0.32
            }
        },
        {
            "type": "Feature",
            "geometry": {
                "type": "Point",
                "coordinates": [
                    8.98149,
                    44.63599
                ]
            },
            "properties": {
                "alt": 323,
                "imgPath": "",
                "increment": 0,
                "municipality": "Isola del Cantone",
                "name": "Vobbietta",
                "otherHtml": "0",
                "refDate": "2025-06-16T12:50:00",
                "shortCode": "VOBBI",
                "stationId": 1,
                "updateDateTime": null,
                "value": 1.81
            }
        },
        {
            "type": "Feature",
            "geometry": {
                "type": "Point",
                "coordinates": [
                    8.57322,
                    44.37234
                ]
            },
            "properties": {
                "alt": 26,
                "imgPath": "",
                "increment": 0,
                "municipality": "Varazze",
                "name": "Bolsine",
                "otherHtml": "0",
                "refDate": "2025-06-16T13:00:00",
                "shortCode": "BOLSN",
                "stationId": 1,
                "updateDateTime": null,
                "value": 0.21000000000000002
            }
        },
        {
            "type": "Feature",
            "geometry": {
                "type": "Point",
                "coordinates": [
                    9.95015,
                    44.19802
                ]
            },
            "properties": {
                "alt": 45,
                "imgPath": "",
                "increment": 0,
                "municipality": "Aulla",
                "name": "Calamazza",
                "otherHtml": "0",
                "refDate": "2025-06-16T13:00:00",
                "shortCode": "CALAM",
                "stationId": 1,
                "updateDateTime": null,
                "value": 0.36
            }
        },
        {
            "type": "Feature",
            "geometry": {
                "type": "Point",
                "coordinates": [
                    9.41004,
                    44.34004
                ]
            },
            "properties": {
                "alt": 90,
                "imgPath": "",
                "increment": 0,
                "municipality": "Ne",
                "name": "Caminata",
                "otherHtml": "0",
                "refDate": "2025-06-16T13:00:00",
                "shortCode": "CAMIN",
                "stationId": 1,
                "updateDateTime": null,
                "value": 0.27
            }
        },
        {
            "type": "Feature",
            "geometry": {
                "type": "Point",
                "coordinates": [
                    8.28944,
                    44.35662
                ]
            },
            "properties": {
                "alt": 348,
                "imgPath": "",
                "increment": 0,
                "municipality": "Carcare",
                "name": "Carcare",
                "otherHtml": "0",
                "refDate": "2025-06-16T13:00:00",
                "shortCode": "CARCA",
                "stationId": 1,
                "updateDateTime": null,
                "value": 0.15
            }
        },
        {
            "type": "Feature",
            "geometry": {
                "type": "Point",
                "coordinates": [
                    8.14573,
                    44.08552
                ]
            },
            "properties": {
                "alt": 52,
                "imgPath": "",
                "increment": 0,
                "municipality": "Cisano sul Neva",
                "name": "Cisano sul Neva",
                "otherHtml": "0",
                "refDate": "2025-06-16T13:00:00",
                "shortCode": "CISAN",
                "stationId": 1,
                "updateDateTime": null,
                "value": 1.06
            }
        },
        {
            "type": "Feature",
            "geometry": {
                "type": "Point",
                "coordinates": [
                    8.88952,
                    44.43788
                ]
            },
            "properties": {
                "alt": 26,
                "imgPath": "",
                "increment": 0,
                "municipality": "Genova",
                "name": "Genova - Rivarolo",
                "otherHtml": "0",
                "refDate": "2025-06-16T13:00:00",
                "shortCode": "GERIV",
                "stationId": 1,
                "updateDateTime": null,
                "value": 0.61
            }
        },
        {
            "type": "Feature",
            "geometry": {
                "type": "Point",
                "coordinates": [
                    8.32248,
                    44.36694
                ]
            },
            "properties": {
                "alt": 358,
                "imgPath": "",
                "increment": 0,
                "municipality": "Cairo Montenotte",
                "name": "Ferrania",
                "otherHtml": "0",
                "refDate": "2025-06-16T13:00:00",
                "shortCode": "FERRA",
                "stationId": 1,
                "updateDateTime": null,
                "value": 0.38
            }
        },
        {
            "type": "Feature",
            "geometry": {
                "type": "Point",
                "coordinates": [
                    9.90619,
                    44.13805
                ]
            },
            "properties": {
                "alt": 25,
                "imgPath": "",
                "increment": 0,
                "municipality": "Vezzano Ligure",
                "name": "Fornola",
                "otherHtml": "0",
                "refDate": "2025-06-16T13:00:00",
                "shortCode": "FRNLA",
                "stationId": 1,
                "updateDateTime": null,
                "value": 0.05
            }
        },
        {
            "type": "Feature",
            "geometry": {
                "type": "Point",
                "coordinates": [
                    8.98654,
                    44.45433
                ]
            },
            "properties": {
                "alt": 62,
                "imgPath": "",
                "increment": 0,
                "municipality": "Genova",
                "name": "Genova - Molassana",
                "otherHtml": "0",
                "refDate": "2025-06-16T13:00:00",
                "shortCode": "GEMOL",
                "stationId": 1,
                "updateDateTime": null,
                "value": 0.04
            }
        },
        {
            "type": "Feature",
            "geometry": {
                "type": "Point",
                "coordinates": [
                    8.98468,
                    44.39625
                ]
            },
            "properties": {
                "alt": 10,
                "imgPath": "",
                "increment": 0,
                "municipality": "Genova",
                "name": "Genova - Sturla",
                "otherHtml": "0",
                "refDate": "2025-06-16T13:00:00",
                "shortCode": "GSTUR",
                "stationId": 1,
                "updateDateTime": null,
                "value": -0.18
            }
        },
        {
            "type": "Feature",
            "geometry": {
                "type": "Point",
                "coordinates": [
                    9.04717,
                    44.44076
                ]
            },
            "properties": {
                "alt": 150,
                "imgPath": "",
                "increment": 0,
                "municipality": "Genova",
                "name": "La Presa",
                "otherHtml": "0",
                "refDate": "2025-06-16T13:00:00",
                "shortCode": "LAPRS",
                "stationId": 1,
                "updateDateTime": null,
                "value": 0.8400000000000001
            }
        },
        {
            "type": "Feature",
            "geometry": {
                "type": "Point",
                "coordinates": [
                    8.97019,
                    44.42032
                ]
            },
            "properties": {
                "alt": 55,
                "imgPath": "",
                "increment": 0,
                "municipality": "Genova",
                "name": "Genova - Fereggiano",
                "otherHtml": "0",
                "refDate": "2025-06-16T13:00:00",
                "shortCode": "GEFER",
                "stationId": 1,
                "updateDateTime": null,
                "value": 0.36
            }
        },
        {
            "type": "Feature",
            "geometry": {
                "type": "Point",
                "coordinates": [
                    8.30735,
                    44.48618
                ]
            },
            "properties": {
                "alt": 267,
                "imgPath": "",
                "increment": 0,
                "municipality": "Piana Crixia",
                "name": "Piana Crixia",
                "otherHtml": "0",
                "refDate": "2025-06-16T12:40:00",
                "shortCode": "PCRIX",
                "stationId": 1,
                "updateDateTime": null,
                "value": 0.77
            }
        },
        {
            "type": "Feature",
            "geometry": {
                "type": "Point",
                "coordinates": [
                    8.60839,
                    44.52561
                ]
            },
            "properties": {
                "alt": 500,
                "imgPath": "",
                "increment": 0,
                "municipality": "Tiglieto",
                "name": "Tiglieto",
                "otherHtml": "0",
                "refDate": "2025-06-16T12:30:00",
                "shortCode": "TIGLT",
                "stationId": 1,
                "updateDateTime": null,
                "value": 0.3
            }
        },
        {
            "type": "Feature",
            "geometry": {
                "type": "Point",
                "coordinates": [
                    8.74603,
                    44.43946
                ]
            },
            "properties": {
                "alt": 35,
                "imgPath": "",
                "increment": 0,
                "municipality": "Genova",
                "name": "Molinetto",
                "otherHtml": "0",
                "refDate": "2025-06-16T13:00:00",
                "shortCode": "MOLIN",
                "stationId": 1,
                "updateDateTime": null,
                "value": 0.63
            }
        },
        {
            "type": "Feature",
            "geometry": {
                "type": "Point",
                "coordinates": [
                    8.06393,
                    44.05445
                ]
            },
            "properties": {
                "alt": 90,
                "imgPath": "",
                "increment": 0,
                "municipality": "Ortovero",
                "name": "Pogli d'Ortovero",
                "otherHtml": "0",
                "refDate": "2025-06-16T13:00:00",
                "shortCode": "POGLI",
                "stationId": 1,
                "updateDateTime": null,
                "value": -0.16999999999999998
            }
        },
        {
            "type": "Feature",
            "geometry": {
                "type": "Point",
                "coordinates": [
                    7.84759,
                    43.88137
                ]
            },
            "properties": {
                "alt": 70,
                "imgPath": "",
                "increment": 0,
                "municipality": "Taggia",
                "name": "Merelli",
                "otherHtml": "0",
                "refDate": "2025-06-16T13:00:00",
                "shortCode": "AMERE",
                "stationId": 1,
                "updateDateTime": null,
                "value": 0.62
            }
        }
    ]
}