{
    "type": "FeatureCollection",
    "features": [
        {
            "type": "Feature",
            "geometry": {
                "type": "Point",
                "coordinates": [
                    8.06768,
                    43.91987
                ]
            },
            "properties": {
                "alt": 56,
                "imgPath": "",
                "increment": 0,
                "municipality": "Diano Castello",
                "name": "Diano Castello - Varcavello",
                "otherHtml": "",
                "refDate": "2025-06-16T13:00:00",
                "shortCode": "DCAVV",
                "stationId": 1,
                "updateDateTime": "06/16/2025 01:14:34 PM",
                "value": 0
            }
        },
        {
            "type": "Feature",
            "geometry": {
                "type": "Point",
                "coordinates": [
                    10.00705,
                    44.10379
                ]
            },
            "properties": {
                "alt": 96,
                "imgPath": "",
                "increment": 0,
                "municipality": "Castelnuovo Magra",
                "name": "Castelnuovo Magra",
                "otherHtml": "",
                "refDate": "2025-06-16T13:00:00",
                "shortCode": "CSMAG",
                "stationId": 1,
                "updateDateTime": null,
                "value": 0
            }
        },
        {
            "type": "Feature",
            "geometry": {
                "type": "Point",
                "coordinates": [
                    9.73483,
                    44.10632
                ]
            },
            "properties": {
                "alt": 238,
                "imgPath": "",
                "increment": 0,
                "municipality": "Riomaggiore",
                "name": "Corniolo",
                "otherHtml": "",
                "refDate": "2025-06-16T13:00:00",
                "shortCode": "CRNLO",
                "stationId": 1,
                "updateDateTime": null,
                "value": 0
            }
        },
        {
            "type": "Feature",
            "geometry": {
                "type": "Point",
                "coordinates": [
                    10.00899,
                    44.07491
                ]
            },
            "properties": {
                "alt": 5,
                "imgPath": "",
                "increment": 0,
                "municipality": "Castelnuovo Magra",
                "name": "Luni - Provasco",
                "otherHtml": "",
                "refDate": "2025-06-16T13:00:00",
                "shortCode": "LUNIS",
                "stationId": 1,
                "updateDateTime": null,
                "value": 0
            }
        },
        {
            "type": "Feature",
            "geometry": {
                "type": "Point",
                "coordinates": [
                    7.86644,
                    44.06393
                ]
            },
            "properties": {
                "alt": 475,
                "imgPath": "",
                "increment": 0,
                "municipality": "Pornassio",
                "name": "Pornassio",
                "otherHtml": "",
                "refDate": "2025-06-16T13:00:00",
                "shortCode": "PORNA",
                "stationId": 1,
                "updateDateTime": null,
                "value": 0
            }
        },
        {
            "type": "Feature",
            "geometry": {
                "type": "Point",
                "coordinates": [
                    9.06066,
                    44.384
                ]
            },
            "properties": {
                "alt": 174,
                "imgPath": "",
                "increment": 0,
                "municipality": "Genova",
                "name": "Genova - S.Ilario",
                "otherHtml": "",
                "refDate": "2025-06-16T13:00:00",
                "shortCode": "STILA",
                "stationId": 1,
                "updateDateTime": null,
                "value": 0
            }
        },
        {
            "type": "Feature",
            "geometry": {
                "type": "Point",
                "coordinates": [
                    8.00433,
                    44.06542
                ]
            },
            "properties": {
                "alt": 343,
                "imgPath": "",
                "increment": 0,
                "municipality": "Ranzo",
                "name": "Ranzo",
                "otherHtml": "",
                "refDate": "2025-06-16T13:00:00",
                "shortCode": "RANZO",
                "stationId": 1,
                "updateDateTime": null,
                "value": 0
            }
        },
        {
            "type": "Feature",
            "geometry": {
                "type": "Point",
                "coordinates": [
                    9.3735,
                    44.29669
                ]
            },
            "properties": {
                "alt": 110,
                "imgPath": "",
                "increment": 0,
                "municipality": "Lavagna",
                "name": "Cavi di Lavagna",
                "otherHtml": "",
                "refDate": "2025-06-16T13:00:00",
                "shortCode": "CAVIP",
                "stationId": 1,
                "updateDateTime": null,
                "value": 0
            }
        },
        {
            "type": "Feature",
            "geometry": {
                "type": "Point",
                "coordinates": [
                    7.62104,
                    43.84601
                ]
            },
            "properties": {
                "alt": 115,
                "imgPath": "",
                "increment": 0,
                "municipality": "Dolceacqua",
                "name": "Borgonuovo",
                "otherHtml": "",
                "refDate": "2025-06-16T13:00:00",
                "shortCode": "BONUO",
                "stationId": 1,
                "updateDateTime": null,
                "value": 0
            }
        },
        {
            "type": "Feature",
            "geometry": {
                "type": "Point",
                "coordinates": [
                    8.13421,
                    44.07678
                ]
            },
            "properties": {
                "alt": 110,
                "imgPath": "",
                "increment": 0,
                "municipality": "Cisano sul Neva",
                "name": "Cenesi",
                "otherHtml": "",
                "refDate": "2025-06-16T13:00:00",
                "shortCode": "CENES",
                "stationId": 1,
                "updateDateTime": null,
                "value": 0
            }
        },
        {
            "type": "Feature",
            "geometry": {
                "type": "Point",
                "coordinates": [
                    8.26235,
                    44.14665
                ]
            },
            "properties": {
                "alt": 91,
                "imgPath": "",
                "increment": 0,
                "municipality": "Pietra Ligure",
                "name": "Castellari",
                "otherHtml": "",
                "refDate": "2025-06-16T13:00:00",
                "shortCode": "CLARI",
                "stationId": 1,
                "updateDateTime": null,
                "value": 0
            }
        },
        {
            "type": "Feature",
            "geometry": {
                "type": "Point",
                "coordinates": [
                    9.6187,
                    44.17888
                ]
            },
            "properties": {
                "alt": 85,
                "imgPath": "",
                "increment": 0,
                "municipality": "Levanto",
                "name": "Levanto - San Gottardo",
                "otherHtml": "",
                "refDate": "2025-06-16T13:00:00",
                "shortCode": "LVTSG",
                "stationId": 1,
                "updateDateTime": null,
                "value": 0
            }
        }
    ]
}