{
    "type": "FeatureCollection",
    "features": [
        {
            "type": "Feature",
            "geometry": {
                "type": "Point",
                "coordinates": [
                    9.06066,
                    44.384
                ]
            },
            "properties": {
                "alt": 174,
                "imgPath": "",
                "increment": 0,
                "municipality": "Genova",
                "name": "Genova - S.Ilario",
                "otherHtml": "",
                "refDate": "2025-06-16T13:00:00",
                "shortCode": "STILA",
                "stationId": 1,
                "updateDateTime": "06/16/2025 01:13:11 PM",
                "value": 891
            }
        },
        {
            "type": "Feature",
            "geometry": {
                "type": "Point",
                "coordinates": [
                    7.78625,
                    43.82265
                ]
            },
            "properties": {
                "alt": 61,
                "imgPath": "",
                "increment": 0,
                "municipality": "Sanremo",
                "name": "Sanremo",
                "otherHtml": "",
                "refDate": "2025-06-16T13:00:00",
                "shortCode": "SREMO",
                "stationId": 1,
                "updateDateTime": null,
                "value": 819
            }
        },
        {
            "type": "Feature",
            "geometry": {
                "type": "Point",
                "coordinates": [
                    8.06768,
                    43.91987
                ]
            },
            "properties": {
                "alt": 56,
                "imgPath": "",
                "increment": 0,
                "municipality": "Diano Castello",
                "name": "Diano Castello - Varcavello",
                "otherHtml": "",
                "refDate": "2025-06-16T13:00:00",
                "shortCode": "DCAVV",
                "stationId": 1,
                "updateDateTime": null,
                "value": 686
            }
        },
        {
            "type": "Feature",
            "geometry": {
                "type": "Point",
                "coordinates": [
                    9.82819,
                    44.10703
                ]
            },
            "properties": {
                "alt": 55,
                "imgPath": "",
                "increment": 0,
                "municipality": "La Spezia",
                "name": "La Spezia",
                "otherHtml": "",
                "refDate": "2025-06-16T13:00:00",
                "shortCode": "SPZIA",
                "stationId": 1,
                "updateDateTime": null,
                "value": 118
            }
        },
        {
            "type": "Feature",
            "geometry": {
                "type": "Point",
                "coordinates": [
                    8.01652,
                    43.87957
                ]
            },
            "properties": {
                "alt": 71,
                "imgPath": "",
                "increment": 0,
                "municipality": "Imperia",
                "name": "Imperia - Oss. Meteosismico",
                "otherHtml": "",
                "refDate": "2025-06-16T13:00:00",
                "shortCode": "IMPER",
                "stationId": 1,
                "updateDateTime": null,
                "value": 801
            }
        },
        {
            "type": "Feature",
            "geometry": {
                "type": "Point",
                "coordinates": [
                    10.00705,
                    44.10379
                ]
            },
            "properties": {
                "alt": 96,
                "imgPath": "",
                "increment": 0,
                "municipality": "Castelnuovo Magra",
                "name": "Castelnuovo Magra",
                "otherHtml": "",
                "refDate": "2025-06-16T13:00:00",
                "shortCode": "CSMAG",
                "stationId": 1,
                "updateDateTime": null,
                "value": 121
            }
        },
        {
            "type": "Feature",
            "geometry": {
                "type": "Point",
                "coordinates": [
                    9.38773,
                    44.46112
                ]
            },
            "properties": {
                "alt": 1040,
                "imgPath": "",
                "increment": 0,
                "municipality": "Borzonasca",
                "name": "Giacopiane - Lago",
                "otherHtml": "",
                "refDate": "2025-06-16T13:00:00",
                "shortCode": "GIACO",
                "stationId": 1,
                "updateDateTime": null,
                "value": 84
            }
        },
        {
            "type": "Feature",
            "geometry": {
                "type": "Point",
                "coordinates": [
                    8.94591,
                    44.40035
                ]
            },
            "properties": {
                "alt": 30,
                "imgPath": "",
                "increment": 0,
                "municipality": "Genova",
                "name": "Genova - Centro Funzionale",
                "otherHtml": "",
                "refDate": "2025-06-16T13:00:00",
                "shortCode": "CFUNZ",
                "stationId": 1,
                "updateDateTime": null,
                "value": 848
            }
        },
        {
            "type": "Feature",
            "geometry": {
                "type": "Point",
                "coordinates": [
                    8.33939,
                    44.45176
                ]
            },
            "properties": {
                "alt": 450,
                "imgPath": "",
                "increment": 0,
                "municipality": "Dego",
                "name": "Dego - Girini",
                "otherHtml": "",
                "refDate": "2025-06-16T13:00:00",
                "shortCode": "DEGIR",
                "stationId": 1,
                "updateDateTime": null,
                "value": 941
            }
        },
        {
            "type": "Feature",
            "geometry": {
                "type": "Point",
                "coordinates": [
                    7.69983,
                    43.98152
                ]
            },
            "properties": {
                "alt": 1357,
                "imgPath": "",
                "increment": 0,
                "municipality": "Pigna",
                "name": "Colle Belenda",
                "otherHtml": "",
                "refDate": "2025-06-16T13:00:00",
                "shortCode": "BELEN",
                "stationId": 1,
                "updateDateTime": null,
                "value": 136
            }
        },
        {
            "type": "Feature",
            "geometry": {
                "type": "Point",
                "coordinates": [
                    9.73483,
                    44.10632
                ]
            },
            "properties": {
                "alt": 238,
                "imgPath": "",
                "increment": 0,
                "municipality": "Riomaggiore",
                "name": "Corniolo",
                "otherHtml": "",
                "refDate": "2025-06-16T13:00:00",
                "shortCode": "CRNLO",
                "stationId": 1,
                "updateDateTime": null,
                "value": 98
            }
        },
        {
            "type": "Feature",
            "geometry": {
                "type": "Point",
                "coordinates": [
                    8.79867,
                    44.48017
                ]
            },
            "properties": {
                "alt": 980,
                "imgPath": "",
                "increment": 0,
                "municipality": "Genova",
                "name": "Monte Pennello",
                "otherHtml": "",
                "refDate": "2025-06-16T13:00:00",
                "shortCode": "MOPEN",
                "stationId": 1,
                "updateDateTime": null,
                "value": 757
            }
        },
        {
            "type": "Feature",
            "geometry": {
                "type": "Point",
                "coordinates": [
                    9.16912,
                    44.32709
                ]
            },
            "properties": {
                "alt": 610,
                "imgPath": "",
                "increment": 0,
                "municipality": "Camogli",
                "name": "Monte Portofino",
                "otherHtml": "",
                "refDate": "2025-06-16T13:00:00",
                "shortCode": "MTPOR",
                "stationId": 1,
                "updateDateTime": null,
                "value": 856
            }
        },
        {
            "type": "Feature",
            "geometry": {
                "type": "Point",
                "coordinates": [
                    9.01824,
                    44.58458
                ]
            },
            "properties": {
                "alt": 762,
                "imgPath": "",
                "increment": 0,
                "municipality": "Crocefieschi",
                "name": "Crocefieschi - Santuario",
                "otherHtml": "",
                "refDate": "2025-06-16T13:00:00",
                "shortCode": "CRCFI",
                "stationId": 1,
                "updateDateTime": null,
                "value": 837
            }
        },
        {
            "type": "Feature",
            "geometry": {
                "type": "Point",
                "coordinates": [
                    10.00899,
                    44.07491
                ]
            },
            "properties": {
                "alt": 5,
                "imgPath": "",
                "increment": 0,
                "municipality": "Castelnuovo Magra",
                "name": "Luni - Provasco",
                "otherHtml": "",
                "refDate": "2025-06-16T13:00:00",
                "shortCode": "LUNIS",
                "stationId": 1,
                "updateDateTime": null,
                "value": 146
            }
        },
        {
            "type": "Feature",
            "geometry": {
                "type": "Point",
                "coordinates": [
                    9.93842,
                    44.07129
                ]
            },
            "properties": {
                "alt": 405,
                "imgPath": "",
                "increment": 0,
                "municipality": "Lerici",
                "name": "Monte Rocchetta",
                "otherHtml": "",
                "refDate": "2025-06-16T13:00:00",
                "shortCode": "MROCC",
                "stationId": 1,
                "updateDateTime": null,
                "value": 156
            }
        },
        {
            "type": "Feature",
            "geometry": {
                "type": "Point",
                "coordinates": [
                    7.86644,
                    44.06393
                ]
            },
            "properties": {
                "alt": 475,
                "imgPath": "",
                "increment": 0,
                "municipality": "Pornassio",
                "name": "Pornassio",
                "otherHtml": "",
                "refDate": "2025-06-16T13:00:00",
                "shortCode": "PORNA",
                "stationId": 1,
                "updateDateTime": null,
                "value": 804
            }
        },
        {
            "type": "Feature",
            "geometry": {
                "type": "Point",
                "coordinates": [
                    8.00433,
                    44.06542
                ]
            },
            "properties": {
                "alt": 343,
                "imgPath": "",
                "increment": 0,
                "municipality": "Ranzo",
                "name": "Ranzo",
                "otherHtml": "",
                "refDate": "2025-06-16T13:00:00",
                "shortCode": "RANZO",
                "stationId": 1,
                "updateDateTime": null,
                "value": 744
            }
        },
        {
            "type": "Feature",
            "geometry": {
                "type": "Point",
                "coordinates": [
                    8.74299,
                    44.43344
                ]
            },
            "properties": {
                "alt": 104,
                "imgPath": "",
                "increment": 0,
                "municipality": "Genova",
                "name": "Madonna delle Grazie",
                "otherHtml": "",
                "refDate": "2025-06-16T13:00:00",
                "shortCode": "MADGR",
                "stationId": 1,
                "updateDateTime": null,
                "value": 727
            }
        },
        {
            "type": "Feature",
            "geometry": {
                "type": "Point",
                "coordinates": [
                    7.79343,
                    44.04202
                ]
            },
            "properties": {
                "alt": 1845,
                "imgPath": "",
                "increment": 0,
                "municipality": "Montegrosso Pian Latte",
                "name": "Poggio Fearza",
                "otherHtml": "",
                "refDate": "2025-06-16T13:00:00",
                "shortCode": "PFEAR",
                "stationId": 1,
                "updateDateTime": null,
                "value": 539
            }
        },
        {
            "type": "Feature",
            "geometry": {
                "type": "Point",
                "coordinates": [
                    9.3735,
                    44.29669
                ]
            },
            "properties": {
                "alt": 110,
                "imgPath": "",
                "increment": 0,
                "municipality": "Lavagna",
                "name": "Cavi di Lavagna",
                "otherHtml": "",
                "refDate": "2025-06-16T13:00:00",
                "shortCode": "CAVIP",
                "stationId": 1,
                "updateDateTime": null,
                "value": 173
            }
        },
        {
            "type": "Feature",
            "geometry": {
                "type": "Point",
                "coordinates": [
                    8.1693,
                    44.00624
                ]
            },
            "properties": {
                "alt": 25,
                "imgPath": "",
                "increment": 0,
                "municipality": "Alassio",
                "name": "Alassio",
                "otherHtml": "",
                "refDate": "2025-06-16T13:00:00",
                "shortCode": "ALASS",
                "stationId": 1,
                "updateDateTime": null,
                "value": 801
            }
        },
        {
            "type": "Feature",
            "geometry": {
                "type": "Point",
                "coordinates": [
                    9.54033,
                    44.21359
                ]
            },
            "properties": {
                "alt": 421,
                "imgPath": "",
                "increment": 0,
                "municipality": "Framura",
                "name": "Framura",
                "otherHtml": "",
                "refDate": "2025-06-16T13:00:00",
                "shortCode": "FRAMU",
                "stationId": 1,
                "updateDateTime": null,
                "value": 79
            }
        },
        {
            "type": "Feature",
            "geometry": {
                "type": "Point",
                "coordinates": [
                    9.21045,
                    44.3362
                ]
            },
            "properties": {
                "alt": 30,
                "imgPath": "",
                "increment": 0,
                "municipality": "Santa Margherita Ligure",
                "name": "S. Margherita Ligure",
                "otherHtml": "",
                "refDate": "2025-06-16T13:00:00",
                "shortCode": "SMARG",
                "stationId": 1,
                "updateDateTime": null,
                "value": 819
            }
        },
        {
            "type": "Feature",
            "geometry": {
                "type": "Point",
                "coordinates": [
                    7.62104,
                    43.84601
                ]
            },
            "properties": {
                "alt": 115,
                "imgPath": "",
                "increment": 0,
                "municipality": "Dolceacqua",
                "name": "Borgonuovo",
                "otherHtml": "",
                "refDate": "2025-06-16T13:00:00",
                "shortCode": "BONUO",
                "stationId": 1,
                "updateDateTime": null,
                "value": 844
            }
        },
        {
            "type": "Feature",
            "geometry": {
                "type": "Point",
                "coordinates": [
                    8.48305,
                    44.3062
                ]
            },
            "properties": {
                "alt": 24,
                "imgPath": "",
                "increment": 0,
                "municipality": "Savona",
                "name": "Savona - Istituto Nautico",
                "otherHtml": "",
                "refDate": "2025-06-16T13:00:00",
                "shortCode": "INASV",
                "stationId": 1,
                "updateDateTime": null,
                "value": 888
            }
        },
        {
            "type": "Feature",
            "geometry": {
                "type": "Point",
                "coordinates": [
                    8.13421,
                    44.07678
                ]
            },
            "properties": {
                "alt": 110,
                "imgPath": "",
                "increment": 0,
                "municipality": "Cisano sul Neva",
                "name": "Cenesi",
                "otherHtml": "",
                "refDate": "2025-06-16T13:00:00",
                "shortCode": "CENES",
                "stationId": 1,
                "updateDateTime": null,
                "value": 714
            }
        },
        {
            "type": "Feature",
            "geometry": {
                "type": "Point",
                "coordinates": [
                    8.26235,
                    44.14665
                ]
            },
            "properties": {
                "alt": 91,
                "imgPath": "",
                "increment": 0,
                "municipality": "Pietra Ligure",
                "name": "Castellari",
                "otherHtml": "",
                "refDate": "2025-06-16T13:00:00",
                "shortCode": "CLARI",
                "stationId": 1,
                "updateDateTime": null,
                "value": 704
            }
        },
        {
            "type": "Feature",
            "geometry": {
                "type": "Point",
                "coordinates": [
                    9.6187,
                    44.17888
                ]
            },
            "properties": {
                "alt": 85,
                "imgPath": "",
                "increment": 0,
                "municipality": "Levanto",
                "name": "Levanto - San Gottardo",
                "otherHtml": "",
                "refDate": "2025-06-16T13:00:00",
                "shortCode": "LVTSG",
                "stationId": 1,
                "updateDateTime": null,
                "value": 95
            }
        }
    ]
}