{
    "type": "FeatureCollection",
    "features": [
        {
            "type": "Feature",
            "geometry": {
                "type": "Point",
                "coordinates": [
                    8.177,
                    43.92167
                ]
            },
            "properties": {
                "alt": 0,
                "imgPath": "",
                "increment": 0,
                "municipality": "-",
                "name": "BOA Capo Mele",
                "otherHtml": "",
                "refDate": "2025-04-28T14:00:00",
                "shortCode": "BOACM",
                "stationId": 1,
                "updateDateTime": "06/16/2025 01:20:46 PM",
                "value": 0
            }
        }
    ]
}